,raw_text,station_id,observation_time,latitude,longitude,temp_c,dewpoint_c,wind_dir_degrees,wind_speed_kt,wind_gust_kt,visibility_statute_mi,altim_in_hg,sea_level_pressure_mb,corrected,auto,auto_station,maintenance_indicator_on,no_signal,lightning_sensor_off,freezing_rain_sensor_off,present_weather_sensor_off,wx_string,sky_cover,cloud_base_ft_agl,sky_cover.1,cloud_base_ft_agl.1,sky_cover.2,cloud_base_ft_agl.2,sky_cover.3,cloud_base_ft_agl.3,flight_category,three_hr_pressure_tendency_mb,maxT_c,minT_c,maxT24hr_c,minT24hr_c,precip_in,pcp3hr_in,pcp6hr_in,pcp24hr_in,snow_in,vert_vis_ft,metar_type,elevation_m
0,UUDD 091252Z 36004MPS 340V040 5000 BR OVC004 07/06 Q1013 R32L/CLRD60 NOSIG,UUDD,2024-10-09T12:52:00Z,55.409,37.906,7.0,6.0,360,8.0,,3.11,29.91,,,,,,True,,,,BR,OVC,400.0,,,,,,,LIFR,,,,,,,,,,,,SPECI,165.0
1,KTPL 091251Z AUTO 00000KT 10SM CLR 14/09 A3006 RMK AO2 SLP171 T01390089,KTPL,2024-10-09T12:51:00Z,31.157,-97.4094,13.9,8.9,0,0.0,,10+,30.06,1017.1,,True,True,,,,,,,CLR,,,,,,,,VFR,,,,,,,,,,,,METAR,206.0
2,KOCF 091251Z 05007KT 10SM -RA FEW011 BKN060 BKN075 23/22 A2984 RMK AO2 SLP103 P0001 T02280222,KOCF,2024-10-09T12:51:00Z,29.1636,-82.221,22.8,22.2,50,7.0,,10+,29.84,1010.3,,,True,,,,,,-RA,FEW,1100.0,BKN,6000.0,BKN,7500.0,,,VFR,,,,,,0.01,,,,,,METAR,24.0
3,KMPV 091251Z AUTO 00000KT 10SM CLR 06/05 A2989 RMK AO2 SLP131 T00610050,KMPV,2024-10-09T12:51:00Z,44.205,-72.5655,6.1,5.0,0,0.0,,10+,29.89,1013.1,,True,True,,,,,,,CLR,,,,,,,,VFR,,,,,,,,,,,,METAR,336.0
4,KLWB 091251Z 20003KT 10SM CLR 06/05 A3010,KLWB,2024-10-09T12:51:00Z,37.8633,-80.3923,6.0,5.0,200,3.0,,10+,30.1,,,,,,,,,,,CLR,,,,,,,,VFR,,,,,,,,,,,,METAR,702.0
5,KLGU 091251Z AUTO 00000KT 10SM CLR 06/06 A3016 RMK AO2 SLP181 T00610056,KLGU,2024-10-09T12:51:00Z,41.7865,-111.852,6.1,5.6,0,0.0,,10+,30.16,1018.1,,True,True,,,,,,,CLR,,,,,,,,VFR,,,,,,,,,,,,METAR,1359.0
6,K2W6 091251Z AUTO 23005KT 10SM SCT002 14/10 A3002 RMK AO1,K2W6,2024-10-09T12:51:00Z,38.315,-76.55,14.0,10.0,230,5.0,,10+,30.02,,,True,True,,,,,,,SCT,200.0,,,,,,,VFR,,,,,,,,,,,,METAR,40.0
7,CYKP 091251Z AUTO 32008KT 1/2SM -RA VV005 03/ A3009 RMK DP MISG SLP199,CYKP,2024-10-09T12:51:00Z,51.659,-85.901,3.0,,320,8.0,,0.5,30.09,1019.9,,True,,,,,,,-RA,OVX,0.0,,,,,,,LIFR,,,,,,,,,,,500.0,SPECI,181.0
8,CYDL 091251Z AUTO 08003KT 350V110 5/8SM BR SCT001 BKN220 OVC240 M02/M02 A2970 RMK SLP086,CYDL,2024-10-09T12:51:00Z,58.426,-130.025,-2.0,-2.0,80,3.0,,0.63,29.7,1008.6,,True,,,,,,,BR,SCT,100.0,BKN,22000.0,OVC,24000.0,,,LIFR,,,,,,,,,,,,SPECI,804.0
9,CYAT 091251Z AUTO 32007KT 5SM BR BKN019 OVC030 05/05 A3000 RMK SLP160,CYAT,2024-10-09T12:51:00Z,52.927,-82.432,5.0,5.0,320,7.0,,5,30.0,1016.0,,True,,,,,,,BR,BKN,1900.0,OVC,3000.0,,,,,MVFR,,,,,,,,,,,,SPECI,4.0
10,UUOK 091250Z 30002MPS 9999 OVC015 11/09 Q1014 R30/090060 NOSIG RMK QFE741/0989,UUOK,2024-10-09T12:50:00Z,51.751,36.297,11.0,9.0,300,4.0,,6+,29.94,,,,,,True,,,,,OVC,1500.0,,,,,,,MVFR,,,,,,,,,,,,SPECI,203.0
11,TJBQ 091250Z 00000KT 10SM SCT040 30/24 A2998,TJBQ,2024-10-09T12:50:00Z,18.494,-67.128,30.0,24.0,0,0.0,,10+,29.98,,,,,,,,,,,SCT,4000.0,,,,,,,VFR,,,,,,,,,,,,METAR,69.0
12,PKMR 091250Z 13002KT 15SM FEW015 SCT050 BKN120 OVC300 28/24 A2980 RMK SLP093 T02830244,PKMR,2024-10-09T12:50:00Z,7.09,171.383,28.3,24.4,130,2.0,,15,29.8,1009.3,,,,,,,,,,FEW,1500.0,SCT,5000.0,BKN,12000.0,OVC,30000.0,VFR,,,,,,,,,,,,METAR,7.0
13,NSTU 091250Z 11012KT 10SM SCT016 BKN040 BKN100 27/24 A2989 RMK SLP122 T02670242,NSTU,2024-10-09T12:50:00Z,-14.337,-170.721,26.7,24.2,110,12.0,,10+,29.89,1012.2,,,,,,,,,,SCT,1600.0,BKN,4000.0,BKN,10000.0,,,VFR,,,,,,,,,,,,METAR,8.0
14,MMGA 091250Z E02003KT 10SM SKC ///// A//// RMK ISOL AC RTS,MMGA,2024-10-09T12:50:00Z,-99.99,-99.99,,,20,3.0,,10+,0.0,,,,,,,,,,,SKC,,,,,,,,VFR,,,,,,,,,,,,METAR,9999.0
15,LWSK 091250Z VRB02KT 9999 FEW050 SCT100 23/14 Q1012 NOSIG,LWSK,2024-10-09T12:50:00Z,41.952,21.627,23.0,14.0,VRB,2.0,,6+,29.88,,,,,,True,,,,,FEW,5000.0,SCT,10000.0,,,,,VFR,,,,,,,,,,,,METAR,232.0
16,LWOH 091250Z 16009KT 130V190 9999 FEW014 SCT049 20/15 Q1015,LWOH,2024-10-09T12:50:00Z,41.181,20.744,20.0,15.0,160,9.0,,6+,29.97,,,,,,,,,,,FEW,1400.0,SCT,4900.0,,,,,VFR,,,,,,,,,,,,METAR,700.0
17,LSZS 091250Z 22012KT 9999 FEW032 BKN050 10/04 Q1008 RMK O TL180,LSZS,2024-10-09T12:50:00Z,46.526,9.879,10.0,4.0,220,12.0,,6+,29.76,,,,,,,,,,,FEW,3200.0,BKN,5000.0,,,,,VFR,,,,,,,,,,,,METAR,1708.0
18,LSZR 091250Z 28007KT 250V310 CAVOK 16/13 Q0996 RMK M,LSZR,2024-10-09T12:50:00Z,47.485,9.561,16.0,13.0,280,7.0,,6+,29.41,,,,,,,,,,,CAVOK,,,,,,,,VFR,,,,,,,,,,,,METAR,396.0
19,LSZL 091250Z 00000KT 9999 FEW030 SCT060 16/12 Q1006 RMK BLU+,LSZL,2024-10-09T12:50:00Z,46.164,8.878,16.0,12.0,0,0.0,,6+,29.7,,,,,,,,,,,FEW,3000.0,SCT,6000.0,,,,,VFR,,,,,,,,,,,,METAR,198.0
20,LSZH 091250Z 30004KT 270V340 CAVOK 15/12 Q0997 NOSIG,LSZH,2024-10-09T12:50:00Z,47.48,8.536,15.0,12.0,300,4.0,,6+,29.44,,,,,,True,,,,,CAVOK,,,,,,,,VFR,,,,,,,,,,,,METAR,424.0
21,LSZG 091250Z 24003KT 200V300 9999 FEW029 15/11 Q0997,LSZG,2024-10-09T12:50:00Z,47.179,7.415,15.0,11.0,240,3.0,,6+,29.44,,,,,,,,,,,FEW,2900.0,,,,,,,VFR,,,,,,,,,,,,METAR,428.0
22,LSZC 091250Z VRB02KT CAVOK 18/11 Q0997,LSZC,2024-10-09T12:50:00Z,46.972,8.392,18.0,11.0,VRB,2.0,,6+,29.44,,,,,,,,,,,CAVOK,,,,,,,,VFR,,,,,,,,,,,,METAR,445.0
23,LSZB 091250Z VRB03KT 9999 BKN080 16/11 Q0997,LSZB,2024-10-09T12:50:00Z,46.914,7.497,16.0,11.0,VRB,3.0,,6+,29.44,,,,,,,,,,,BKN,8000.0,,,,,,,VFR,,,,,,,,,,,,METAR,510.0
24,LSZA 091250Z 19004KT 9999 BKN050 17/13 Q1006,LSZA,2024-10-09T12:50:00Z,46.004,8.91,17.0,13.0,190,4.0,,6+,29.7,,,,,,,,,,,BKN,5000.0,,,,,,,VFR,,,,,,,,,,,,METAR,276.0
25,LSGS 091250Z VRB01KT 9999 BKN100 16/11 Q1002,LSGS,2024-10-09T12:50:00Z,46.219,7.33,16.0,11.0,VRB,1.0,,6+,29.59,,,,,,,,,,,BKN,10000.0,,,,,,,VFR,,,,,,,,,,,,METAR,482.0
26,LSGG 091250Z AUTO 26007KT 9999 BKN095 19/11 Q0996 NOSIG,LSGG,2024-10-09T12:50:00Z,46.248,6.128,19.0,11.0,260,7.0,,6+,29.41,,,True,,,True,,,,,BKN,9500.0,,,,,,,VFR,,,,,,,,,,,,METAR,411.0
27,LSGC 091250Z AUTO 20012G24KT 150V230 CAVOK 18/07 Q0996,LSGC,2024-10-09T12:50:00Z,47.083,6.792,18.0,7.0,200,12.0,24.0,6+,29.41,,,True,,,,,,,,CAVOK,,,,,,,,VFR,,,,,,,,,,,,METAR,1018.0
28,LLHA 091250Z 33010KT 9999 FEW020 SCT030 27/22 Q1013,LLHA,2024-10-09T12:50:00Z,32.809,35.043,27.0,22.0,330,10.0,,6+,29.91,,,,,,,,,,,FEW,2000.0,SCT,3000.0,,,,,VFR,,,,,,,,,,,,METAR,3.0
29,LLER 091250Z 02016KT CAVOK 34/11 Q1011,LLER,2024-10-09T12:50:00Z,29.722,35.012,34.0,11.0,20,16.0,,6+,29.85,,,,,,,,,,,CAVOK,,,,,,,,VFR,,,,,,,,,,,,METAR,88.0
30,LLBG 091250Z 31011KT 9999 FEW025 28/20 Q1013 NOSIG,LLBG,2024-10-09T12:50:00Z,32.011,34.887,28.0,20.0,310,11.0,,6+,29.91,,,,,,True,,,,,FEW,2500.0,,,,,,,VFR,,,,,,,,,,,,METAR,35.0
31,LATI 091250Z 09003KT 030V130 9999 FEW044 SCT080 23/18 Q1013 NOSIG,LATI,2024-10-09T12:50:00Z,41.419,19.716,23.0,18.0,90,3.0,,6+,29.91,,,,,,True,,,,,FEW,4400.0,SCT,8000.0,,,,,VFR,,,,,,,,,,,,METAR,32.0
32,KVUO 091250Z AUTO 28004KT 10SM SCT018 BKN023 OVC085 16/14 A3003 RMK AO2,KVUO,2024-10-09T12:50:00Z,45.621,-122.654,16.0,14.0,280,4.0,,10+,30.03,,,True,True,,,,,,,SCT,1800.0,BKN,2300.0,OVC,8500.0,,,MVFR,,,,,,,,,,,,SPECI,7.0
33,KVQQ 091250Z 03009G15KT 4SM -RA SCT031 BKN040 24/24 A2988,KVQQ,2024-10-09T12:50:00Z,30.2035,-81.8725,24.0,24.0,30,9.0,15.0,4,29.88,,,,,,,,,,-RA,SCT,3100.0,BKN,4000.0,,,,,MVFR,,,,,,,,,,,,METAR,21.0
34,KUKF 091250Z AUTO 00000KT 10SM CLR 09/08 A3014 RMK AO2,KUKF,2024-10-09T12:50:00Z,36.2188,-81.1002,9.0,8.0,0,0.0,,10+,30.14,,,True,True,,,,,,,CLR,,,,,,,,VFR,,,,,,,,,,,,METAR,383.0
35,KRYY 091250Z 09003KT 10SM CLR 16/15 A3005 RMK AO2 SLPNO T01600150 $,KRYY,2024-10-09T12:50:00Z,34.0146,-84.5964,16.0,15.0,90,3.0,,10+,30.05,,,,True,True,,,,,,CLR,,,,,,,,VFR,,,,,,,,,,,,METAR,306.0
36,KQFX 091250Z AUTO 00000KT 9999 BKN046 15/14 A3000 RMK A02 TSNO,KQFX,2024-10-09T12:50:00Z,-99.99,-99.99,15.0,14.0,0,0.0,,6+,30.0,,,True,True,,,True,,,,BKN,4600.0,,,,,,,VFR,,,,,,,,,,,,METAR,9999.0
37,KQFV 091250Z AUTO 08001KT 9999 BKN210 11/10 A3008 RMK A02 TSNO,KQFV,2024-10-09T12:50:00Z,-99.99,-99.99,11.0,10.0,80,1.0,,6+,30.08,,,True,True,,,True,,,,BKN,21000.0,,,,,,,VFR,,,,,,,,,,,,METAR,9999.0
38,KQFU 091250Z AUTO 00000KT 9999 FEW080 14/12 A3005 RMK A02 TSNO,KQFU,2024-10-09T12:50:00Z,-99.99,-99.99,14.0,12.0,0,0.0,,6+,30.05,,,True,True,,,True,,,,FEW,8000.0,,,,,,,VFR,,,,,,,,,,,,METAR,9999.0
39,KQFT 091250Z AUTO 03003KT 9999 BKN055 BKN240 16/14 A3000 RMK A02 TSNO,KQFT,2024-10-09T12:50:00Z,-99.99,-99.99,16.0,14.0,30,3.0,,6+,30.0,,,True,True,,,True,,,,BKN,5500.0,BKN,24000.0,,,,,VFR,,,,,,,,,,,,METAR,9999.0
40,KQFB 091250Z AUTO 33004KT 9999 FEW034 14/13 A3009 RMK A02 TSNO,KQFB,2024-10-09T12:50:00Z,-99.99,-99.99,14.0,13.0,330,4.0,,6+,30.09,,,True,True,,,True,,,,FEW,3400.0,,,,,,,VFR,,,,,,,,,,,,METAR,9999.0
41,KQEX 091250Z AUTO 36001KT 9999 CLR 17/12 A2997 RMK A02 TSNO,KQEX,2024-10-09T12:50:00Z,-99.99,-99.99,17.0,12.0,360,1.0,,6+,29.97,,,True,True,,,True,,,,CLR,,,,,,,,VFR,,,,,,,,,,,,METAR,9999.0
42,KQEW 091250Z AUTO 30001KT 9999 FEW042 SCT055 16/11 A3005 RMK A02 TSNO,KQEW,2024-10-09T12:50:00Z,-99.99,-99.99,16.0,11.0,300,1.0,,6+,30.05,,,True,True,,,True,,,,FEW,4200.0,SCT,5500.0,,,,,VFR,,,,,,,,,,,,METAR,9999.0
43,KQEV 091250Z AUTO 00000KT 9999 BKN220 15/13 A2997 RMK A02 TSNO,KQEV,2024-10-09T12:50:00Z,-99.99,-99.99,15.0,13.0,0,0.0,,6+,29.97,,,True,True,,,True,,,,BKN,22000.0,,,,,,,VFR,,,,,,,,,,,,METAR,9999.0
44,KQEQ 091250Z AUTO 32002KT 9999 SCT080 14/13 A3004 RMK A02 TSNO,KQEQ,2024-10-09T12:50:00Z,-99.99,-99.99,14.0,13.0,320,2.0,,6+,30.04,,,True,True,,,True,,,,SCT,8000.0,,,,,,,VFR,,,,,,,,,,,,METAR,9999.0
45,KQEP 091250Z AUTO 00000KT 9999 FEW047 SCT075 15/14 A3003 RMK A02 TSNO,KQEP,2024-10-09T12:50:00Z,-99.99,-99.99,15.0,14.0,0,0.0,,6+,30.03,,,True,True,,,True,,,,FEW,4700.0,SCT,7500.0,,,,,VFR,,,,,,,,,,,,METAR,9999.0
46,KQEJ 091250Z AUTO 01001KT 9999 SCT220 12/11 A3004 RMK A02 TSNO,KQEJ,2024-10-09T12:50:00Z,-99.99,-99.99,12.0,11.0,10,1.0,,6+,30.04,,,True,True,,,True,,,,SCT,22000.0,,,,,,,VFR,,,,,,,,,,,,METAR,9999.0
47,KQEI 091250Z AUTO 01001KT 9999 FEW055 BKN230 13/12 A3005 RMK A02 TSNO,KQEI,2024-10-09T12:50:00Z,-99.99,-99.99,13.0,12.0,10,1.0,,6+,30.05,,,True,True,,,True,,,,FEW,5500.0,BKN,23000.0,,,,,VFR,,,,,,,,,,,,METAR,9999.0
48,KOMN 091250Z 13012G24KT 1/2SM +RA OVC005 24/24 A2984,KOMN,2024-10-09T12:50:00Z,29.3009,-81.111,24.0,24.0,130,12.0,24.0,0.5,29.84,,,,,,,,,,+RA,OVC,500.0,,,,,,,LIFR,,,,,,,,,,,,METAR,7.0
49,KOLV 091250Z 02005KT 10SM CLR 11/09 A3006,KOLV,2024-10-09T12:50:00Z,34.9808,-89.7851,11.0,9.0,20,5.0,,10+,30.06,,,,,,,,,,,CLR,,,,,,,,VFR,,,,,,,,,,,,METAR,124.0
50,KNQA 091250Z 05003KT 10SM CLR 13/07 A3006,KNQA,2024-10-09T12:50:00Z,35.3619,-89.8612,13.0,7.0,50,3.0,,10+,30.06,,,,,,,,,,,CLR,,,,,,,,VFR,,,,,,,,,,,,METAR,90.0
51,KMWK 091250Z AUTO 00000KT 10SM CLR 11/08 A3011 RMK AO2 T01090083,KMWK,2024-10-09T12:50:00Z,36.4568,-80.5548,10.9,8.3,0,0.0,,10+,30.11,,,True,True,,,,,,,CLR,,,,,,,,VFR,,,,,,,,,,,,METAR,374.0
52,KMRN 091250Z AUTO 00000KT 10SM CLR 11/10 A3009 RMK AO2 T01120104,KMRN,2024-10-09T12:50:00Z,35.8192,-81.6097,11.2,10.4,0,0.0,,10+,30.09,,,True,True,,,,,,,CLR,,,,,,,,VFR,,,,,,,,,,,,METAR,375.0
53,KMMU 091250Z 00000KT 10SM BKN080 11/10 A2995,KMMU,2024-10-09T12:50:00Z,40.7989,-74.4164,11.0,10.0,0,0.0,,10+,29.95,,,,,,,,,,,BKN,8000.0,,,,,,,VFR,,,,,,,,,,,,METAR,55.0
54,KLEB 091250Z 18003KT 1SM BR VV001 06/04 A2988 RMK AO2 VIS 1/4V4,KLEB,2024-10-09T12:50:00Z,43.6271,-72.3054,6.0,4.0,180,3.0,,1,29.88,,,,True,,,,,,BR,OVX,0.0,,,,,,,LIFR,,,,,,,,,,,100.0,SPECI,169.0
55,KJQF 091250Z 35003KT 10SM CLR 14/13 A3009,KJQF,2024-10-09T12:50:00Z,35.3896,-80.7074,14.0,13.0,350,3.0,,10+,30.09,,,,,,,,,,,CLR,,,,,,,,VFR,,,,,,,,,,,,METAR,204.0
56,KIXA 091250Z AUTO 00000KT 10SM CLR 11/11 A3004 RMK AO2,KIXA,2024-10-09T12:50:00Z,36.331,-77.6333,11.0,11.0,0,0.0,,10+,30.04,,,True,True,,,,,,,CLR,,,,,,,,VFR,,,,,,,,,,,,METAR,43.0
57,KHUM 091250Z 34006KT 7SM CLR 17/14 A2991,KHUM,2024-10-09T12:50:00Z,29.5634,-90.6629,17.0,14.0,340,6.0,,7,29.91,,,,,,,,,,,CLR,,,,,,,,VFR,,,,,,,,,,,,METAR,1.0
58,KHRJ 091250Z AUTO 00000KT 10SM CLR 13/12 A3006 RMK AO2 T01330117,KHRJ,2024-10-09T12:50:00Z,35.3794,-78.7356,13.3,11.7,0,0.0,,10+,30.06,,,True,True,,,,,,,CLR,,,,,,,,VFR,,,,,,,,,,,,METAR,55.0
59,KHQZ 091250Z 00000KT 10SM CLR 14/09 A3007,KHQZ,2024-10-09T12:50:00Z,32.7514,-96.5291,14.0,9.0,0,0.0,,10+,30.07,,,,,,,,,,,CLR,,,,,,,,VFR,,,,,,,,,,,,METAR,136.0
60,KHOB 091250Z 24004KT 10SM CLR 14/05 A3013,KHOB,2024-10-09T12:50:00Z,32.6797,-103.222,14.0,5.0,240,4.0,,10+,30.13,,,,,,,,,,,CLR,,,,,,,,VFR,,,,,,,,,,,,METAR,1112.0
61,KGWW 091250Z AUTO 02004KT 10SM CLR 14/13 A3004 RMK AO2 T01360128,KGWW,2024-10-09T12:50:00Z,35.4637,-77.9604,13.6,12.8,20,4.0,,10+,30.04,,,True,True,,,,,,,CLR,,,,,,,,VFR,,,,,,,,,,,,METAR,40.0
62,KGIF 091250Z AUTO 08011KT 5SM -RA BR SCT009 BKN027 OVC090 24/24 A2978 RMK AO2 P0008,KGIF,2024-10-09T12:50:00Z,28.0614,-81.7568,24.0,24.0,80,11.0,,5,29.78,,,True,True,,,,,,-RA BR,SCT,900.0,BKN,2700.0,OVC,9000.0,,,MVFR,,,,,,0.08,,,,,,SPECI,44.0
63,KGEV 091250Z AUTO 00000KT 10SM CLR 09/05 A3012 RMK AO2 T00870047,KGEV,2024-10-09T12:50:00Z,36.4312,-81.4206,8.7,4.7,0,0.0,,10+,30.12,,,True,True,,,,,,,CLR,,,,,,,,VFR,,,,,,,,,,,,METAR,961.0
64,KFWS 091250Z 00000KT 10SM CLR 14/10 A3007,KFWS,2024-10-09T12:50:00Z,32.558,-97.308,14.0,10.0,0,0.0,,10+,30.07,,,,,,,,,,,CLR,,,,,,,,VFR,,,,,,,,,,,,METAR,211.0
65,KFIN 091250Z 09005KT 7SM -RA SCT016 SCT060 OVC090 24/23 A2984,KFIN,2024-10-09T12:50:00Z,29.467,-81.207,24.0,23.0,90,5.0,,7,29.84,,,,,,,,,,-RA,SCT,1600.0,SCT,6000.0,OVC,9000.0,,,VFR,,,,,,,,,,,,METAR,10.0
66,KFHM 091250Z 02001G02KT 16/15 ,KFHM,2024-10-09T12:50:00Z,34.0677,-118.242,16.0,15.0,20,1.0,2.0,,0.0,,,,,,,,,,,,,,,,,,,,,,,,,,,,,,,METAR,126.0
67,KFFA 091250Z AUTO 04005KT 10SM CLR 19/08 A3000 RMK AO2 T01910083,KFFA,2024-10-09T12:50:00Z,36.0165,-75.6739,19.1,8.3,40,5.0,,10+,30.0,,,True,True,,,,,,,CLR,,,,,,,,VFR,,,,,,,,,,,,METAR,2.0
68,KEYF 091250Z AUTO 02003KT 10SM CLR 14/12 A3004 RMK AO2 T01390120,KEYF,2024-10-09T12:50:00Z,34.6042,-78.579,13.9,12.0,20,3.0,,10+,30.04,,,True,True,,,,,,,CLR,,,,,,,,VFR,,,,,,,,,,,,METAR,39.0
69,KESN 091250Z 20004KT 10SM CLR 15/13 A2999,KESN,2024-10-09T12:50:00Z,38.804,-76.069,15.0,13.0,200,4.0,,10+,29.99,,,,,,,,,,,CLR,,,,,,,,VFR,,,,,,,,,,,,METAR,14.0
70,KEHO 091250Z AUTO 00000KT 7SM CLR 13/12 A3007 RMK AO2 T01250115,KEHO,2024-10-09T12:50:00Z,35.2556,-81.5986,12.5,11.5,0,0.0,,7,30.07,,,True,True,,,,,,,CLR,,,,,,,,VFR,,,,,,,,,,,,METAR,261.0
71,KEDE 091250Z AUTO 00000KT 10SM CLR 15/14 A3003 RMK AO2 T01450144,KEDE,2024-10-09T12:50:00Z,36.0286,-76.5668,14.5,14.4,0,0.0,,10+,30.03,,,True,True,,,,,,,CLR,,,,,,,,VFR,,,,,,,,,,,,METAR,4.0
72,KDAG 091250Z AUTO 27010KT 10SM CLR 21/03 A2993 RMK AO2 SLP109 T02060033,KDAG,2024-10-09T12:50:00Z,34.8537,-116.787,20.6,3.3,270,10.0,,10+,29.93,1010.9,,True,True,,,,,,,CLR,,,,,,,,VFR,,,,,,,,,,,,METAR,584.0
73,KATP 091250Z AUTO 7SM CLR 27/21 A2980 RMK A01,KATP,2024-10-09T12:50:00Z,27.1956,-90.0269,27.0,21.0,,,,7,29.8,,,True,True,,,,,,,CLR,,,,,,,,VFR,,,,,,,,,,,,METAR,50.0
74,KAPC 091250Z 27007KT 10SM OVC005 13/12 A2993 RMK AO2,KAPC,2024-10-09T12:50:00Z,38.2075,-122.28,13.0,12.0,270,7.0,,10+,29.93,,,,True,,,,,,,OVC,500.0,,,,,,,IFR,,,,,,,,,,,,SPECI,5.0
75,KALN 091250Z 00000KT 10SM CLR 07/07 A3012,KALN,2024-10-09T12:50:00Z,38.8897,-90.0316,7.0,7.0,0,0.0,,10+,30.12,,,,,,,,,,,CLR,,,,,,,,VFR,,,,,,,,,,,,METAR,159.0
76,KADM 091250Z 00000KT 10SM CLR 14/11 A3007,KADM,2024-10-09T12:50:00Z,34.3007,-97.0089,14.0,11.0,0,0.0,,10+,30.07,,,,,,,,,,,CLR,,,,,,,,VFR,,,,,,,,,,,,METAR,223.0
77,K24A 091250Z AUTO 00000KT M1/4SM FG OVC002 11/11 A3012 RMK AO2 T01070107,K24A,2024-10-09T12:50:00Z,35.3156,-83.2071,10.7,10.7,0,0.0,,0.25,30.12,,,True,True,,,,,,FG,OVC,200.0,,,,,,,LIFR,,,,,,,,,,,,METAR,864.0
78,FHAW 091250Z 13016KT 9999 FEW025 26/20 Q1015 NOSIG RMK BLU BLU,FHAW,2024-10-09T12:50:00Z,-7.97,-14.394,26.0,20.0,130,16.0,,6+,29.97,,,,,,True,,,,,FEW,2500.0,,,,,,,VFR,,,,,,,,,,,,METAR,79.0
79,EYVI 091250Z 16015KT 120V190 CAVOK 18/11 Q1002 NOSIG,EYVI,2024-10-09T12:50:00Z,54.634,25.286,18.0,11.0,160,15.0,,6+,29.59,,,,,,True,,,,,CAVOK,,,,,,,,VFR,,,,,,,,,,,,METAR,180.0
80,EYSA 091250Z 15012KT 9999 -RA OVC046 15/12 Q0999 NOSIG,EYSA,2024-10-09T12:50:00Z,55.894,23.395,15.0,12.0,150,12.0,,6+,29.5,,,,,,True,,,,-RA,OVC,4600.0,,,,,,,VFR,,,,,,,,,,,,METAR,135.0
81,EYPA 091250Z 17014KT 7000 -RA OVC013 14/13 Q0996,EYPA,2024-10-09T12:50:00Z,55.973,21.092,14.0,13.0,170,14.0,,4.35,29.41,,,,,,,,,,-RA,OVC,1300.0,,,,,,,MVFR,,,,,,,,,,,,METAR,15.0
82,EYKA 091250Z 15008KT 120V190 CAVOK 19/12 Q1000,EYKA,2024-10-09T12:50:00Z,54.962,24.069,19.0,12.0,150,8.0,,6+,29.53,,,,,,,,,,,CAVOK,,,,,,,,VFR,,,,,,,,,,,,METAR,68.0
83,EVVA 091250Z AUTO 15009KT 120V180 9999 OVC011 13/12 Q0994,EVVA,2024-10-09T12:50:00Z,57.361,21.545,13.0,12.0,150,9.0,,6+,29.35,,,True,,,,,,,,OVC,1100.0,,,,,,,MVFR,,,,,,,,,,,,METAR,1.0
84,EVRA 091250Z 14010KT 9999 -RA FEW023 BKN035 OVC048 12/11 Q0999 NOSIG,EVRA,2024-10-09T12:50:00Z,56.924,23.968,12.0,11.0,140,10.0,,6+,29.5,,,,,,True,,,,-RA,FEW,2300.0,BKN,3500.0,OVC,4800.0,,,VFR,,,,,,,,,,,,METAR,7.0
85,EVLA 091250Z AUTO 17009KT 140V200 9999 OVC015/// 15/13 Q0995,EVLA,2024-10-09T12:50:00Z,56.517,21.097,15.0,13.0,170,9.0,,6+,29.38,,,True,,,,,,,,OVC,1500.0,,,,,,,MVFR,,,,,,,,,,,,METAR,5.0
86,EVGA 091250Z 13013KT CAVOK 13/09 Q1000 NOSIG,EVGA,2024-10-09T12:50:00Z,56.778,24.854,13.0,9.0,130,13.0,,6+,29.53,,,,,,True,,,,,CAVOK,,,,,,,,VFR,,,,,,,,,,,,METAR,61.0
87,ETNG 091250Z 10007KT 5000 -RA SCT024 OVC029 14/14 Q0988 TEMPO 4000 BKN010,ETNG,2024-10-09T12:50:00Z,50.964,6.032,14.0,14.0,100,7.0,,3.11,29.17,,,,,,,,,,-RA,SCT,2400.0,OVC,2900.0,,,,,MVFR,,,,,,,,,,,,METAR,76.0
88,ENZV 091250Z 17015KT 8000 -RA BKN005 12/11 Q0986 TEMPO 4000 SHRA BKN009 SCT020CB,ENZV,2024-10-09T12:50:00Z,58.884,5.637,12.0,11.0,170,15.0,,4.97,29.11,,,,,,,,,,-RA,BKN,500.0,,,,,,,IFR,,,,,,,,,,,,METAR,7.0
89,ENVA 091250Z 10006KT CAVOK 12/10 Q0988 NOSIG RMK WIND 670FT 12009KT,ENVA,2024-10-09T12:50:00Z,63.46,10.931,12.0,10.0,100,6.0,,6+,29.17,,,,,,True,,,,,CAVOK,,,,,,,,VFR,,,,,,,,,,,,METAR,12.0
90,ENTO 091250Z 19010KT 9999 BKN004 OVC006 13/13 Q0989 TEMPO BKN010,ENTO,2024-10-09T12:50:00Z,59.184,10.255,13.0,13.0,190,10.0,,6+,29.2,,,,,,,,,,,BKN,400.0,OVC,600.0,,,,,LIFR,,,,,,,,,,,,METAR,84.0
91,ENTC 091250Z 05003KT 010V110 9999 -SHRA SCT032 BKN041 08/03 Q0998 NOSIG RMK WIND 2600FT 17031KT,ENTC,2024-10-09T12:50:00Z,69.675,18.916,8.0,3.0,50,3.0,,6+,29.47,,,,,,True,,,,-SHRA,SCT,3200.0,BKN,4100.0,,,,,VFR,,,,,,,,,,,,METAR,9.0
92,ENRY 091250Z 18009KT 150V210 7000 -RA VV005 13/12 Q0990 NOSIG,ENRY,2024-10-09T12:50:00Z,59.381,10.783,13.0,12.0,180,9.0,,4.35,29.23,,,,,,True,,,,-RA,OVX,0.0,,,,,,,IFR,,,,,,,,,,,500.0,METAR,45.0
93,ENRO 091250Z 13009KT 9999 FEW010 BKN028 09/07 Q0988,ENRO,2024-10-09T12:50:00Z,62.578,11.342,9.0,7.0,130,9.0,,6+,29.17,,,,,,,,,,,FEW,1000.0,BKN,2800.0,,,,,MVFR,,,,,,,,,,,,METAR,624.0
94,ENOL 091250Z 33007KT 9999 -RA FEW010 BKN023 11/09 Q0988 TEMPO BKN010,ENOL,2024-10-09T12:50:00Z,63.703,9.609,11.0,9.0,330,7.0,,6+,29.17,,,,,,,,,,-RA,FEW,1000.0,BKN,2300.0,,,,,MVFR,,,,,,,,,,,,METAR,9.0
95,ENHD 091250Z 14017KT 3000 BR DZ SCT002 BKN004 12/11 Q0984,ENHD,2024-10-09T12:50:00Z,59.341,5.22,12.0,11.0,140,17.0,,1.86,29.06,,,,,,,,,,BR DZ,SCT,200.0,BKN,400.0,,,,,LIFR,,,,,,,,,,,,METAR,22.0
96,ENGM 091250Z 16005KT 9999 2800SE -RADZ VCFG FEW012 BKN018 13/10 Q0989 TEMPO 3000 DZRA BR,ENGM,2024-10-09T12:50:00Z,60.201,11.08,13.0,10.0,160,5.0,,6+,29.2,,,,,,,,,,VCFG -RA DZ,FEW,1200.0,BKN,1800.0,,,,,MVFR,,,,,,,,,,,,METAR,204.0
97,ENDU 091250Z 11008KT 010V140 9999 FEW030 BKN055 08/02 Q0998 TEMPO 11015G25KT RMK WIND 1100FT 05004KT WIND 2200FT 15025KT,ENDU,2024-10-09T12:50:00Z,69.058,18.544,8.0,2.0,110,8.0,,6+,29.47,,,,,,,,,,,FEW,3000.0,BKN,5500.0,,,,,VFR,,-1.5,,,,,,,,,,METAR,65.0
98,ENCN 091250Z 19008KT 9999 -RA BKN006 13/12 Q0988,ENCN,2024-10-09T12:50:00Z,58.2,8.077,13.0,12.0,190,8.0,,6+,29.17,,,,,,,,,,-RA,BKN,600.0,,,,,,,IFR,,,,,,,,,,,,METAR,17.0
99,ENBR 091250Z 01004KT 9999 -DZ FEW008 SCT015 BKN025 12/10 Q0987 RMK WIND 1200FT 03009KT,ENBR,2024-10-09T12:50:00Z,60.29,5.222,12.0,10.0,10,4.0,,6+,29.14,,,,,,,,,,-DZ,FEW,800.0,SCT,1500.0,BKN,2500.0,,,MVFR,,,,,,,,,,,,METAR,49.0
100,ENBO 091250Z VRB02KT 9999 SCT050 BKN065 07/07 Q0993 BECMG 14015KT,ENBO,2024-10-09T12:50:00Z,67.267,14.359,7.0,7.0,VRB,2.0,,6+,29.32,,,,,,,,,,,SCT,5000.0,BKN,6500.0,,,,,VFR,,,,,,,,,,,,METAR,13.0
101,ENAN 091250Z 10011KT 9999 -RA FEW013 BKN027 07/05 Q0996,ENAN,2024-10-09T12:50:00Z,69.307,16.131,7.0,5.0,100,11.0,,6+,29.41,,,,,,,,,,-RA,FEW,1300.0,BKN,2700.0,,,,,MVFR,,,,,,,,,,,,METAR,13.0
102,ENAL 091250Z 02022KT 9000 -RA SCT015 BKN021 07/05 Q0991,ENAL,2024-10-09T12:50:00Z,62.562,6.115,7.0,5.0,20,22.0,,5.59,29.26,,,,,,,,,,-RA,SCT,1500.0,BKN,2100.0,,,,,MVFR,,,,,,,,,,,,METAR,21.0
103,EKVG 091250Z AUTO 34022KT 9999 FEW017/// BKN038/// BKN077/// 05/M00 Q1008 RMK BKN024/// WIND SKEID 36028G40KT,EKVG,2024-10-09T12:50:00Z,62.065,-7.282,5.0,0.0,340,22.0,,6+,29.76,,,True,,,,,,,,FEW,1700.0,BKN,3800.0,BKN,7700.0,,,VFR,,,,,,,,,,,,METAR,89.0
104,EKSP 091250Z 19007KT 9999 SCT010 BKN035 15/12 Q0990 TEMPO 4000 -SHRA SCT025CB,EKSP,2024-10-09T12:50:00Z,55.225,9.263,15.0,12.0,190,7.0,,6+,29.23,,,,,,,,,,,SCT,1000.0,BKN,3500.0,,,,,VFR,,,,,,,,,,,,METAR,40.0
105,EKKA 091250Z AUTO 17007KT 150V210 9999 BKN012/// OVC047/// 15/12 Q0989 TEMPO BKN020,EKKA,2024-10-09T12:50:00Z,56.293,9.114,15.0,12.0,170,7.0,,6+,29.2,,,True,,,,,,,,BKN,1200.0,OVC,4700.0,,,,,MVFR,,,,,,,,,,,,METAR,50.0
106,EFVA 091250Z AUTO 11011KT 070V130 9999 RA OVC009 07/05 Q0999,EFVA,2024-10-09T12:50:00Z,63.051,21.762,7.0,5.0,110,11.0,,6+,29.5,,,True,,,,,,,RA,OVC,900.0,,,,,,,IFR,,,,,,,,,,,,METAR,4.0
107,EFTU 091250Z AUTO 12015G28KT 9999 RA OVC009 09/08 Q0996,EFTU,2024-10-09T12:50:00Z,60.514,22.263,9.0,8.0,120,15.0,28.0,6+,29.41,,,True,,,,,,,RA,OVC,900.0,,,,,,,IFR,,,,,,,,,,,,METAR,47.0
108,EFTP 091250Z AUTO 12016KT 090V160 9999 -RA OVC008 08/07 Q1000,EFTP,2024-10-09T12:50:00Z,61.419,23.616,8.0,7.0,120,16.0,,6+,29.53,,,True,,,,,,,-RA,OVC,800.0,,,,,,,IFR,,,,,,,,,,,,METAR,111.0
109,EFRO 091250Z AUTO 13012KT 9999 FEW019 02/M02 Q1010,EFRO,2024-10-09T12:50:00Z,66.562,25.829,2.0,-2.0,130,12.0,,6+,29.82,,,True,,,,,,,,FEW,1900.0,,,,,,,VFR,,,,,,,,,,,,METAR,201.0
110,EFOU 091250Z AUTO 14015KT 9999 BKN021 05/00 Q1009,EFOU,2024-10-09T12:50:00Z,64.93,25.355,5.0,0.0,140,15.0,,6+,29.79,,,True,,,,,,,,BKN,2100.0,,,,,,,MVFR,,,,,,,,,,,,METAR,15.0
111,EFMA 091250Z AUTO 15014KT 8000 RA OVC005 12/12 Q0992,EFMA,2024-10-09T12:50:00Z,60.125,19.903,12.0,12.0,150,14.0,,4.97,29.29,,,True,,,,,,,RA,OVC,500.0,,,,,,,IFR,,,,,,,,,,,,METAR,6.0
112,EFIV 091250Z AUTO 17010G21KT 140V210 CAVOK 03/M04 Q1012,EFIV,2024-10-09T12:50:00Z,68.607,27.405,3.0,-4.0,170,10.0,21.0,6+,29.88,,,True,,,,,,,,CAVOK,,,,,,,,VFR,,,,,,,,,,,,METAR,145.0
113,EFHK 091250Z 09021G32KT 9999 -RA BKN008 09/08 Q1002 TEMPO BKN012,EFHK,2024-10-09T12:50:00Z,60.327,24.957,9.0,8.0,90,21.0,32.0,6+,29.59,,,,,,,,,,-RA,BKN,800.0,,,,,,,IFR,,,,,,,,,,,,METAR,56.0
114,EETU 091250Z 12016KT 9999 FEW015 SCT042 09/05 Q1004,EETU,2024-10-09T12:50:00Z,58.307,26.691,9.0,5.0,120,16.0,,6+,29.65,,,,,,,,,,,FEW,1500.0,SCT,4200.0,,,,,VFR,,,,,,,,,,,,METAR,67.0
115,EETN 091250Z 12018G28KT 9999 -RA SCT045 09/06 Q1000 BECMG 5000 RA,EETN,2024-10-09T12:50:00Z,59.413,24.801,9.0,6.0,120,18.0,28.0,6+,29.53,,,,,,,,,,-RA,SCT,4500.0,,,,,,,VFR,,,,,,,,,,,,METAR,41.0
116,EEPU 091250Z AUTO 11012G26KT 080V140 9999 -RA FEW023/// OVC035/// 10/08 Q0999,EEPU,2024-10-09T12:50:00Z,58.419,24.473,10.0,8.0,110,12.0,26.0,6+,29.5,,,True,,,,,,,-RA,FEW,2300.0,OVC,3500.0,,,,,VFR,,,,,,,,,,,,METAR,13.0
117,EEKE 091250Z 16022KT 7000 RA OVC008 13/12 Q0996,EEKE,2024-10-09T12:50:00Z,58.23,22.509,13.0,12.0,160,22.0,,4.35,29.41,,,,,,,,,,RA,OVC,800.0,,,,,,,IFR,,,,,,,,,,,,METAR,4.0
118,EEKA 091250Z 13018KT 9000 RA OVC011 11/09 Q0996,EEKA,2024-10-09T12:50:00Z,58.991,22.831,11.0,9.0,130,18.0,,5.59,29.41,,,,,,,,,,RA,OVC,1100.0,,,,,,,MVFR,,,,,,,,,,,,METAR,6.0
119,CYYD 091250Z AUTO 00000KT 9SM BKN043 OVC050 03/02 A2984 RMK SLP122,CYYD,2024-10-09T12:50:00Z,54.823,-127.185,3.0,2.0,0,0.0,,9,29.84,1012.2,,True,,,,,,,,BKN,4300.0,OVC,5000.0,,,,,VFR,,,,,,,,,,,,SPECI,527.0
120,CYDB 091250Z AUTO 29005KT 2 1/2SM -SN SCT013 OVC021 M00/M01 A2955 RMK VIS VRB 1 3/4-3 SLP049,CYDB,2024-10-09T12:50:00Z,61.37,-139.032,0.0,-1.0,290,5.0,,2.5,29.55,1004.9,,True,,,,,,,-SN,SCT,1300.0,OVC,2100.0,,,,,IFR,,,,,,,,,,,,SPECI,807.0
121,PFZK 091249Z AUTO 13003KT 4SM -SN BR FEW009 BKN030 OVC036 M01/M02 A2978 RMK AO2 UPE1158SNB1158 P0000 FZRANO TSNO,PFZK,2024-10-09T12:49:00Z,60.9156,-161.488,-1.0,-2.0,130,3.0,,4,29.78,,,True,True,,,True,True,,-SN BR,FEW,900.0,BKN,3000.0,OVC,3600.0,,,MVFR,,,,,,0.005,,,,,,SPECI,16.0
122,PAWS 091249Z AUTO 00000KT 2SM UP BR OVC100 02/02 A2962 RMK AO2 RAB36E47UPB47 P0000 FZRANO,PAWS,2024-10-09T12:49:00Z,61.571,-149.538,2.0,2.0,0,0.0,,2,29.62,,,True,True,,,,True,,BR UP,OVC,10000.0,,,,,,,IFR,,,,,,0.005,,,,,,SPECI,102.0
123,PACM 091249Z AUTO 13009KT 10SM OVC010 01/01 A2976 RMK AO2 FZRANO,PACM,2024-10-09T12:49:00Z,61.846,-165.579,1.0,1.0,130,9.0,,10+,29.76,,,True,True,,,,True,,,OVC,1000.0,,,,,,,MVFR,,,,,,,,,,,,SPECI,3.0
124,KIJD 091249Z AUTO 00000KT 1SM BR BKN001 OVC100 07/07 A2992 RMK AO2,KIJD,2024-10-09T12:49:00Z,41.7425,-72.1825,7.0,7.0,0,0.0,,1,29.92,,,True,True,,,,,,BR,BKN,100.0,OVC,10000.0,,,,,LIFR,,,,,,,,,,,,SPECI,73.0
125,KFME 091249Z AUTO 00000KT 10SM CLR 07/07 A3001 RMK AO1,KFME,2024-10-09T12:49:00Z,39.086,-76.757,7.0,7.0,0,0.0,,10+,30.01,,,True,True,,,,,,,CLR,,,,,,,,VFR,,,,,,,,,,,,METAR,43.0
126,KDWU 091249Z AUTO 00000KT 4SM HZ BKN002 08/ A3011 RMK AO2,KDWU,2024-10-09T12:49:00Z,38.556,-82.7375,8.0,,0,0.0,,4,30.11,,,True,True,,,,,,HZ,BKN,200.0,,,,,,,LIFR,,,,,,,,,,,,SPECI,165.0
127,KBKB 091249Z AUTO 00000KT 10SM CLR 13/09 A2997 RMK AO2 SLP177 T01330089,KBKB,2024-10-09T12:49:00Z,31.022,-92.911,13.3,8.9,0,0.0,,10+,29.97,1017.7,,True,True,,,,,,,CLR,,,,,,,,VFR,,,,,,,,,,,,METAR,74.0
128,CYEG 091249Z 24005KT 20SM -SHRA SCT060 BKN080 OVC100 06/02 A2993 RMK SC3AC3AS2 CVCTV CLD EMBD SLP153,CYEG,2024-10-09T12:49:00Z,53.308,-113.592,6.0,2.0,240,5.0,,20,29.93,1015.3,,,,,,,,,-SHRA,SCT,6000.0,BKN,8000.0,OVC,10000.0,,,VFR,,,,,,,,,,,,SPECI,710.0
129,PFTO 091248Z AUTO 00000KT 3SM -RA BR SCT003 OVC015 01/00 A2961 RMK AO2 P0000 FZRANO $,PFTO,2024-10-09T12:48:00Z,63.329,-142.954,1.0,0.0,0,0.0,,3,29.61,,,True,True,True,,,True,,-RA BR,SCT,300.0,OVC,1500.0,,,,,MVFR,,,,,,0.005,,,,,,SPECI,500.0
130,PARY 091248Z AUTO 26006KT 10SM SCT013 OVC041 M02/M04 A2974 RMK AO2 FZRANO TSNO,PARY,2024-10-09T12:48:00Z,64.731,-155.463,-2.0,-4.0,260,6.0,,10+,29.74,,,True,True,,,True,True,,,SCT,1300.0,OVC,4100.0,,,,,VFR,,,,,,,,,,,,SPECI,185.0
131,LEAS 091248Z 29027G38KT 1200 R29/P2000 R11/1900D RA BR BKN003 BKN010 15/15 Q0995 NOSIG,LEAS,2024-10-09T12:48:00Z,43.567,-6.044,15.0,15.0,290,27.0,38.0,0.75,29.38,,,,,,True,,,,RA BR,BKN,300.0,BKN,1000.0,,,,,LIFR,,,,,,,,,,,,SPECI,120.0
132,KSPG 091248Z AUTO 05018KT 2SM +RA BR SCT011 BKN042 OVC085 26/25 A2970 RMK AO2 PK WND 05028/1217 P0024,KSPG,2024-10-09T12:48:00Z,27.7685,-82.6257,26.0,25.0,50,18.0,,2,29.7,,,True,True,,,,,,+RA BR,SCT,1100.0,BKN,4200.0,OVC,8500.0,,,IFR,,,,,,0.24,,,,,,SPECI,1.0
133,KPIE 091248Z AUTO 06013G25KT 4SM RA BR SCT008 BKN060 OVC075 25/24 A2971 RMK AO2 PK WND 06026/1233 SLP060 P0015 T02500244,KPIE,2024-10-09T12:48:00Z,27.9126,-82.6855,25.0,24.4,60,13.0,25.0,4,29.71,1006.0,,True,True,,,,,,RA BR,SCT,800.0,BKN,6000.0,OVC,7500.0,,,MVFR,,,,,,0.15,,,,,,METAR,1.0
134,KJDN 091248Z AUTO 29005KT 08/00 A2995 RMK AO1 SLP146 T00830000,KJDN,2024-10-09T12:48:00Z,47.3259,-106.949,8.3,0.0,290,5.0,,,29.95,1014.6,,True,True,,,,,,,,,,,,,,,,,,,,,,,,,,,METAR,802.0
135,KHNB 091248Z AUTO 00000KT 1 3/4SM BR CLR 08/08 A3012 RMK AO2,KHNB,2024-10-09T12:48:00Z,38.2505,-86.9473,8.0,8.0,0,0.0,,1.75,30.12,,,True,True,,,,,,BR,CLR,,,,,,,,IFR,,,,,,,,,,,,SPECI,159.0
136,KCRQ 091248Z AUTO 00000KT 1 3/4SM BR OVC001 15/15 A2991 RMK AO2,KCRQ,2024-10-09T12:48:00Z,33.1299,-117.277,15.0,15.0,0,0.0,,1.75,29.91,,,True,True,,,,,,BR,OVC,100.0,,,,,,,LIFR,,,,,,,,,,,,SPECI,96.0
137,KASG 091248Z 09004KT 10SM CLR 11/08 A3011,KASG,2024-10-09T12:48:00Z,36.1802,-94.1176,11.0,8.0,90,4.0,,10+,30.11,,,,,,,,,,,CLR,,,,,,,,VFR,,,,,,,,,,,,METAR,410.0
138,CYAH 091248Z AUTO 00000KT 1 3/4SM -RA BR OVC003 03/03 A2989 RMK SLP139,CYAH,2024-10-09T12:48:00Z,53.757,-73.676,3.0,3.0,0,0.0,,1.75,29.89,1013.9,,True,,,,,,,-RA BR,OVC,300.0,,,,,,,LIFR,,,,,,,,,,,,SPECI,298.0
139,KTIX 091247Z 10005KT 7SM -RA BKN015 27/24 A2981,KTIX,2024-10-09T12:47:00Z,28.508,-80.798,27.0,24.0,100,5.0,,7,29.81,,,,,,,,,,-RA,BKN,1500.0,,,,,,,MVFR,,,,,,,,,,,,METAR,10.0
140,KSUA 091247Z 10010G16KT 7SM SCT017 BKN036 28/26 A2976,KSUA,2024-10-09T12:47:00Z,27.1815,-80.2252,28.0,26.0,100,10.0,16.0,7,29.76,,,,,,,,,,,SCT,1700.0,BKN,3600.0,,,,,VFR,,,,,,,,,,,,METAR,4.0
141,KSMP 091247Z AUTO VRB05KT 1SM BR BKN002 BKN007 OVC011 09/09 RMK AO2 T00890089 $,KSMP,2024-10-09T12:47:00Z,47.2764,-121.338,8.9,8.9,VRB,5.0,,1,0.0,,,True,True,True,,,,,BR,BKN,200.0,BKN,700.0,OVC,1100.0,,,LIFR,,,,,,,,,,,,SPECI,1206.0
142,KSAW 091247Z 33004KT 10SM CLR 01/M01 A3010,KSAW,2024-10-09T12:47:00Z,46.341,-87.395,1.0,-1.0,330,4.0,,10+,30.1,,,,,,,,,,,CLR,,,,,,,,VFR,,,,,,,,,,,,METAR,359.0
143,KPOB 091247Z AUTO 00000KT 10SM CLR 13/11 A3004 RMK AO2 SLP175 $,KPOB,2024-10-09T12:47:00Z,35.175,-79.008,13.0,11.0,0,0.0,,10+,30.04,1017.5,,True,True,True,,,,,,CLR,,,,,,,,VFR,,,,,,,,,,,,SPECI,57.0
144,KHSA 091247Z 00000KT 10SM CLR 17/14 A2990,KHSA,2024-10-09T12:47:00Z,30.3765,-89.4554,17.0,14.0,0,0.0,,10+,29.9,,,,,,,,,,,CLR,,,,,,,,VFR,,,,,,,,,,,,METAR,6.0
145,KGYH 091247Z 05007KT 10SM CLR 16/12 A3006,KGYH,2024-10-09T12:47:00Z,34.763,-82.375,16.0,12.0,50,7.0,,10+,30.06,,,,,,,,,,,CLR,,,,,,,,VFR,,,,,,,,,,,,METAR,283.0
146,KGEU 091247Z 04005KT 10SM SCT200 24/01 A2985 RMK FIRST,KGEU,2024-10-09T12:47:00Z,33.528,-112.293,24.0,1.0,40,5.0,,10+,29.85,,,,,,,,,,,SCT,20000.0,,,,,,,VFR,,,,,,,,,,,,METAR,319.0
147,KFDK 091247Z 24006KT 10SM CLR 14/08 A2999,KFDK,2024-10-09T12:47:00Z,39.4177,-77.3696,14.0,8.0,240,6.0,,10+,29.99,,,,,,,,,,,CLR,,,,,,,,VFR,,,,,,,,,,,,METAR,82.0
148,KEVB 091247Z 14010G17KT 4SM -RA BR SCT008 BKN025 25/24 A2982,KEVB,2024-10-09T12:47:00Z,29.0568,-80.9491,25.0,24.0,140,10.0,17.0,4,29.82,,,,,,,,,,-RA BR,SCT,800.0,BKN,2500.0,,,,,MVFR,,,,,,,,,,,,METAR,2.0
149,KCWA 091247Z 04004KT 10SM CLR 03/01 A3012,KCWA,2024-10-09T12:47:00Z,44.7795,-89.671,3.0,1.0,40,4.0,,10+,30.12,,,,,,,,,,,CLR,,,,,,,,VFR,,,,,,,,,,,,METAR,387.0
150,KCHD 091247Z 00000KT 10SM CLR 23/06 A2988,KCHD,2024-10-09T12:47:00Z,33.2669,-111.809,23.0,6.0,0,0.0,,10+,29.88,,,,,,,,,,,CLR,,,,,,,,VFR,,,,,,,,,,,,METAR,378.0
151,KCFO 091247Z 22007KT 10SM CLR 13/M04 A3020,KCFO,2024-10-09T12:47:00Z,39.7948,-104.54,13.0,-4.0,220,7.0,,10+,30.2,,,,,,,,,,,CLR,,,,,,,,VFR,,,,,,,,,,,,METAR,1672.0
152,KBVI 091247Z 00000KT 10SM SCT040 BKN047 09/05 A3003,KBVI,2024-10-09T12:47:00Z,40.7735,-80.3825,9.0,5.0,0,0.0,,10+,30.03,,,,,,,,,,,SCT,4000.0,BKN,4700.0,,,,,VFR,,,,,,,,,,,,METAR,387.0
153,KAQV 091247Z AUTO 00000KT 4SM BR CLR 11/09 A3001 RMK AO2 SLP161 T01060094,KAQV,2024-10-09T12:47:00Z,31.396,-93.297,10.6,9.4,0,0.0,,4,30.01,1016.1,,True,True,,,,,,BR,CLR,,,,,,,,MVFR,,,,,,,,,,,,METAR,123.0
154,KAEG 091247Z 35003KT 10SM CLR 08/M08 A3026,KAEG,2024-10-09T12:47:00Z,35.15,-106.793,8.0,-8.0,350,3.0,,10+,30.26,,,,,,,,,,,CLR,,,,,,,,VFR,,,,,,,,,,,,METAR,1771.0
155,CZUM 091247Z AUTO 08015G25KT 9SM FEW015 BKN024 OVC028 05/02 A2998 RMK SLP174,CZUM,2024-10-09T12:47:00Z,53.562,-64.107,5.0,2.0,80,15.0,25.0,9,29.98,1017.4,,True,,,,,,,,FEW,1500.0,BKN,2400.0,OVC,2800.0,,,MVFR,,,,,,,,,,,,SPECI,431.0
156,SARC 091246Z 19015G26KT 9000 BKN009 OVC013 20/18 Q1014,SARC,2024-10-09T12:46:00Z,-27.445,-58.762,20.0,18.0,190,15.0,26.0,5.59,29.94,,,,,,,,,,,BKN,900.0,OVC,1300.0,,,,,IFR,,,,,,,,,,,,SPECI,60.0
157,MMCN 091246Z 09004KT 10SM FEW100 25/23 A2986 RMK 8/030 HZY RTS,MMCN,2024-10-09T12:46:00Z,27.395,-109.837,25.0,23.0,90,4.0,,10+,29.86,,,,,,,,,,,FEW,10000.0,,,,,,,VFR,,,,,,,,,,,,METAR,57.0
158,KSUS 091246Z 00000KT 6SM BR BKN001 06/06 A3011 RMK AO2 T00610061,KSUS,2024-10-09T12:46:00Z,38.6575,-90.6557,6.1,6.1,0,0.0,,6,30.11,,,,True,,,,,,BR,BKN,100.0,,,,,,,LIFR,,,,,,,,,,,,SPECI,140.0
159,KOUN 091246Z 14009KT 10SM CLR 147/09 A3003 RMK LTG DSNT S,KOUN,2024-10-09T12:46:00Z,35.2436,-97.4713,47.0,9.0,140,9.0,,10+,30.03,,,,,,,,,,,CLR,,,,,,,,VFR,,,,,,,,,,,,METAR,359.0
160,KMFE 091246Z 36006KT 9SM CLR 22/20 A2997 RMK AO2 T02170200,KMFE,2024-10-09T12:46:00Z,26.1791,-98.2445,21.7,20.0,360,6.0,,9,29.97,,,,True,,,,,,,CLR,,,,,,,,VFR,,,,,,,,,,,,SPECI,29.0
161,KLUK 091246Z 00000KT 1SM R21L/0800V1600FT BR VV003 08/08 A3012 RMK AO2 T00780078,KLUK,2024-10-09T12:46:00Z,39.106,-84.4161,7.8,7.8,0,0.0,,1,30.12,,,,True,,,,,,BR,OVX,0.0,,,,,,,LIFR,,,,,,,,,,,300.0,SPECI,144.0
162,KFVE 091246Z AUTO 00000KT 1 3/4SM BR SCT001 03/02 A2983 RMK AO2 VIS 3/4V5 T00280017 $,KFVE,2024-10-09T12:46:00Z,47.2852,-68.3072,2.8,1.7,0,0.0,,1.75,29.83,,,True,True,True,,,,,BR,SCT,100.0,,,,,,,IFR,,,,,,,,,,,,SPECI,299.0
163,ETOU 091246Z AUTO 18004KT 9999 -RA FEW018 FEW034 OVC048 14/12 A2933 RMK AO2 RAB05E34RAB46 SLP935 $,ETOU,2024-10-09T12:46:00Z,50.048,8.329,14.0,12.0,180,4.0,,6+,29.33,993.5,,True,True,True,,,,,-RA,FEW,1800.0,FEW,3400.0,OVC,4800.0,,,VFR,,,,,,,,,,,,SPECI,141.0
164,CYPO 091246Z AUTO 32007KT 1/4SM -RA FG VV003 06/06 A3008 RMK SLP188,CYPO,2024-10-09T12:46:00Z,54.988,-85.439,6.0,6.0,320,7.0,,0.25,30.08,1018.8,,True,,,,,,,-RA FG,OVX,0.0,,,,,,,LIFR,,,,,,,,,,,300.0,SPECI,49.0
165,ULLI 091245Z 12006MPS 100V160 9999 BKN016 05/02 Q1013 R10R/090060 NOSIG,ULLI,2024-10-09T12:45:00Z,59.798,30.267,5.0,2.0,120,12.0,,6+,29.91,,,,,,True,,,,,BKN,1600.0,,,,,,,MVFR,,,,,,,,,,,,SPECI,25.0
166,TJIG 091245Z 18005KT 10SM SCT030 SCT070 31/25 A2997,TJIG,2024-10-09T12:45:00Z,18.457,-66.094,31.0,25.0,180,5.0,,10+,29.97,,,,,,,,,,,SCT,3000.0,SCT,7000.0,,,,,VFR,,,,,,,,,,,,METAR,3.0
167,SGCO 091245Z 18004KT 2000 -RABR OVC012 22/22 Q1012 RETS,SGCO,2024-10-09T12:45:00Z,-23.438,-57.43,22.0,22.0,180,4.0,,1.24,29.88,,,,,,,,,,-RA BR,OVC,1200.0,,,,,,,IFR,,,,,,,,,,,,METAR,74.0
168,PASA 091245Z AUTO 09013KT 10SM -RA SCT015 BKN026 OVC080 02/01 A2978 RMK AO2 UPE45RAB45 P0000 FZRANO,PASA,2024-10-09T12:45:00Z,63.689,-170.49,2.0,1.0,90,13.0,,10+,29.78,,,True,True,,,,True,,-RA,SCT,1500.0,BKN,2600.0,OVC,8000.0,,,MVFR,,,,,,0.005,,,,,,SPECI,9.0
169,PALP 091245Z 24006KT 2SM BR OVC003 M02/M02 A2982,PALP,2024-10-09T12:45:00Z,70.348,-150.928,-2.0,-2.0,240,6.0,,2,29.82,,,,,,,,,,BR,OVC,300.0,,,,,,,LIFR,,,,,,,,,,,,METAR,4.0
170,PAKU 091245Z 25012KT 10SM R24/P6000FT BKN005 BKN034 M02/ A2981,PAKU,2024-10-09T12:45:00Z,70.331,-149.613,-2.0,,250,12.0,,10+,29.81,,,,,,,,,,,BKN,500.0,BKN,3400.0,,,,,IFR,,,,,,,,,,,,METAR,23.0
171,PAEH 091245Z AUTO 28014KT 210V020 10SM FEW010 SCT014 05/03 A2977 RMK AO2 SLP087 $,PAEH,2024-10-09T12:45:00Z,58.652,-162.062,5.0,3.0,280,14.0,,10+,29.77,1008.7,,True,True,True,,,,,,FEW,1000.0,SCT,1400.0,,,,,VFR,,,,,,,,,,,,SPECI,101.0
172,LMML 091245Z 32008KT 290V350 9999 FEW020 28/23 Q1013 NOSIG,LMML,2024-10-09T12:45:00Z,35.858,14.477,28.0,23.0,320,8.0,,6+,29.91,,,,,,True,,,,,FEW,2000.0,,,,,,,VFR,,,,,,,,,,,,METAR,78.0
173,LHSN 091245Z 19011KT 9999 FEW024 SCT083 22/16 Q1006 NOSIG RMK BLU,LHSN,2024-10-09T12:45:00Z,47.123,20.235,22.0,16.0,190,11.0,,6+,29.7,,,,,,True,,,,,FEW,2400.0,SCT,8300.0,,,,,VFR,,,,,,,,,,,,METAR,89.0
174,KXER 091245Z AUTO 36008G14KT 3SM HZ 26/20 A2986 RMK A01,KXER,2024-10-09T12:45:00Z,27.946,-90.997,26.0,20.0,360,8.0,14.0,3,29.86,,,True,True,,,,,,HZ,,,,,,,,,MVFR,,,,,,,,,,,,METAR,40.0
175,KW40 091245Z AUTO 01005KT 10SM CLR 14/12 A3004 RMK AO2 T01420123,KW40,2024-10-09T12:45:00Z,35.2211,-78.0404,14.2,12.3,10,5.0,,10+,30.04,,,True,True,,,,,,,CLR,,,,,,,,VFR,,,,,,,,,,,,METAR,50.0
176,KW29 091245Z AUTO 21007KT 10SM CLR 16/10 A2998 RMK AO2 T01620100,KW29,2024-10-09T12:45:00Z,38.9777,-76.3276,16.2,10.0,210,7.0,,10+,29.98,,,True,True,,,,,,,CLR,,,,,,,,VFR,,,,,,,,,,,,METAR,1.0
177,KVUJ 091245Z AUTO 00000KT 10SM CLR 13/11 A3010 RMK AO2 T01290111,KVUJ,2024-10-09T12:45:00Z,35.4173,-80.1508,12.9,11.1,0,0.0,,10+,30.1,,,True,True,,,,,,,CLR,,,,,,,,VFR,,,,,,,,,,,,METAR,174.0
178,KUES 091245Z 00000KT 10SM CLR 05/04 A3012,KUES,2024-10-09T12:45:00Z,43.0425,-88.2465,5.0,4.0,0,0.0,,10+,30.12,,,,,,,,,,,CLR,,,,,,,,VFR,,,,,,,,,,,,METAR,273.0
179,KTTS 091245Z AUTO 09009KT 10SM -RA BKN005 BKN036 BKN044 25/23 A2978 RMK AO2 CIG 005V009 SLP089 $,KTTS,2024-10-09T12:45:00Z,28.5987,-80.6815,25.0,23.0,90,9.0,,10+,29.78,1008.9,,True,True,True,,,,,-RA,BKN,500.0,BKN,3600.0,BKN,4400.0,,,IFR,,,,,,,,,,,,SPECI,1.0
180,KTTA 091245Z AUTO 00000KT 10SM CLR 11/11 A3005 RMK AO2 T01110111,KTTA,2024-10-09T12:45:00Z,35.5762,-79.1035,11.1,11.1,0,0.0,,10+,30.05,,,True,True,,,,,,,CLR,,,,,,,,VFR,,,,,,,,,,,,METAR,71.0
181,KSWF 091245Z 00000KT 10SM OVC070 10/07 A2993,KSWF,2024-10-09T12:45:00Z,41.5045,-74.0999,10.0,7.0,0,0.0,,10+,29.93,,,,,,,,,,,OVC,7000.0,,,,,,,VFR,,,,,,,,,,,,METAR,139.0
182,KSVH 091245Z AUTO 00000KT 10SM CLR 13/10 A3008 RMK AO2 T01340102,KSVH,2024-10-09T12:45:00Z,35.7635,-80.9473,13.4,10.2,0,0.0,,10+,30.08,,,True,True,,,,,,,CLR,,,,,,,,VFR,,,,,,,,,,,,METAR,286.0
183,KSUT 091245Z AUTO 01007KT 10SM CLR 17/13 A3000 RMK AO2 T01660132,KSUT,2024-10-09T12:45:00Z,33.9292,-78.0722,16.6,13.2,10,7.0,,10+,30.0,,,True,True,,,,,,,CLR,,,,,,,,VFR,,,,,,,,,,,,METAR,6.0
184,KSIF 091245Z AUTO 00000KT 10SM CLR 10/10 A3008 RMK AO2 T01030098,KSIF,2024-10-09T12:45:00Z,36.4408,-79.8544,10.3,9.8,0,0.0,,10+,30.08,,,True,True,,,,,,,CLR,,,,,,,,VFR,,,,,,,,,,,,METAR,206.0
185,KSCR 091245Z AUTO 00000KT 10SM CLR 12/10 A3006 RMK AO2 T01160102,KSCR,2024-10-09T12:45:00Z,35.7058,-79.5051,11.6,10.2,0,0.0,,10+,30.06,,,True,True,,,,,,,CLR,,,,,,,,VFR,,,,,,,,,,,,METAR,182.0
186,KRYN 091245Z 1306KT 10SM CLR 20/03 A2996,KRYN,2024-10-09T12:45:00Z,32.1418,-111.177,20.0,3.0,,,,10+,29.96,,,,,,,,,,,CLR,,,,,,,,VFR,,,,,,,,,,,,METAR,731.0
187,KRUQ 091245Z AUTO 00000KT 10SM CLR 11/11 A3007 RMK AO2 T01090105,KRUQ,2024-10-09T12:45:00Z,35.6441,-80.5236,10.9,10.5,0,0.0,,10+,30.07,,,True,True,,,,,,,CLR,,,,,,,,VFR,,,,,,,,,,,,METAR,231.0
188,KRHP 091245Z AUTO 00000KT 10SM CLR A3009 RMK AO2,KRHP,2024-10-09T12:45:00Z,35.1939,-83.8618,,,0,0.0,,10+,30.09,,,True,True,,,,,,,CLR,,,,,,,,VFR,,,,,,,,,,,,METAR,515.0
189,KRCZ 091245Z AUTO 00000KT 10SM CLR 13/10 A3004 RMK AO2 T01280100,KRCZ,2024-10-09T12:45:00Z,34.8955,-79.7576,12.8,10.0,0,0.0,,10+,30.04,,,True,True,,,,,,,CLR,,,,,,,,VFR,,,,,,,,,,,,METAR,110.0
190,KPGV 091245Z AUTO 00000KT 7SM CLR 13/12 A3003 RMK AO2,KPGV,2024-10-09T12:45:00Z,35.6374,-77.3851,13.0,12.0,0,0.0,,7,30.03,,,True,True,,,,,,,CLR,,,,,,,,VFR,,,,,,,,,,,,METAR,6.0
191,KOCW 091245Z AUTO 35005KT 10SM CLR 15/13 A3003 RMK AO2 T01470125,KOCW,2024-10-09T12:45:00Z,35.5703,-77.05,14.7,12.5,350,5.0,,10+,30.03,,,True,True,,,,,,,CLR,,,,,,,,VFR,,,,,,,,,,,,METAR,10.0
192,KMWA 091245Z 00000KT 20SM CLR 09/08 A3012,KMWA,2024-10-09T12:45:00Z,37.7544,-89.0118,9.0,8.0,0,0.0,,20,30.12,,,,,,,,,,,CLR,,,,,,,,VFR,,,,,,,,,,,,METAR,142.0
193,KMQI 091245Z AUTO 05008KT 10SM CLR 19/09 A3001 RMK AO2 T01940091,KMQI,2024-10-09T12:45:00Z,35.9188,-75.6989,19.4,9.1,50,8.0,,10+,30.01,,,True,True,,,,,,,CLR,,,,,,,,VFR,,,,,,,,,,,,METAR,3.0
194,KMLB 091245Z 09011G21KT 2 1/2SM R09R/2400VP6000FT VCTS -RA BR FEW007 BKN015 OVC029 25/24 A2978 RMK AO2 LTG DSNT NW P0074 T02500244,KMLB,2024-10-09T12:45:00Z,28.0997,-80.6356,25.0,24.4,90,11.0,21.0,2.5,29.78,,,,True,,,,,,VCTS -RA BR,FEW,700.0,BKN,1500.0,OVC,2900.0,,,IFR,,,,,,,,,,,,SPECI,7.0
195,KMCZ 091245Z AUTO 00000KT 10SM CLR 14/13 A3003 RMK AO2 T01370128,KMCZ,2024-10-09T12:45:00Z,35.862,-77.178,13.7,12.8,0,0.0,,10+,30.03,,,True,True,,,,,,,CLR,,,,,,,,VFR,,,,,,,,,,,,METAR,23.0
196,KMCF 091245Z AUTO 05014G20KT 5SM HZ SCT006 BKN065 M M RMK AO2 SLPNO RVRNO FZRANO $,KMCF,2024-10-09T12:45:00Z,27.8598,-82.5133,,,50,14.0,20.0,5,0.0,,,True,True,True,,,True,,HZ,SCT,600.0,BKN,6500.0,,,,,MVFR,,,,,,,,,,,,SPECI,3.0
197,KLOT 091245Z 14003KT 10SM CLR 09/09 A3009,KLOT,2024-10-09T12:45:00Z,41.6031,-88.1017,9.0,9.0,140,3.0,,10+,30.09,,,,,,,,,,,CLR,,,,,,,,VFR,,,,,,,,,,,,METAR,205.0
198,KLHZ 091245Z AUTO 00000KT 10SM CLR 11/10 A3006 RMK AO2,KLHZ,2024-10-09T12:45:00Z,36.0229,-78.3341,11.0,10.0,0,0.0,,10+,30.06,,,True,True,,,,,,,CLR,,,,,,,,VFR,,,,,,,,,,,,METAR,104.0
199,KJVL 091245Z 00000KT 6SM HZ CLR 06/06 A3008,KJVL,2024-10-09T12:45:00Z,42.6213,-89.0419,6.0,6.0,0,0.0,,6,30.08,,,,,,,,,,HZ,CLR,,,,,,,,VFR,,,,,,,,,,,,METAR,244.0
200,KJNX 091245Z AUTO 00000KT 10SM CLR 12/12 A3004 RMK AO2,KJNX,2024-10-09T12:45:00Z,35.5369,-78.3934,12.0,12.0,0,0.0,,10+,30.04,,,True,True,,,,,,,CLR,,,,,,,,VFR,,,,,,,,,,,,METAR,41.0
201,KHNZ 091245Z AUTO 00000KT 10SM CLR 12/11 A3005 RMK AO2 T01170112,KHNZ,2024-10-09T12:45:00Z,36.3635,-78.5289,11.7,11.2,0,0.0,,10+,30.05,,,True,True,,,,,,,CLR,,,,,,,,VFR,,,,,,,,,,,,METAR,158.0
202,KHBI 091245Z AUTO 00000KT 10SM CLR 11/10 A3008 RMK AO2 T01060096,KHBI,2024-10-09T12:45:00Z,35.6527,-79.8942,10.6,9.6,0,0.0,,10+,30.08,,,True,True,,,,,,,CLR,,,,,,,,VFR,,,,,,,,,,,,METAR,199.0
203,KGYY 091245Z 00000KT 10SM CLR 06/06 A3006,KGYY,2024-10-09T12:45:00Z,41.6121,-87.4091,6.0,6.0,0,0.0,,10+,30.06,,,,,,,,,,,CLR,,,,,,,,VFR,,,,,,,,,,,,METAR,179.0
204,KFQD 091245Z AUTO 00000KT 10SM CLR 13/09 A3009 RMK AO2,KFQD,2024-10-09T12:45:00Z,35.43,-81.936,13.0,9.0,0,0.0,,10+,30.09,,,True,True,,,,,,,CLR,,,,,,,,VFR,,,,,,,,,,,,METAR,325.0
205,KF95 091245Z AUTO 10SM FEW065 FEW085 20/20 A2986 RMK AO2,KF95,2024-10-09T12:45:00Z,30.4881,-85.1148,20.0,20.0,,,,10+,29.86,,,True,True,,,,,,,FEW,6500.0,FEW,8500.0,,,,,VFR,,,,,,,,,,,,METAR,45.0
206,KEXX 091245Z AUTO 32003KT 10SM CLR 11/11 A3007 RMK AO2 T01140114,KEXX,2024-10-09T12:45:00Z,35.7804,-80.3084,11.4,11.4,320,3.0,,10+,30.07,,,True,True,,,,,,,CLR,,,,,,,,VFR,,,,,,,,,,,,METAR,221.0
207,KDPL 091245Z AUTO 00000KT 5SM BR CLR 11/11 A3003 RMK AO2,KDPL,2024-10-09T12:45:00Z,34.9994,-77.9799,11.0,11.0,0,0.0,,5,30.03,,,True,True,,,,,,BR,CLR,,,,,,,,MVFR,,,,,,,,,,,,METAR,39.0
208,KDMW 091245Z AUTO 24007KT 10SM CLR 12/07 A2997 RMK AO2,KDMW,2024-10-09T12:45:00Z,39.61,-77.007,12.0,7.0,240,7.0,,10+,29.97,,,True,True,,,,,,,CLR,,,,,,,,VFR,,,,,,,,,,,,METAR,239.0
209,KCTZ 091245Z AUTO 00000KT 10SM CLR 12/12 A3004 RMK AO2 T01220122,KCTZ,2024-10-09T12:45:00Z,34.9752,-78.3627,12.2,12.2,0,0.0,,10+,30.04,,,True,True,,,,,,,CLR,,,,,,,,VFR,,,,,,,,,,,,METAR,43.0
210,KCPC 091245Z AUTO 00000KT 10SM CLR 15/12 A3003 RMK AO2 T01450120,KCPC,2024-10-09T12:45:00Z,34.2753,-78.7146,14.5,12.0,0,0.0,,10+,30.03,,,True,True,,,,,,,CLR,,,,,,,,VFR,,,,,,,,,,,,METAR,27.0
211,KCGS 091245Z AUTO 00000KT 10SM CLR 11/09 A3000 RMK AO2 T01080094,KCGS,2024-10-09T12:45:00Z,38.9806,-76.9251,10.8,9.4,0,0.0,,10+,30.0,,,True,True,,,,,,,CLR,,,,,,,,VFR,,,,,,,,,,,,METAR,15.0
212,KCGF 091245Z 32007KT 10SM SCT037 12/05 A3006,KCGF,2024-10-09T12:45:00Z,41.566,-81.4827,12.0,5.0,320,7.0,,10+,30.06,,,,,,,,,,,SCT,3700.0,,,,,,,VFR,,,,,,,,,,,,METAR,265.0
213,KCGE 091245Z AUTO 00000KT 10SM CLR 14/12 A3000 RMK A01,KCGE,2024-10-09T12:45:00Z,38.5372,-76.0309,14.0,12.0,0,0.0,,10+,30.0,,,True,True,,,,,,,CLR,,,,,,,,VFR,,,,,,,,,,,,METAR,5.0
214,KBBG 091245Z 00000KT 10SM CLR 07/05 A3013,KBBG,2024-10-09T12:45:00Z,36.5259,-93.1969,7.0,5.0,0,0.0,,10+,30.13,,,,,,,,,,,CLR,,,,,,,,VFR,,,,,,,,,,,,METAR,403.0
215,KBAK 091245Z 00000KT 10SM CLR 07/07 A3011,KBAK,2024-10-09T12:45:00Z,39.2664,-85.8926,7.0,7.0,0,0.0,,10+,30.11,,,,,,,,,,,CLR,,,,,,,,VFR,,,,,,,,,,,,METAR,199.0
216,KATW 091245Z 01004KT 10SM SCT120 07/02 A3012,KATW,2024-10-09T12:45:00Z,44.2519,-88.526,7.0,2.0,10,4.0,,10+,30.12,,,,,,,,,,,SCT,12000.0,,,,,,,VFR,,,,,,,,,,,,METAR,266.0
217,KASJ 091245Z AUTO 00000KT 10SM CLR 12/12 A3003 RMK AO2 T01170117,KASJ,2024-10-09T12:45:00Z,36.2941,-77.1724,11.7,11.7,0,0.0,,10+,30.03,,,True,True,,,,,,,CLR,,,,,,,,VFR,,,,,,,,,,,,METAR,20.0
218,KANR 091245Z AUTO 02021KT 10SM CLR 27/16 A2996 RMK A01,KANR,2024-10-09T12:45:00Z,27.2264,-91.19,27.0,16.0,20,21.0,,10+,29.96,,,True,True,,,,,,,CLR,,,,,,,,VFR,,,,,,,,,,,,METAR,92.0
219,KANE 091245Z 00000KT 10SM CLR 05/02 A3006,KANE,2024-10-09T12:45:00Z,45.1426,-93.2127,5.0,2.0,0,0.0,,10+,30.06,,,,,,,,,,,CLR,,,,,,,,VFR,,,,,,,,,,,,METAR,276.0
220,K7W6 091245Z AUTO 00000KT 10SM CLR 16/12 A3000 RMK AO2 T01620122,K7W6,2024-10-09T12:45:00Z,35.5594,-75.955,16.2,12.2,0,0.0,,10+,30.0,,,True,True,,,,,,,CLR,,,,,,,,VFR,,,,,,,,,,,,METAR,1.0
221,K2G4 091245Z AUTO 29008G21KT 10SM CLR 09/01 A3000 RMK AO2 TSNO,K2G4,2024-10-09T12:45:00Z,39.5827,-79.3418,9.0,1.0,290,8.0,21.0,10+,30.0,,,True,True,,,True,,,,CLR,,,,,,,,VFR,,,,,,,,,,,,METAR,908.0
222,K1A5 091245Z AUTO 00000KT 5SM BR OVC002 12/11 A3013 RMK AO2 T01150112,K1A5,2024-10-09T12:45:00Z,35.2228,-83.415,11.5,11.2,0,0.0,,5,30.13,,,True,True,,,,,,BR,OVC,200.0,,,,,,,LIFR,,,,,,,,,,,,METAR,611.0
223,K0W3 091245Z AUTO VRB03KT 10SM CLR 13/09 A2995 RMK AO2 T01340089 $,K0W3,2024-10-09T12:45:00Z,39.566,-76.202,13.4,8.9,VRB,3.0,,10+,29.95,,,True,True,True,,,,,,CLR,,,,,,,,VFR,,,,,,,,,,,,METAR,125.0
224,EHWO 091245Z AUTO 18005KT 130V210 9999 DZ SCT017 SCT021 BKN056 15/13 Q0987 BLU TEMPO FEW010 SCT017 BKN020,EHWO,2024-10-09T12:45:00Z,51.448,4.342,15.0,13.0,180,5.0,,6+,29.14,,,True,,,,,,,DZ,SCT,1700.0,SCT,2100.0,BKN,5600.0,,,VFR,,,,,,,,,,,,SPECI,15.0
225,CYXR 091245Z AUTO 29010G16KT 9SM FEW010 SCT014 BKN040 OVC081 04/03 A2984 RMK SLP118,CYXR,2024-10-09T12:45:00Z,47.698,-79.852,4.0,3.0,290,10.0,16.0,9,29.84,1011.8,,True,,,,,,,,FEW,1000.0,SCT,1400.0,BKN,4000.0,OVC,8100.0,VFR,,,,,,,,,,,,SPECI,244.0
226,CYUY 091245Z 26005KT 7SM -RA OVC006 03/03 A2980 RMK ST8 SLP107,CYUY,2024-10-09T12:45:00Z,48.209,-78.83,3.0,3.0,260,5.0,,7,29.8,1010.7,,,,,,,,,-RA,OVC,600.0,,,,,,,IFR,,,,,,,,,,,,SPECI,304.0
227,CYTL 091245Z AUTO 01003KT 350V060 2SM BR OVC003 00/ A3015 RMK VIS VRB 3/4-3 DP MISG SLP225,CYTL,2024-10-09T12:45:00Z,53.816,-89.892,0.0,,10,3.0,,2,30.15,1022.5,,True,,,,,,,BR,OVC,300.0,,,,,,,LIFR,,,,,,,,,,,,SPECI,218.0
228,CYMO 091245Z AUTO 32003KT 9SM SCT024 OVC033 05/04 A2993 RMK SLP138,CYMO,2024-10-09T12:45:00Z,51.292,-80.607,5.0,4.0,320,3.0,,9,29.93,1013.8,,True,,,,,,,,SCT,2400.0,OVC,3300.0,,,,,VFR,,,,,,,,,,,,SPECI,8.0
229,CWPF 091245Z AUTO 05003KT 11/06 RMK AO1 SLP156 T01070057 53008,CWPF,2024-10-09T12:45:00Z,48.432,-123.439,10.7,5.7,50,3.0,,,0.0,1015.6,,True,True,,,,,,,,,,,,,,,,0.08,,,,,,,,,,,METAR,5.0
230,MMPA 091244Z 00000KT 4SM BKN280 22/20 A2997 RMK 8/008 HZY RTS,MMPA,2024-10-09T12:44:00Z,20.601,-97.459,22.0,20.0,0,0.0,,4,29.97,,,,,,,,,,,BKN,28000.0,,,,,,,MVFR,,,,,,,,,,,,METAR,153.0
231,MMML 091244Z 00000KT 10SM SKC 22/19 A2982 RMK RTS,MMML,2024-10-09T12:44:00Z,32.631,-115.238,22.0,19.0,0,0.0,,10+,29.82,,,,,,,,,,,SKC,,,,,,,,VFR,,,,,,,,,,,,METAR,21.0
232,LEZL 091244Z 23021G33KT 3500 RA SCT010 OVC015 20/19 Q1010 NOSIG,LEZL,2024-10-09T12:44:00Z,37.418,-5.893,20.0,19.0,230,21.0,33.0,2.17,29.82,,,,,,True,,,,RA,SCT,1000.0,OVC,1500.0,,,,,IFR,,,,,,,,,,,,SPECI,26.0
233,KISM 091244Z AUTO 07010KT 10SM -RA SCT009 BKN023 OVC050 24/23 A2980 RMK AO2 TSB02E17 PNO $,KISM,2024-10-09T12:44:00Z,28.2924,-81.4371,24.0,23.0,70,10.0,,10+,29.8,,,True,True,True,,,,,-RA,SCT,900.0,BKN,2300.0,OVC,5000.0,,,MVFR,,,,,,,,,,,,SPECI,25.0
234,KFBG 091244Z AUTO 35003KT 10SM CLR 14/12 A3002 RMK AO2 SLP168 $,KFBG,2024-10-09T12:44:00Z,35.131,-78.932,14.0,12.0,350,3.0,,10+,30.02,1016.8,,True,True,True,,,,,,CLR,,,,,,,,VFR,,,,,,,,,,,,SPECI,69.0
235,ETSB 091244Z 19013KT 2500 RA BR BKN003 OVC010 12/12 Q0990 YLO YLO TEMPO RED,ETSB,2024-10-09T12:44:00Z,50.175,7.06,12.0,12.0,190,13.0,,1.55,29.23,,,,,,,,,,RA BR,BKN,300.0,OVC,1000.0,,,,,LIFR,,,,,,,,,,,,SPECI,477.0
236,EBDT 091244Z AUTO 14004KT 3400 RA FEW003/// OVC042/// 14/13 Q0988 YLO,EBDT,2024-10-09T12:44:00Z,51.005,5.067,14.0,13.0,140,4.0,,2.11,29.17,,,True,,,,,,,RA,FEW,300.0,OVC,4200.0,,,,,IFR,,,,,,,,,,,,SPECI,25.0
237,LEJR 091243Z 20019KT 1600 R20/0800N -DZ SCT008 BKN013 OVC020 21/20 Q1011 REDZ,LEJR,2024-10-09T12:43:00Z,36.751,-6.056,21.0,20.0,200,19.0,,0.99,29.85,,,,,,,,,,-DZ,SCT,800.0,BKN,1300.0,OVC,2000.0,,,LIFR,,,,,,,,,,,,SPECI,25.0
238,KORE 091243Z AUTO 21003KT 3SM BR BKN001 05/04 A2992 RMK AO2 T00500039,KORE,2024-10-09T12:43:00Z,42.57,-72.287,5.0,3.9,210,3.0,,3,29.92,,,True,True,,,,,,BR,BKN,100.0,,,,,,,LIFR,,,,,,,,,,,,SPECI,165.0
239,KDDH 091243Z AUTO 00000KT 1SM BR SCT001 BKN046 06/05 A2991 RMK AO2 T00560050,KDDH,2024-10-09T12:43:00Z,42.8935,-73.2488,5.6,5.0,0,0.0,,1,29.91,,,True,True,,,,,,BR,SCT,100.0,BKN,4600.0,,,,,IFR,,,,,,,,,,,,SPECI,241.0
240,KCOF 091243Z AUTO 08015KT 1 7/8SM TSRA BR BKN013 25/23 A2976 RMK AO2 VIS 1 7/8V6 DZE00RAB00E11DZB11E15RAB15 TSB43 SLP082 $,KCOF,2024-10-09T12:43:00Z,28.242,-80.608,25.0,23.0,80,15.0,,1.88,29.76,1008.2,,True,True,True,,,,,TSRA BR,BKN,1300.0,,,,,,,IFR,,,,,,,,,,,,SPECI,1.0
241,KBRL 091243Z AUTO 21003KT 3SM BR CLR 09/08 A3008 RMK AO2 T00890078,KBRL,2024-10-09T12:43:00Z,40.7729,-91.1255,8.9,7.8,210,3.0,,3,30.08,,,True,True,,,,,,BR,CLR,,,,,,,,MVFR,,,,,,,,,,,,SPECI,208.0
242,ETNN 091243Z 11007KT 6000 RA FEW020 OVC060 14/13 Q0989 WHT BLU TEMPO YLO,ETNN,2024-10-09T12:43:00Z,50.829,6.66,14.0,13.0,110,7.0,,3.73,29.2,,,,,,,,,,RA,FEW,2000.0,OVC,6000.0,,,,,MVFR,,,,,,,,,,,,SPECI,108.0
243,CYNA 091243Z AUTO 09022G27KT 2 1/2SM -RA BR BKN008 OVC014 10/09 A2979 RMK PCPN 0.8MM PAST HR SLP089,CYNA,2024-10-09T12:43:00Z,50.19,-61.789,10.0,9.0,90,22.0,27.0,2.5,29.79,1008.9,,True,,,,,,,-RA BR,BKN,800.0,OVC,1400.0,,,,,IFR,,,,,,,,,,,,SPECI,9.0
244,CYMH 091243Z AUTO 07003KT 040V100 5SM BR BKN006 OVC011 06/06 A3015 RMK SLP213,CYMH,2024-10-09T12:43:00Z,52.304,-55.833,6.0,6.0,70,3.0,,5,30.15,1021.3,,True,,,,,,,BR,BKN,600.0,OVC,1100.0,,,,,IFR,,,,,,,,,,,,SPECI,18.0
245,MMCV 091242Z 00000KT 10SM SKC 14/13 A3000 RMK ISOL CI,MMCV,2024-10-09T12:42:00Z,23.706,-98.959,14.0,13.0,0,0.0,,10+,30.0,,,,,,,,,,,SKC,,,,,,,,VFR,,,,,,,,,,,,METAR,230.0
246,LEMO 091242Z 21023KT 180V240 9999 FEW012 BKN030 22/17 Q1011 NOSIG,LEMO,2024-10-09T12:42:00Z,37.175,-5.616,22.0,17.0,210,23.0,,6+,29.85,,,,,,True,,,,,FEW,1200.0,BKN,3000.0,,,,,MVFR,,,,,,,,,,,,SPECI,82.0
247,KOTH 091242Z AUTO 00000KT 1/2SM FG OVC001 13/13 A3006 RMK AO2 RVRNO,KOTH,2024-10-09T12:42:00Z,43.4194,-124.244,13.0,13.0,0,0.0,,0.5,30.06,,,True,True,,,,,,FG,OVC,100.0,,,,,,,LIFR,,,,,,,,,,,,SPECI,3.0
248,KGVQ 091242Z AUTO 10SM SCT060 A2994 RMK AO2 FZRANO $,KGVQ,2024-10-09T12:42:00Z,43.0298,-78.1665,,,,,,10+,29.94,,,True,True,True,,,True,,,SCT,6000.0,,,,,,,VFR,,,,,,,,,,,,SPECI,279.0
249,KAQW 091242Z AUTO 00000KT 3/4SM BR OVC002 05/05 A2992 RMK AO2 T00500050,KAQW,2024-10-09T12:42:00Z,42.6973,-73.1696,5.0,5.0,0,0.0,,0.75,29.92,,,True,True,,,,,,BR,OVC,200.0,,,,,,,LIFR,,,,,,,,,,,,SPECI,196.0
250,K4I3 091242Z AUTO 31004KT 10SM CLR 10/05 A3008 RMK AO2,K4I3,2024-10-09T12:42:00Z,40.3268,-82.5201,10.0,5.0,310,4.0,,10+,30.08,,,True,True,,,,,,,CLR,,,,,,,,VFR,,,,,,,,,,,,METAR,361.0
251,EHKD 091242Z AUTO 18013KT 150V210 9999 SCT019 BKN022 BKN026 16/13 Q0986 WHT NOSIG,EHKD,2024-10-09T12:42:00Z,52.927,4.781,16.0,13.0,180,13.0,,6+,29.11,,,True,,,True,,,,,SCT,1900.0,BKN,2200.0,BKN,2600.0,,,MVFR,,,,,,,,,,,,SPECI,1.0
252,CYZF 091242Z 32013G20KT 15SM -RASN OVC049 06/04 A2953 RMK SC8 SLP011,CYZF,2024-10-09T12:42:00Z,62.475,-114.448,6.0,4.0,320,13.0,20.0,15,29.53,1001.1,,,,,,,,,-RA -SN,OVC,4900.0,,,,,,,VFR,,,,,,,,,,,,SPECI,202.0
253,UUWW 091241Z 35003MPS 9999 OVC004 06/05 Q1013 R01/190055 NOSIG,UUWW,2024-10-09T12:41:00Z,55.592,37.261,6.0,5.0,350,6.0,,6+,29.91,,,,,,True,,,,,OVC,400.0,,,,,,,LIFR,,,,,,,,,,,,SPECI,195.0
254,PAMM 091241Z AUTO 18005KT 10SM FEW014 BKN027 OVC050 09/07 A2981 RMK AO2 RAE28 P0001 $,PAMM,2024-10-09T12:41:00Z,55.131,-131.578,9.0,7.0,180,5.0,,10+,29.81,,,True,True,True,,,,,,FEW,1400.0,BKN,2700.0,OVC,5000.0,,,MVFR,,,,,,0.01,,,,,,SPECI,
255,LEMD 091241Z 20011G23KT 160V220 6000 DZ FEW015 BKN028 18/16 Q1003 WS R14L WS R14R NOSIG,LEMD,2024-10-09T12:41:00Z,40.466,-3.555,18.0,16.0,200,11.0,23.0,3.73,29.62,,,,,,True,,,,DZ,FEW,1500.0,BKN,2800.0,,,,,MVFR,,,,,,,,,,,,SPECI,589.0
256,LEBA 091241Z 24012KT 210V290 9999 SCT014 BKN020 22/18 Q1009,LEBA,2024-10-09T12:41:00Z,37.842,-4.849,22.0,18.0,240,12.0,,6+,29.79,,,,,,,,,,,SCT,1400.0,BKN,2000.0,,,,,MVFR,,,,,,,,,,,,SPECI,88.0
257,KSFY 091241Z AUTO 00000KT 10SM CLR 06/05 A3008 RMK AO2,KSFY,2024-10-09T12:41:00Z,42.0454,-90.1101,6.0,5.0,0,0.0,,10+,30.08,,,True,True,,,,,,,CLR,,,,,,,,VFR,,,,,,,,,,,,METAR,188.0
258,EHEH 091241Z AUTO 16006KT 110V200 9999 -RA FEW009 FEW015CB BKN079 OVC084 14/13 Q0988 BLU TEMPO 4500 RA SCT010 BKN015,EHEH,2024-10-09T12:41:00Z,51.45,5.377,14.0,13.0,160,6.0,,6+,29.17,,,True,,,,,,,-RA,FEW,900.0,FEW,1500.0,BKN,7900.0,OVC,8400.0,VFR,,,,,,,,,,,,SPECI,20.0
259,UWOO 091240Z 31002MPS 9999 SCT007CB 19/M00 Q1004 R26/60D NOSIG RMK QFE743/0990,UWOO,2024-10-09T12:40:00Z,51.795,55.457,19.0,0.0,310,4.0,,6+,29.65,,,,,,True,,,,,SCT,700.0,,,,,,,VFR,,,,,,,,,,,,SPECI,90.0
260,UAAA 091240Z VRB01MPS 5000 FU NSC 18/07 Q1016 TEMPO 3000,UAAA,2024-10-09T12:40:00Z,43.35,77.027,18.0,7.0,VRB,2.0,,3.11,30.0,,,,,,,,,,FU,CLR,,,,,,,,MVFR,,,,,,,,,,,,SPECI,673.0
261,PKWA 091240Z AUTO 00000KT 10SM CLR 28/25 A2983 RMK AO2 T02800250,PKWA,2024-10-09T12:40:00Z,8.72,167.724,28.0,25.0,0,0.0,,10+,29.83,,,True,True,,,,,,,CLR,,,,,,,,VFR,,,,,,,,,,,,METAR,6.0
262,PASH 091240Z AUTO 35012KT 10SM FEW017 OVC032 02/M01 A2984 RMK AO2 RAB16E25UPB25E32 P0001 FZRANO,PASH,2024-10-09T12:40:00Z,66.252,-166.084,2.0,-1.0,350,12.0,,10+,29.84,,,True,True,,,,True,,,FEW,1700.0,OVC,3200.0,,,,,VFR,,,,,,0.01,,,,,,SPECI,3.0
263,MMPN 091240Z 00000KT 12SM SCT300 16/15 A3015 RMK 8/001 HZY AC RTS,MMPN,2024-10-09T12:40:00Z,19.396,-102.041,16.0,15.0,0,0.0,,12,30.15,,,,,,,,,,,SCT,30000.0,,,,,,,VFR,,,,,,,,,,,,METAR,1602.0
264,MMAN 091240Z 29005KT 15SM SKC 18/14 A3006 RMK RTS,MMAN,2024-10-09T12:40:00Z,25.865,-100.239,18.0,14.0,290,5.0,,15,30.06,,,,,,,,,,,SKC,,,,,,,,VFR,,,,,,,,,,,,METAR,447.0
265,KXNX 091240Z AUTO 00000KT 10SM CLR 10/08 A3011 RMK A01,KXNX,2024-10-09T12:40:00Z,36.3745,-86.41,10.0,8.0,0,0.0,,10+,30.11,,,True,True,,,,,,,CLR,,,,,,,,VFR,,,,,,,,,,,,METAR,178.0
266,KVCV 091240Z AUTO 16005KT 10SM CLR 15/01 A3002 RMK AO2,KVCV,2024-10-09T12:40:00Z,34.5933,-117.389,15.0,1.0,160,5.0,,10+,30.02,,,True,True,,,,,,,CLR,,,,,,,,VFR,,,,,,,,,,,,METAR,871.0
267,KVBG 091240Z AUTO 00000KT 3SM BR OVC004 13/13 A2994 RMK AO2 CIG 001 RWY12 SLP141 TSNO $,KVBG,2024-10-09T12:40:00Z,34.733,-120.583,13.0,13.0,0,0.0,,3,29.94,1014.1,,True,True,True,,True,,,BR,OVC,400.0,,,,,,,LIFR,,,,,,,,,,,,SPECI,96.0
268,KTDF 091240Z AUTO 00000KT 10SM CLR 09/09 A3008 RMK AO2,KTDF,2024-10-09T12:40:00Z,36.284,-78.9884,9.0,9.0,0,0.0,,10+,30.08,,,True,True,,,,,,,CLR,,,,,,,,VFR,,,,,,,,,,,,METAR,180.0
269,KSBD 091240Z AUTO 00000KT 10SM CLR 17/06 A2993 RMK AO2 T01730060,KSBD,2024-10-09T12:40:00Z,34.09,-117.247,17.3,6.0,0,0.0,,10+,29.93,,,True,True,,,,,,,CLR,,,,,,,,VFR,,,,,,,,,,,,METAR,353.0
270,KQEY 091240Z AUTO 00000KT 9999 BKN210 16/14 A2973 RMK A02 TSNO,KQEY,2024-10-09T12:40:00Z,-99.99,-99.99,16.0,14.0,0,0.0,,6+,29.73,,,True,True,,,True,,,,BKN,21000.0,,,,,,,VFR,,,,,,,,,,,,METAR,9999.0
271,KQER 091240Z AUTO 16002KT 9999 SCT220 13/12 A3000 RMK A02 TSNO,KQER,2024-10-09T12:40:00Z,-99.99,-99.99,13.0,12.0,160,2.0,,6+,30.0,,,True,True,,,True,,,,SCT,22000.0,,,,,,,VFR,,,,,,,,,,,,METAR,9999.0
272,KLHM 091240Z AUTO 17006KT 10SM CLR 16/08 A2986 RMK AO1,KLHM,2024-10-09T12:40:00Z,38.9148,-121.352,16.0,8.0,170,6.0,,10+,29.86,,,True,True,,,,,,,CLR,,,,,,,,VFR,,,,,,,,,,,,METAR,36.0
273,KIPJ 091240Z AUTO 00000KT 10SM CLR 13/11 A3007 RMK AO2 T01290113,KIPJ,2024-10-09T12:40:00Z,35.4861,-81.1564,12.9,11.3,0,0.0,,10+,30.07,,,True,True,,,,,,,CLR,,,,,,,,VFR,,,,,,,,,,,,METAR,266.0
274,KGUL 091240Z AUTO 01006KT 10SM CLR 26/17 A2991 RMK A01,KGUL,2024-10-09T12:40:00Z,27.3039,-93.5383,26.0,17.0,10,6.0,,10+,29.91,,,True,True,,,,,,,CLR,,,,,,,,VFR,,,,,,,,,,,,METAR,20.0
275,KETC 091240Z AUTO 00000KT 10SM 13/12 A3003 RMK AO2 T01270118,KETC,2024-10-09T12:40:00Z,35.9363,-77.5416,12.7,11.8,0,0.0,,10+,30.03,,,True,True,,,,,,,,,,,,,,,VFR,,,,,,,,,,,,METAR,15.0
276,KCBE 091240Z AUTO 00000KT 10SM CLR 07/06 A3006 RMK AO2 T00670058,KCBE,2024-10-09T12:40:00Z,39.6182,-78.7598,6.7,5.8,0,0.0,,10+,30.06,,,True,True,,,,,,,CLR,,,,,,,,VFR,,,,,,,,,,,,METAR,226.0
277,KACZ 091240Z AUTO 36003KT 10SM CLR 15/13 A3002 RMK AO2 T01510130,KACZ,2024-10-09T12:40:00Z,34.718,-78.005,15.1,13.0,360,3.0,,10+,30.02,,,True,True,,,,,,,CLR,,,,,,,,VFR,,,,,,,,,,,,METAR,30.0
278,K1D1 091240Z AUTO 13005KT 10SM CLR 04/04 A3001 RMK AO2,K1D1,2024-10-09T12:40:00Z,45.231,-96.566,4.0,4.0,130,5.0,,10+,30.01,,,True,True,,,,,,,CLR,,,,,,,,VFR,,,,,,,,,,,,METAR,340.0
279,CYET 091240Z AUTO 11018KT 030V120 9SM -RA BKN047 OVC060 06/02 A2991 RMK SLP154,CYET,2024-10-09T12:40:00Z,53.58,-116.455,6.0,2.0,110,18.0,,9,29.91,1015.4,,True,,,,,,,-RA,BKN,4700.0,OVC,6000.0,,,,,VFR,,,,,,,,,,,,SPECI,925.0
280,CYCA 091240Z AUTO 06005KT 7SM BKN009 OVC015 06/05 A3016 RMK SLP215,CYCA,2024-10-09T12:40:00Z,53.683,-57.042,6.0,5.0,60,5.0,,7,30.16,1021.5,,True,,,,,,,,BKN,900.0,OVC,1500.0,,,,,IFR,,,,,,,,,,,,SPECI,12.0
281,SAVC 091239Z 28013KT CAVOK 22/M03 Q1016,SAVC,2024-10-09T12:39:00Z,-45.79,-67.471,22.0,-3.0,280,13.0,,6+,30.0,,,,,,,,,,,CAVOK,,,,,,,,VFR,,,,,,,,,,,,SPECI,58.0
282,PAVC 091239Z AUTO VRB03KT 10SM BKN023 OVC031 A2991 RMK AO2 UPB1158E14RAB14E15 FZRANO PNO $,PAVC,2024-10-09T12:39:00Z,55.115,-162.271,,,VRB,3.0,,10+,29.91,,,True,True,True,,,True,,,BKN,2300.0,OVC,3100.0,,,,,MVFR,,,,,,,,,,,,SPECI,48.0
283,KMIE 091239Z AUTO 00000KT 10SM FEW002 08/06 A3010 RMK AO2 T00830056,KMIE,2024-10-09T12:39:00Z,40.2345,-85.3936,8.3,5.6,0,0.0,,10+,30.1,,,True,True,,,,,,,FEW,200.0,,,,,,,VFR,,,,,,,,,,,,SPECI,286.0
284,KFLL 091239Z 12014KT 10SM SCT015 SCT045 BKN250 29/26 A2974 RMK AO2 T02890256,KFLL,2024-10-09T12:39:00Z,26.0787,-80.1622,28.9,25.6,120,14.0,,10+,29.74,,,,True,,,,,,,SCT,1500.0,SCT,4500.0,BKN,25000.0,,,VFR,,,,,,,,,,,,SPECI,1.0
285,K2V6 091239Z AUTO 28008KT 10SM CLR 08/M02 A3009 RMK AO2,K2V6,2024-10-09T12:39:00Z,40.1047,-102.713,8.0,-2.0,280,8.0,,10+,30.09,,,True,True,,,,,,,CLR,,,,,,,,VFR,,,,,,,,,,,,METAR,1257.0
286,EHGR 091239Z AUTO 17008KT 120V190 9999 DZRA FEW016 BKN075 OVC080 15/13 Q0988 BLU TEMPO SCT015 BKN18,EHGR,2024-10-09T12:39:00Z,51.565,4.935,15.0,13.0,170,8.0,,6+,29.17,,,True,,,,,,,DZ RA,FEW,1600.0,BKN,7500.0,OVC,8000.0,,,VFR,,,,,,,,,,,,SPECI,12.0
287,CYGV 091239Z AUTO 07018G29KT 7SM -RA BKN009 BKN012 OVC019 09/08 A2969 RMK PRESFR PCPN 1.5MM PAST HR SLP056,CYGV,2024-10-09T12:39:00Z,50.286,-63.606,9.0,8.0,70,18.0,29.0,7,29.69,1005.6,,True,,,,,,,-RA,BKN,900.0,BKN,1200.0,OVC,1900.0,,,IFR,,,,,,,,,,,,SPECI,32.0
288,CYFB 091239Z 14016KT 20SM OVC012 02/01 A3033 RMK SC8 SLP275,CYFB,2024-10-09T12:39:00Z,63.75,-68.544,2.0,1.0,140,16.0,,20,30.33,1027.5,,,,,,,,,,OVC,1200.0,,,,,,,MVFR,,,,,,,,,,,,SPECI,23.0
289,VEAT 091238Z 36003KT 4000 BR SCT018 FEW030CB SCT100 29/27 Q1008 NOSIG,VEAT,2024-10-09T12:38:00Z,23.887,91.24,29.0,27.0,360,3.0,,2.49,29.76,,,,,,True,,,,BR,SCT,1800.0,FEW,3000.0,SCT,10000.0,,,IFR,,,,,,,,,,,,METAR,20.0
290,RKJB 091238Z 20002KT 6000 -RA BKN030 OVC070 17/17 Q1015 NOSIG,RKJB,2024-10-09T12:38:00Z,34.991,126.383,17.0,17.0,200,2.0,,3.73,29.97,,,,,,True,,,,-RA,BKN,3000.0,OVC,7000.0,,,,,MVFR,,,,,,,,,,,,SPECI,16.0
291,KHZY 091238Z AUTO 00000KT 10SM FEW029 SCT035 08/06 A3003 RMK AO2 T00830061,KHZY,2024-10-09T12:38:00Z,41.7794,-80.6968,8.3,6.1,0,0.0,,10+,30.03,,,True,True,,,,,,,FEW,2900.0,SCT,3500.0,,,,,VFR,,,,,,,,,,,,SPECI,279.0
292,KACV 091238Z AUTO 30003KT 1/4SM R32/1000V1600FT FG VV002 12/12 A3002 RMK AO2 T01220122,KACV,2024-10-09T12:38:00Z,40.9784,-124.105,12.2,12.2,300,3.0,,0.25,30.02,,,True,True,,,,,,FG,OVX,0.0,,,,,,,LIFR,,,,,,,,,,,200.0,SPECI,63.0
293,CYSC 091238Z AUTO 00000KT 9SM SCT024 SCT030 BKN039 OVC050 07/06 A2983 RMK SLP109,CYSC,2024-10-09T12:38:00Z,45.44,-71.692,7.0,6.0,0,0.0,,9,29.83,1010.9,,True,,,,,,,,SCT,2400.0,SCT,3000.0,BKN,3900.0,OVC,5000.0,VFR,,,,,,,,,,,,SPECI,236.0
294,CWSA 091238Z AUTO 25011G17KT 6SM BR FEW015 16/13 A2984 RMK SLP108 DENSITY ALT 300FT,CWSA,2024-10-09T12:38:00Z,43.933,-60.002,16.0,13.0,250,11.0,17.0,6,29.84,1010.8,,True,,,,,,,BR,FEW,1500.0,,,,,,,VFR,,,,,,,,,,,,SPECI,4.0
295,KSRQ 091237Z 07012G23KT 10SM -RA BKN011 BKN022 OVC060 24/23 A2967 RMK AO2 TSB1157E16 P0063 T02440233,KSRQ,2024-10-09T12:37:00Z,27.4015,-82.5596,24.4,23.3,70,12.0,23.0,10+,29.67,,,,True,,,,,,-RA,BKN,1100.0,BKN,2200.0,OVC,6000.0,,,MVFR,,,,,,,,,,,,SPECI,5.0
296,KSET 091237Z AUTO 00000KT 9SM OVC002 07/06 A3011 RMK AO2 T00670056 $,KSET,2024-10-09T12:37:00Z,38.9304,-90.4329,6.7,5.6,0,0.0,,9,30.11,,,True,True,True,,,,,,OVC,200.0,,,,,,,LIFR,,,,,,,,,,,,SPECI,133.0
297,KALI 091237Z AUTO 02005KT 1/4SM FG VV011 19/19 A2999 RMK AO2 T01940194,KALI,2024-10-09T12:37:00Z,27.7413,-98.0251,19.4,19.4,20,5.0,,0.25,29.99,,,True,True,,,,,,FG,OVX,0.0,,,,,,,LIFR,,,,,,,,,,,1100.0,SPECI,52.0
298,EHVK 091237Z AUTO 18009KT 140V230 9999 -RA SCT015CB BKN016 BKN061 BKN073 15/13 Q0989 WHT BECMG 15005KT TEMPO 4500 RA SCT014 BKN020,EHVK,2024-10-09T12:37:00Z,51.658,5.707,15.0,13.0,180,9.0,,6+,29.2,,,True,,,,,,,-RA,SCT,1500.0,BKN,1600.0,BKN,6100.0,BKN,7300.0,MVFR,,,,,,,,,,,,SPECI,20.0
299,URWI 091236Z 31012G17MPS CAVOK 21/05 Q1012 R27/010065 NOSIG,URWI,2024-10-09T12:36:00Z,46.374,44.331,21.0,5.0,310,23.0,33.0,6+,29.88,,,,,,True,,,,,CAVOK,,,,,,,,VFR,,,,,,,,,,,,SPECI,145.0
300,UMKK 091236Z 21005MPS 6000 -SHRA BKN006 BKN014CB 15/15 Q0998 R24/290095 NOSIG RMK QBB180 OBST OBSC QFE747/0996,UMKK,2024-10-09T12:36:00Z,54.885,20.583,15.0,15.0,210,10.0,,3.73,29.47,,,,,,True,,,,-SHRA,BKN,600.0,BKN,1400.0,,,,,IFR,,,,,,,,,,,,SPECI,6.0
301,PABT 091236Z 00000KT 1/2SM SN FZFG VV013 M01/M01 A2968 RMK AO2 P0003 T10061011 $,PABT,2024-10-09T12:36:00Z,66.9176,-151.519,-0.6,-1.1,0,0.0,,0.5,29.68,,,,True,True,,,,,SN FZFG,OVX,0.0,,,,,,,LIFR,,,,,,0.03,,,,,1300.0,SPECI,195.0
302,MMIA 091236Z RTD 00000KT 6SM BKN100 21/18 A3000 RMK 8/030 RTS,MMIA,2024-10-09T12:36:00Z,19.276,-103.576,21.0,18.0,0,0.0,,6,30.0,,,,,,,,,,,BKN,10000.0,,,,,,,VFR,,,,,,,,,,,,METAR,744.0
303,LEXJ 091236Z 30015KT 270V340 5000 RA SCT015 BKN045 20/18 Q0988,LEXJ,2024-10-09T12:36:00Z,43.429,-3.831,20.0,18.0,300,15.0,,3.11,29.17,,,,,,,,,,RA,SCT,1500.0,BKN,4500.0,,,,,MVFR,,,,,,,,,,,,SPECI,1.0
304,KVSF 091236Z AUTO 00000KT 1/4SM FG VV001 03/03 A2989 RMK AO2 T00330028,KVSF,2024-10-09T12:36:00Z,43.3421,-72.5213,3.3,2.8,0,0.0,,0.25,29.89,,,True,True,,,,,,FG,OVX,0.0,,,,,,,LIFR,,,,,,,,,,,100.0,SPECI,176.0
305,KSLH 091236Z AUTO 32010G17KT 10SM SCT050 09/04 A3003 RMK AO2,KSLH,2024-10-09T12:36:00Z,45.6523,-84.5202,9.0,4.0,320,10.0,17.0,10+,30.03,,,True,True,,,,,,,SCT,5000.0,,,,,,,VFR,,,,,,,,,,,,METAR,193.0
306,KPWC 091236Z AUTO 00000KT 10SM CLR 02/00 A3009 RMK AO2,KPWC,2024-10-09T12:36:00Z,46.7266,-94.3849,2.0,0.0,0,0.0,,10+,30.09,,,True,True,,,,,,,CLR,,,,,,,,VFR,,,,,,,,,,,,METAR,394.0
307,KNFG 091236Z AUTO 00000KT 2 1/2SM BR OVC003 17/14 A2991 RMK AO2 T01720139 $,KNFG,2024-10-09T12:36:00Z,33.304,-117.355,17.2,13.9,0,0.0,,2.5,29.91,,,True,True,True,,,,,BR,OVC,300.0,,,,,,,LIFR,,,,,,,,,,,,SPECI,21.0
308,KMCD 091236Z AUTO 10SM CLR 07/04 A3003 RMK AO2,KMCD,2024-10-09T12:36:00Z,45.866,-84.634,7.0,4.0,,,,10+,30.03,,,True,True,,,,,,,CLR,,,,,,,,VFR,,,,,,,,,,,,METAR,228.0
309,KI69 091236Z AUTO 00000KT 10SM CLR 07/06 A3010 RMK AO1 T00710064,KI69,2024-10-09T12:36:00Z,39.078,-84.21,7.1,6.4,0,0.0,,10+,30.1,,,True,True,,,,,,,CLR,,,,,,,,VFR,,,,,,,,,,,,METAR,238.0
310,KHFF 091236Z AUTO 01003KT 10SM CLR 12/11 A3002 RMK AO2 SLP168 $,KHFF,2024-10-09T12:36:00Z,35.0424,-79.4973,12.0,11.0,10,3.0,,10+,30.02,1016.8,,True,True,True,,,,,,CLR,,,,,,,,VFR,,,,,,,,,,,,SPECI,100.0
311,KGKT 091236Z AUTO 00000KT 10SM CLR 09/09 A3009 RMK A01,KGKT,2024-10-09T12:36:00Z,35.8568,-83.5333,9.0,9.0,0,0.0,,10+,30.09,,,True,True,,,,,,,CLR,,,,,,,,VFR,,,,,,,,,,,,METAR,305.0
312,KCEC 091236Z AUTO 00000KT 1 1/2SM BR OVC003 12/12 A3003 RMK AO2 T01220122,KCEC,2024-10-09T12:36:00Z,41.7836,-124.238,12.2,12.2,0,0.0,,1.5,30.03,,,True,True,,,,,,BR,OVC,300.0,,,,,,,LIFR,,,,,,,,,,,,SPECI,17.0
313,KBBB 091236Z AUTO 00000KT 10SM CLR 07/03 A3003 RMK AO2,KBBB,2024-10-09T12:36:00Z,45.331,-95.6469,7.0,3.0,0,0.0,,10+,30.03,,,True,True,,,,,,,CLR,,,,,,,,VFR,,,,,,,,,,,,METAR,315.0
314,KAEL 091236Z AUTO 00000KT 4SM BR CLR 05/04 A3002 RMK AO2,KAEL,2024-10-09T12:36:00Z,43.6823,-93.3722,5.0,4.0,0,0.0,,4,30.02,,,True,True,,,,,,BR,CLR,,,,,,,,MVFR,,,,,,,,,,,,METAR,382.0
315,CYZY 091236Z AUTO 11004KT 9SM CLR 00/00 A2986 RMK ICE PAST HR SLP145,CYZY,2024-10-09T12:36:00Z,55.303,-123.135,0.0,0.0,110,4.0,,9,29.86,1014.5,,True,,,,,,,,CLR,,,,,,,,VFR,,,,,,,,,,,,SPECI,694.0
316,CYTS 091236Z 33007G15KT 1 3/4SM -RA BR SCT006 OVC009 03/03 A2990 RMK SF3SC5 SLP141,CYTS,2024-10-09T12:36:00Z,48.568,-81.378,3.0,3.0,330,7.0,15.0,1.75,29.9,1014.1,,,,,,,,,-RA BR,SCT,600.0,OVC,900.0,,,,,IFR,,,,,,,,,,,,SPECI,290.0
317,CYRV 091236Z AUTO 35006KT 9SM -RA FEW007 SCT016 BKN021 OVC076 11/10 A2994 RMK PCPN 0.5MM PAST HR SLP148,CYRV,2024-10-09T12:36:00Z,50.958,-118.176,11.0,10.0,350,6.0,,9,29.94,1014.8,,True,,,,,,,-RA,FEW,700.0,SCT,1600.0,BKN,2100.0,OVC,7600.0,MVFR,,,,,,,,,,,,SPECI,456.0
318,CYBX 091236Z 08014G20KT 8SM BKN008 OVC013 07/06 A3010 RMK SC5SC3 SLP196,CYBX,2024-10-09T12:36:00Z,51.442,-57.188,7.0,6.0,80,14.0,20.0,8,30.1,1019.6,,,,,,,,,,BKN,800.0,OVC,1300.0,,,,,IFR,,,,,,,,,,,,SPECI,32.0
319,TJPS 091235Z AUTO VRB03KT 10SM CLR 32/28 A2996 RMK AO2 PWINO,TJPS,2024-10-09T12:35:00Z,18.011,-66.567,32.0,28.0,VRB,3.0,,10+,29.96,,,True,True,,,,,True,,CLR,,,,,,,,VFR,,,,,,,,,,,,METAR,12.0
320,SBRJ 091235Z 14008KT 7000 SCT018 24/20 Q1014,SBRJ,2024-10-09T12:35:00Z,-22.91,-43.163,24.0,20.0,140,8.0,,4.35,29.94,,,,,,,,,,,SCT,1800.0,,,,,,,MVFR,,,,,,,,,,,,SPECI,6.0
321,PFCB 091235Z AUTO 03004KT 10SM SCT055 OVC075 08/07 A2959 RMK AO2 T00790072,PFCB,2024-10-09T12:35:00Z,60.0785,-147.995,7.9,7.2,30,4.0,,10+,29.59,,,True,True,,,,,,,SCT,5500.0,OVC,7500.0,,,,,VFR,,,,,,,,,,,,METAR,22.0
322,PANA 091235Z AUTO 12008KT 4SM BR OVC014 00/M01 A2978 RMK AO2 UPB15E21SNE15 P0000 FZRANO TSNO,PANA,2024-10-09T12:35:00Z,60.694,-161.978,0.0,-1.0,120,8.0,,4,29.78,,,True,True,,,True,True,,BR,OVC,1400.0,,,,,,,MVFR,,,,,,0.005,,,,,,SPECI,7.0
323,PALU 091235Z AUTO 35008KT 10SM OVC025 01/M02 A2987 RMK AO2 SLP114,PALU,2024-10-09T12:35:00Z,68.873,-166.101,1.0,-2.0,350,8.0,,10+,29.87,1011.4,,True,True,,,,,,,OVC,2500.0,,,,,,,MVFR,,,,,,,,,,,,SPECI,8.0
324,PAAD 091235Z AUTO 23005KT 10SM OVC024 M03/M05 A2981 RMK AO2 T10321049,PAAD,2024-10-09T12:35:00Z,70.136,-146.29,-3.2,-4.9,230,5.0,,10+,29.81,,,True,True,,,,,,,OVC,2400.0,,,,,,,MVFR,,,,,,,,,,,,METAR,8.0
325,KZPH 091235Z AUTO 04010KT 4SM +RA 24/ A2979 RMK A02 P0006 T0239////,KZPH,2024-10-09T12:35:00Z,28.2268,-82.1564,23.9,,40,10.0,,4,29.79,,,True,True,,,,,,+RA,,,,,,,,,MVFR,,,,,,0.06,,,,,,METAR,26.0
326,KZER 091235Z AUTO 33004KT 10SM CLR 08/03 A2996 RMK AO2,KZER,2024-10-09T12:35:00Z,40.7072,-76.371,8.0,3.0,330,4.0,,10+,29.96,,,True,True,,,,,,,CLR,,,,,,,,VFR,,,,,,,,,,,,METAR,518.0
327,KY70 091235Z AUTO 28002KT 10SM CLR 03/01 A3009 RMK AO2,KY70,2024-10-09T12:35:00Z,42.9398,-85.0653,3.0,1.0,280,2.0,,10+,30.09,,,True,True,,,,,,,CLR,,,,,,,,VFR,,,,,,,,,,,,METAR,247.0
328,KY63 091235Z AUTO 13008KT 10SM CLR 11/02 A3002 RMK AO2 T01060017,KY63,2024-10-09T12:35:00Z,45.9891,-95.9946,10.6,1.7,130,8.0,,10+,30.02,,,True,True,,,,,,,CLR,,,,,,,,VFR,,,,,,,,,,,,METAR,367.0
329,KY51 091235Z AUTO 10007KT 10SM CLR 08/02 A3006 RMK AO2 T00820015,KY51,2024-10-09T12:35:00Z,43.5814,-90.8997,8.2,1.5,100,7.0,,10+,30.06,,,True,True,,,,,,,CLR,,,,,,,,VFR,,,,,,,,,,,,METAR,390.0
330,KY49 091235Z AUTO 13003KT 10SM CLR 06/02 A3006 RMK AO2 T00640017,KY49,2024-10-09T12:35:00Z,47.1599,-94.6433,6.4,1.7,130,3.0,,10+,30.06,,,True,True,,,,,,,CLR,,,,,,,,VFR,,,,,,,,,,,,METAR,413.0
331,KY31 091235Z AUTO 28009KT 10SM SCT037 03/02 A3005 RMK AO2 T00270016,KY31,2024-10-09T12:35:00Z,44.2434,-84.18,2.7,1.6,280,9.0,,10+,30.05,,,True,True,,,,,,,SCT,3700.0,,,,,,,VFR,,,,,,,,,,,,METAR,264.0
332,KY23 091235Z AUTO 00000KT 10SM CLR 04/03 A3010 RMK AO2 T00400032,KY23,2024-10-09T12:35:00Z,45.311,-91.638,4.0,3.2,0,0.0,,10+,30.1,,,True,True,,,,,,,CLR,,,,,,,,VFR,,,,,,,,,,,,METAR,322.0
333,KY19 091235Z AUTO 26006KT 9SM SCT041 SCT047 07/02 A2993 RMK AO2,KY19,2024-10-09T12:35:00Z,46.7648,-100.894,7.0,2.0,260,6.0,,9,29.93,,,True,True,,,,,,,SCT,4100.0,SCT,4700.0,,,,,VFR,,,,,,,,,,,,METAR,591.0
334,KXSA 091235Z AUTO 21003KT 10SM CLR 11/11 A3004 RMK AO2 T01100109,KXSA,2024-10-09T12:35:00Z,37.8606,-76.9016,11.0,10.9,210,3.0,,10+,30.04,,,True,True,,,,,,,CLR,,,,,,,,VFR,,,,,,,,,,,,METAR,41.0
335,KXLL 091235Z AUTO 00000KT 10SM CLR 11/07 A2996 RMK AO2,KXLL,2024-10-09T12:35:00Z,40.5704,-75.4894,11.0,7.0,0,0.0,,10+,29.96,,,True,True,,,,,,,CLR,,,,,,,,VFR,,,,,,,,,,,,METAR,118.0
336,KXBP 091235Z AUTO 00000KT 10SM CLR 13/10 A3008 RMK AO2 T01270095,KXBP,2024-10-09T12:35:00Z,33.1729,-97.8268,12.7,9.5,0,0.0,,10+,30.08,,,True,True,,,,,,,CLR,,,,,,,,VFR,,,,,,,,,,,,METAR,256.0
337,KX60 091235Z AUTO 05009KT 10SM -RA BKN008 OVC024 23/22 A2984 RMK AO2 P0005 T02290224,KX60,2024-10-09T12:35:00Z,29.3524,-82.4743,22.9,22.4,50,9.0,,10+,29.84,,,True,True,,,,,,-RA,BKN,800.0,OVC,2400.0,,,,,IFR,,,,,,0.05,,,,,,METAR,21.0
338,KX26 091235Z AUTO 10SM SCT020 SCT025 BKN032 27/24 A2977 RMK AO2 LTG DSNT NW,KX26,2024-10-09T12:35:00Z,27.813,-80.497,27.0,24.0,,,,10+,29.77,,,True,True,,,,,,,SCT,2000.0,SCT,2500.0,BKN,3200.0,,,VFR,,,,,,,,,,,,METAR,5.0
339,KWYS 091235Z AUTO 00000KT 10SM CLR M04/M06 A3025 RMK AO2,KWYS,2024-10-09T12:35:00Z,44.6811,-111.124,-4.0,-6.0,0,0.0,,10+,30.25,,,True,True,,,,,,,CLR,,,,,,,,VFR,,,,,,,,,,,,METAR,2025.0
340,KWWR 091235Z AUTO 21005KT 10SM CLR 17/11 A3004 RMK AO2,KWWR,2024-10-09T12:35:00Z,36.4374,-99.5234,17.0,11.0,210,5.0,,10+,30.04,,,True,True,,,,,,,CLR,,,,,,,,VFR,,,,,,,,,,,,METAR,664.0
341,KWDR 091235Z AUTO 00000KT 10SM CLR 15/13 A3006 RMK AO2,KWDR,2024-10-09T12:35:00Z,33.981,-83.667,15.0,13.0,0,0.0,,10+,30.06,,,True,True,,,,,,,CLR,,,,,,,,VFR,,,,,,,,,,,,METAR,280.0
342,KW99 091235Z AUTO 09004KT 10SM CLR 06/06 A3003 RMK AO2 T00630061,KW99,2024-10-09T12:35:00Z,38.9947,-79.1421,6.3,6.1,90,4.0,,10+,30.03,,,True,True,,,,,,,CLR,,,,,,,,VFR,,,,,,,,,,,,METAR,288.0
343,KW96 091235Z AUTO 00000KT 10SM CLR 10/09 A3004 RMK AO1 T00990092,KW96,2024-10-09T12:35:00Z,37.5027,-77.126,9.9,9.2,0,0.0,,10+,30.04,,,True,True,,,,,,,CLR,,,,,,,,VFR,,,,,,,,,,,,METAR,35.0
344,KW81 091235Z AUTO 00000KT 10SM CLR 09/08 A3004 RMK AO1 T00900076,KW81,2024-10-09T12:35:00Z,37.1813,-78.0977,9.0,7.6,0,0.0,,10+,30.04,,,True,True,,,,,,,CLR,,,,,,,,VFR,,,,,,,,,,,,METAR,121.0
345,KW78 091235Z AUTO 00000KT 10SM CLR 10/09 A3006 RMK AO1 T00980090,KW78,2024-10-09T12:35:00Z,36.7087,-78.846,9.8,9.0,0,0.0,,10+,30.06,,,True,True,,,,,,,CLR,,,,,,,,VFR,,,,,,,,,,,,METAR,120.0
346,KW75 091235Z AUTO 00000KT 10SM CLR 13/11 A3003 RMK AO1 T01340110,KW75,2024-10-09T12:35:00Z,37.6024,-76.4477,13.4,11.0,0,0.0,,10+,30.03,,,True,True,,,,,,,CLR,,,,,,,,VFR,,,,,,,,,,,,METAR,8.0
347,KW63 091235Z AUTO 00000KT 10SM CLR 10/10 A3005 RMK AO1,KW63,2024-10-09T12:35:00Z,36.6008,-78.5559,10.0,10.0,0,0.0,,10+,30.05,,,True,True,,,,,,,CLR,,,,,,,,VFR,,,,,,,,,,,,METAR,126.0
348,KW43 091235Z AUTO 20007KT 10SM CLR 07/M03 A3009 RMK AO2,KW43,2024-10-09T12:35:00Z,44.6607,-104.568,7.0,-3.0,200,7.0,,10+,30.09,,,True,True,,,,,,,CLR,,,,,,,,VFR,,,,,,,,,,,,METAR,1292.0
349,KW31 091235Z AUTO 00000KT 10SM CLR 13/10 A3004 RMK AO1 T01260097,KW31,2024-10-09T12:35:00Z,36.9599,-78.1838,12.6,9.7,0,0.0,,10+,30.04,,,True,True,,,,,,,CLR,,,,,,,,VFR,,,,,,,,,,,,METAR,159.0
350,KW22 091235Z AUTO 20003KT 10SM CLR 07/05 A3007 RMK AO2,KW22,2024-10-09T12:35:00Z,39.001,-80.2712,7.0,5.0,200,3.0,,10+,30.07,,,True,True,,,,,,,CLR,,,,,,,,VFR,,,,,,,,,,,,METAR,497.0
351,KW13 091235Z AUTO 19003KT 10SM CLR 08/06 A3005 RMK AO1 T00760063,KW13,2024-10-09T12:35:00Z,38.077,-78.944,7.6,6.3,190,3.0,,10+,30.05,,,True,True,,,,,,,CLR,,,,,,,,VFR,,,,,,,,,,,,METAR,440.0
352,KVYS 091235Z AUTO 00000KT 10SM CLR 07/06 A3008 RMK AO2 T00680057,KVYS,2024-10-09T12:35:00Z,41.3517,-89.1496,6.8,5.7,0,0.0,,10+,30.08,,,True,True,,,,,,,CLR,,,,,,,,VFR,,,,,,,,,,,,METAR,198.0
353,KVWU 091235Z AUTO 11004KT 10SM CLR 03/02 A3006 RMK AO2,KVWU,2024-10-09T12:35:00Z,48.1502,-94.512,3.0,2.0,110,4.0,,10+,30.06,,,True,True,,,,,,,CLR,,,,,,,,VFR,,,,,,,,,,,,METAR,359.0
354,KVVV 091235Z AUTO 00000KT 10SM CLR 06/04 A3001 RMK AO2,KVVV,2024-10-09T12:35:00Z,45.2994,-96.4256,6.0,4.0,0,0.0,,10+,30.01,,,True,True,,,,,,,CLR,,,,,,,,VFR,,,,,,,,,,,,METAR,334.0
355,KVVS 091235Z AUTO 25004KT 10SM CLR 09/05 A3004 RMK AO2 T00860047,KVVS,2024-10-09T12:35:00Z,39.9581,-79.6575,8.6,4.7,250,4.0,,10+,30.04,,,True,True,,,,,,,CLR,,,,,,,,VFR,,,,,,,,,,,,METAR,386.0
356,KVTP 091235Z AUTO 28006KT 10SM CLR 06/M06 A3059 RMK AO2,KVTP,2024-10-09T12:35:00Z,37.512,-105.171,6.0,-6.0,280,6.0,,10+,30.59,,,True,True,,,,,,,CLR,,,,,,,,VFR,,,,,,,,,,,,METAR,3086.0
357,KVTI 091235Z AUTO 18005KT 7SM CLR 08/05 A3004 RMK AO2 T00760045,KVTI,2024-10-09T12:35:00Z,42.2176,-92.0248,7.6,4.5,180,5.0,,7,30.04,,,True,True,,,,,,,CLR,,,,,,,,VFR,,,,,,,,,,,,METAR,256.0
358,KVPC 091235Z AUTO 00000KT 3SM HZ CLR 13/11 A3005 RMK AO2,KVPC,2024-10-09T12:35:00Z,34.1158,-84.8507,13.0,11.0,0,0.0,,3,30.05,,,True,True,,,,,,HZ,CLR,,,,,,,,MVFR,,,,,,,,,,,,METAR,234.0
359,KVOA 091235Z AUTO 05026G32KT 4SM HZ SCT026 SCT033 27/21 A2979 RMK A01,KVOA,2024-10-09T12:35:00Z,29.2289,-87.7808,27.0,21.0,50,26.0,32.0,4,29.79,,,True,True,,,,,,HZ,SCT,2600.0,SCT,3300.0,,,,,MVFR,,,,,,,,,,,,METAR,53.0
360,KVNC 091235Z AUTO 07016G23KT 10SM FEW010 BKN028 OVC110 A2966 RMK AO2 LTG DSNT SW,KVNC,2024-10-09T12:35:00Z,27.0728,-82.44,,,70,16.0,23.0,10+,29.66,,,True,True,,,,,,,FEW,1000.0,BKN,2800.0,OVC,11000.0,,,MVFR,,,,,,,,,,,,METAR,4.0
361,KVLL 091235Z AUTO 29005KT 10SM SCT045 08/04 A3008 RMK AO2,KVLL,2024-10-09T12:35:00Z,42.543,-83.178,8.0,4.0,290,5.0,,10+,30.08,,,True,True,,,,,,,SCT,4500.0,,,,,,,VFR,,,,,,,,,,,,METAR,214.0
362,KVKS 091235Z AUTO 00000KT 10SM CLR 10/10 A2998 RMK A01,KVKS,2024-10-09T12:35:00Z,32.2359,-90.9269,10.0,10.0,0,0.0,,10+,29.98,,,True,True,,,,,,,CLR,,,,,,,,VFR,,,,,,,,,,,,METAR,31.0
363,KVJI 091235Z AUTO 00000KT 10SM CLR 08/M03 A3011 RMK AO2 T00801029,KVJI,2024-10-09T12:35:00Z,36.6871,-82.037,8.0,-2.9,0,0.0,,10+,30.11,,,True,True,,,,,,,CLR,,,,,,,,VFR,,,,,,,,,,,,METAR,636.0
364,KVHN 091235Z AUTO 26004KT 10SM CLR 16/05 A3022 RMK AO2 T01600050,KVHN,2024-10-09T12:35:00Z,31.0602,-104.783,16.0,5.0,260,4.0,,10+,30.22,,,True,True,,,,,,,CLR,,,,,,,,VFR,,,,,,,,,,,,METAR,1200.0
365,KVGC 091235Z AUTO 00000KT 10SM CLR 03/ A2992 RMK AO2,KVGC,2024-10-09T12:35:00Z,42.8444,-75.5637,3.0,,0,0.0,,10+,29.92,,,True,True,,,,,,,CLR,,,,,,,,VFR,,,,,,,,,,,,METAR,346.0
366,KVES 091235Z AUTO 00000KT 7SM CLR 06/06 A3010 RMK AO2,KVES,2024-10-09T12:35:00Z,40.2056,-84.5346,6.0,6.0,0,0.0,,7,30.1,,,True,True,,,,,,,CLR,,,,,,,,VFR,,,,,,,,,,,,METAR,308.0
367,KVER 091235Z AUTO 00000KT 7SM CLR 07/07 A3011 RMK AO2 T00680067,KVER,2024-10-09T12:35:00Z,38.9496,-92.6842,6.8,6.7,0,0.0,,7,30.11,,,True,True,,,,,,,CLR,,,,,,,,VFR,,,,,,,,,,,,METAR,209.0
368,KVDI 091235Z AUTO 05007KT 10SM CLR 18/15 A2998 RMK AO2,KVDI,2024-10-09T12:35:00Z,32.1933,-82.3642,18.0,15.0,50,7.0,,10+,29.98,,,True,True,,,,,,,CLR,,,,,,,,VFR,,,,,,,,,,,,METAR,81.0
369,KVDF 091235Z AUTO 05009KT 7SM RA SCT006 SCT030 OVC100 A2974 RMK AO2,KVDF,2024-10-09T12:35:00Z,28.0198,-82.3415,,,50,9.0,,7,29.74,,,True,True,,,,,,RA,SCT,600.0,SCT,3000.0,OVC,10000.0,,,VFR,,,,,,,,,,,,METAR,5.0
370,KVBW 091235Z AUTO 00000KT 10SM CLR 06/06 A3004 RMK AO1 T00590059,KVBW,2024-10-09T12:35:00Z,38.366,-78.968,5.9,5.9,0,0.0,,10+,30.04,,,True,True,,,,,,,CLR,,,,,,,,VFR,,,,,,,,,,,,METAR,362.0
371,KUYF 091235Z AUTO 01004KT 10SM CLR 10/01 A3010 RMK AO2,KUYF,2024-10-09T12:35:00Z,39.9312,-83.465,10.0,1.0,10,4.0,,10+,30.1,,,True,True,,,,,,,CLR,,,,,,,,VFR,,,,,,,,,,,,METAR,326.0
372,KUXL 091235Z AUTO 34005KT 10SM CLR 12/09 A2998 RMK AO2 T01200086 PWINO,KUXL,2024-10-09T12:35:00Z,30.135,-93.3767,12.0,8.6,340,5.0,,10+,29.98,,,True,True,,,,,True,,CLR,,,,,,,,VFR,,,,,,,,,,,,METAR,2.0
373,KUWL 091235Z AUTO 00000KT 9SM CLR 07/06 A3009 RMK A01,KUWL,2024-10-09T12:35:00Z,39.8752,-85.3313,7.0,6.0,0,0.0,,9,30.09,,,True,True,,,,,,,CLR,,,,,,,,VFR,,,,,,,,,,,,METAR,332.0
374,KUVA 091235Z AUTO 04005KT 10SM CLR 18/10 A3007 RMK AO2 T01770102,KUVA,2024-10-09T12:35:00Z,29.2135,-99.743,17.7,10.2,40,5.0,,10+,30.07,,,True,True,,,,,,,CLR,,,,,,,,VFR,,,,,,,,,,,,METAR,285.0
375,KUUV 091235Z AUTO 00000KT 10SM CLR 06/05 A3014 RMK AO2,KUUV,2024-10-09T12:35:00Z,38.2335,-91.1609,6.0,5.0,0,0.0,,10+,30.14,,,True,True,,,,,,,CLR,,,,,,,,VFR,,,,,,,,,,,,METAR,284.0
376,KUTA 091235Z AUTO 02005KT 9SM CLR 10/10 A3006 RMK AO2 T01020102 $,KUTA,2024-10-09T12:35:00Z,34.6766,-90.344,10.2,10.2,20,5.0,,9,30.06,,,True,True,True,,,,,,CLR,,,,,,,,VFR,,,,,,,,,,,,METAR,58.0
377,KUSE 091235Z AUTO 00000KT 10SM CLR 05/05 A3010 RMK AO2,KUSE,2024-10-09T12:35:00Z,41.6118,-84.1275,5.0,5.0,0,0.0,,10+,30.1,,,True,True,,,,,,,CLR,,,,,,,,VFR,,,,,,,,,,,,METAR,237.0
378,KUOX 091235Z AUTO 00000KT 10SM CLR 10/08 A3005 RMK AO2 PWINO,KUOX,2024-10-09T12:35:00Z,34.3851,-89.5435,10.0,8.0,0,0.0,,10+,30.05,,,True,True,,,,,True,,CLR,,,,,,,,VFR,,,,,,,,,,,,METAR,123.0
379,KUNU 091235Z AUTO 00000KT 10SM CLR 06/02 A3011 RMK AO2 T00550021,KUNU,2024-10-09T12:35:00Z,43.4285,-88.7017,5.5,2.1,0,0.0,,10+,30.11,,,True,True,,,,,,,CLR,,,,,,,,VFR,,,,,,,,,,,,METAR,281.0
380,KUNI 091235Z AUTO 00000KT 5SM -SN CLR 06/04 A3009 RMK AO2 T00640042 TSNO,KUNI,2024-10-09T12:35:00Z,39.2129,-82.2204,6.4,4.2,0,0.0,,5,30.09,,,True,True,,,True,,,-SN,CLR,,,,,,,,MVFR,,,,,,,,,,,,METAR,232.0
381,KUMP 091235Z AUTO 00000KT 10SM CLR 08/08 A3011 RMK AO2 T00780077 $,KUMP,2024-10-09T12:35:00Z,39.936,-86.0478,7.8,7.7,0,0.0,,10+,30.11,,,True,True,True,,,,,,CLR,,,,,,,,VFR,,,,,,,,,,,,METAR,247.0
382,KULS 091235Z AUTO 01005KT 9SM CLR 10/07 A3004 RMK AO2,KULS,2024-10-09T12:35:00Z,37.6037,-101.377,10.0,7.0,10,5.0,,9,30.04,,,True,True,,,,,,,CLR,,,,,,,,VFR,,,,,,,,,,,,METAR,934.0
383,KULM 091235Z AUTO 00000KT 10SM CLR 08/03 A3003 RMK AO2,KULM,2024-10-09T12:35:00Z,44.3228,-94.5024,8.0,3.0,0,0.0,,10+,30.03,,,True,True,,,,,,,CLR,,,,,,,,VFR,,,,,,,,,,,,METAR,305.0
384,KUKT 091235Z AUTO 00000KT 10SM CLR 09/08 A2995 RMK AO2,KUKT,2024-10-09T12:35:00Z,40.4368,-75.3802,9.0,8.0,0,0.0,,10+,29.95,,,True,True,,,,,,,CLR,,,,,,,,VFR,,,,,,,,,,,,METAR,156.0
385,KUKL 091235Z AUTO 00000KT 10SM CLR 09/05 A3009 RMK AO2 T00890045,KUKL,2024-10-09T12:35:00Z,38.3041,-95.7217,8.9,4.5,0,0.0,,10+,30.09,,,True,True,,,,,,,CLR,,,,,,,,VFR,,,,,,,,,,,,METAR,357.0
386,KUCY 091235Z AUTO 00000KT 4SM BR CLR 08/08 A3008 RMK A01,KUCY,2024-10-09T12:35:00Z,36.3778,-88.9878,8.0,8.0,0,0.0,,4,30.08,,,True,True,,,,,,BR,CLR,,,,,,,,MVFR,,,,,,,,,,,,METAR,97.0
387,KUBE 091235Z AUTO 06003KT 10SM CLR 02/01 A3010 RMK AO2,KUBE,2024-10-09T12:35:00Z,45.5046,-91.978,2.0,1.0,60,3.0,,10+,30.1,,,True,True,,,,,,,CLR,,,,,,,,VFR,,,,,,,,,,,,METAR,376.0
388,KU69 091235Z AUTO 28005KT 10SM FEW020 09/01 A3026 RMK A01,KU69,2024-10-09T12:35:00Z,40.198,-110.387,9.0,1.0,280,5.0,,10+,30.26,,,True,True,,,,,,,FEW,2000.0,,,,,,,VFR,,,,,,,,,,,,METAR,1776.0
389,KU68 091235Z AUTO 05003KT 10SM CLR 07/M05 A3009 RMK AO2,KU68,2024-10-09T12:35:00Z,44.9113,-108.447,7.0,-5.0,50,3.0,,10+,30.09,,,True,True,,,,,,,CLR,,,,,,,,VFR,,,,,,,,,,,,METAR,1244.0
390,KU64 091235Z AUTO 00000KT 10SM CLR 08/M05 A3035 RMK AO2 T00811050 $,KU64,2024-10-09T12:35:00Z,37.9333,-109.34,8.1,-5.0,0,0.0,,10+,30.35,,,True,True,True,,,,,,CLR,,,,,,,,VFR,,,,,,,,,,,,METAR,2123.0
391,KU52 091235Z AUTO 00000KT 10SM FEW039 SCT047 SCT050 04/M03 A3024 RMK AO2,KU52,2024-10-09T12:35:00Z,38.232,-112.672,4.0,-3.0,0,0.0,,10+,30.24,,,True,True,,,,,,,FEW,3900.0,SCT,4700.0,SCT,5000.0,,,VFR,,,,,,,,,,,,METAR,1787.0
392,KU42 091235Z AUTO 20006KT 10SM CLR 16/01 A3015 RMK AO1 T01550005,KU42,2024-10-09T12:35:00Z,40.6196,-111.99,15.5,0.5,200,6.0,,10+,30.15,,,True,True,,,,,,,CLR,,,,,,,,VFR,,,,,,,,,,,,METAR,1399.0
393,KTYQ 091235Z AUTO 00000KT 10SM CLR 06/05 A3010 RMK AO2 T00610051,KTYQ,2024-10-09T12:35:00Z,40.0345,-86.2488,6.1,5.1,0,0.0,,10+,30.1,,,True,True,,,,,,,CLR,,,,,,,,VFR,,,,,,,,,,,,METAR,279.0
394,KTYL 091235Z AUTO 00000KT 10SM CLR 13/M04 A3025 RMK AO2,KTYL,2024-10-09T12:35:00Z,34.4577,-110.112,13.0,-4.0,0,0.0,,10+,30.25,,,True,True,,,,,,,CLR,,,,,,,,VFR,,,,,,,,,,,,METAR,1748.0
395,KTXW 091235Z AUTO 00000KT 2 1/2SM BR CLR 20/19 A2996 RMK AO2 VIS 1V5 T02030194,KTXW,2024-10-09T12:35:00Z,26.1824,-97.9742,20.3,19.4,0,0.0,,2.5,29.96,,,True,True,,,,,,BR,CLR,,,,,,,,IFR,,,,,,,,,,,,METAR,21.0
396,KTWT 091235Z AUTO 00000KT 10SM OVC002 10/08 A3011 RMK AO2,KTWT,2024-10-09T12:35:00Z,37.5432,-87.9568,10.0,8.0,0,0.0,,10+,30.11,,,True,True,,,,,,,OVC,200.0,,,,,,,LIFR,,,,,,,,,,,,METAR,113.0
397,KTWM 091235Z AUTO 01003KT 10SM CLR 05/01 A3012 RMK AO2,KTWM,2024-10-09T12:35:00Z,47.0192,-91.7447,5.0,1.0,10,3.0,,10+,30.12,,,True,True,,,,,,,CLR,,,,,,,,VFR,,,,,,,,,,,,METAR,331.0
398,KTVY 091235Z AUTO 20010G14KT 10SM CLR 16/M01 A3013 RMK AO2,KTVY,2024-10-09T12:35:00Z,40.6127,-112.354,16.0,-1.0,200,10.0,14.0,10+,30.13,,,True,True,,,,,,,CLR,,,,,,,,VFR,,,,,,,,,,,,METAR,1310.0
399,KTVK 091235Z AUTO 00000KT 08/03 A3009 RMK A01,KTVK,2024-10-09T12:35:00Z,40.6832,-92.8984,8.0,3.0,0,0.0,,,30.09,,,True,True,,,,,,,,,,,,,,,,,,,,,,,,,,,METAR,311.0
400,KTVI 091235Z AUTO 04006KT 10SM OVC008 21/20 A2991 RMK AO2,KTVI,2024-10-09T12:35:00Z,30.9026,-83.8826,21.0,20.0,40,6.0,,10+,29.91,,,True,True,,,,,,,OVC,800.0,,,,,,,IFR,,,,,,,,,,,,METAR,74.0
401,KTTF 091235Z AUTO 29004KT 10SM CLR 05/03 A3009 RMK AO2,KTTF,2024-10-09T12:35:00Z,41.9371,-83.4332,5.0,3.0,290,4.0,,10+,30.09,,,True,True,,,,,,,CLR,,,,,,,,VFR,,,,,,,,,,,,METAR,186.0
402,KTSP 091235Z AUTO 00000KT 10SM 10/03 A3010 RMK AO2,KTSP,2024-10-09T12:35:00Z,35.1387,-118.442,10.0,3.0,0,0.0,,10+,30.1,,,True,True,,,,,,,,,,,,,,,VFR,,,,,,,,,,,,METAR,1209.0
403,KTRK 091235Z AUTO 00000KT 10SM CLR 00/M02 A3022 RMK AO2,KTRK,2024-10-09T12:35:00Z,39.3154,-120.137,0.0,-2.0,0,0.0,,10+,30.22,,,True,True,,,,,,,CLR,,,,,,,,VFR,,,,,,,,,,,,METAR,1800.0
404,KTQV 091235Z AUTO 34003KT 10SM CLR 13/09 A3005 RMK A01,KTQV,2024-10-09T12:35:00Z,36.007,-78.937,13.0,9.0,340,3.0,,10+,30.05,,,True,True,,,,,,,CLR,,,,,,,,VFR,,,,,,,,,,,,METAR,230.0
405,KTQK 091235Z AUTO 34004KT 10SM CLR 08/06 A3008 RMK AO2 T00830056,KTQK,2024-10-09T12:35:00Z,38.4782,-100.882,8.3,5.6,340,4.0,,10+,30.08,,,True,True,,,,,,,CLR,,,,,,,,VFR,,,,,,,,,,,,METAR,906.0
406,KTQH 091235Z AUTO 00000KT 10SM CLR 08/07 A3009 RMK AO2,KTQH,2024-10-09T12:35:00Z,35.9304,-95.0025,8.0,7.0,0,0.0,,10+,30.09,,,True,True,,,,,,,CLR,,,,,,,,VFR,,,,,,,,,,,,METAR,265.0
407,KTOC 091235Z AUTO 36003KT 10SM CLR 15/13 A3006 RMK AO2 T01460128,KTOC,2024-10-09T12:35:00Z,34.588,-83.2974,14.6,12.8,360,3.0,,10+,30.06,,,True,True,,,,,,,CLR,,,,,,,,VFR,,,,,,,,,,,,METAR,292.0
408,KTOB 091235Z AUTO 00000KT 10SM CLR 06/03 A3004 RMK AO2,KTOB,2024-10-09T12:35:00Z,44.0202,-92.8295,6.0,3.0,0,0.0,,10+,30.04,,,True,True,,,,,,,CLR,,,,,,,,VFR,,,,,,,,,,,,METAR,394.0
409,KTNU 091235Z AUTO 18003KT 9SM CLR 07/07 A3005 RMK A01,KTNU,2024-10-09T12:35:00Z,41.6701,-93.019,7.0,7.0,180,3.0,,9,30.05,,,True,True,,,,,,,CLR,,,,,,,,VFR,,,,,,,,,,,,METAR,287.0
410,KTNB 091235Z AUTO 00000KT 10SM CLR 05/05 A2994 RMK AO2 T00490049,KTNB,2024-10-09T12:35:00Z,36.1988,-81.6515,4.9,4.9,0,0.0,,10+,29.94,,,True,True,,,,,,,CLR,,,,,,,,VFR,,,,,,,,,,,,METAR,958.0
411,KTMT 091235Z AUTO 17003KT 10SM CLR 00/M07 A3022 RMK AO2 T10051070,KTMT,2024-10-09T12:35:00Z,39.4643,-117.197,-0.5,-7.0,170,3.0,,10+,30.22,,,True,True,,,,,,,CLR,,,,,,,,VFR,,,,,,,,,,,,METAR,1748.0
412,KTMK 091235Z AUTO 00000KT 10SM BKN026 BKN036 OVC043 13/13 A3006 RMK AO2,KTMK,2024-10-09T12:35:00Z,45.421,-123.814,13.0,13.0,0,0.0,,10+,30.06,,,True,True,,,,,,,BKN,2600.0,BKN,3600.0,OVC,4300.0,,,MVFR,,,,,,,,,,,,METAR,8.0
413,KTME 091235Z AUTO 02003KT 10SM CLR 12/11 A3003 RMK AO2,KTME,2024-10-09T12:35:00Z,29.806,-95.903,12.0,11.0,20,3.0,,10+,30.03,,,True,True,,,,,,,CLR,,,,,,,,VFR,,,,,,,,,,,,METAR,49.0
414,KTMA 091235Z AUTO VRB05KT 10SM CLR 19/19 A2995 RMK AO2 T01940190,KTMA,2024-10-09T12:35:00Z,31.4229,-83.4859,19.4,19.0,VRB,5.0,,10+,29.95,,,True,True,,,,,,,CLR,,,,,,,,VFR,,,,,,,,,,,,METAR,105.0
415,KTKX 091235Z AUTO 36004KT 9SM CLR 10/07 A3008 RMK AO2,KTKX,2024-10-09T12:35:00Z,36.2226,-90.0367,10.0,7.0,360,4.0,,9,30.08,,,True,True,,,,,,,CLR,,,,,,,,VFR,,,,,,,,,,,,METAR,73.0
416,KTKV 091235Z AUTO 00000KT 10SM CLR M03/M05 A3014 RMK AO2 T10311050 PWINO,KTKV,2024-10-09T12:35:00Z,45.469,-89.805,-3.1,-5.0,0,0.0,,10+,30.14,,,True,True,,,,,True,,CLR,,,,,,,,VFR,,,,,,,,,,,,METAR,449.0
417,KTKC 091235Z AUTO 23004KT 10SM CLR 04/04 A3003 RMK AO2,KTKC,2024-10-09T12:35:00Z,44.25,-95.612,4.0,4.0,230,4.0,,10+,30.03,,,True,True,,,,,,,CLR,,,,,,,,VFR,,,,,,,,,,,,METAR,408.0
418,KTIP 091235Z AUTO 30004KT 10SM CLR 09/04 A3010 RMK AO2 T00890036,KTIP,2024-10-09T12:35:00Z,40.291,-88.146,8.9,3.6,300,4.0,,10+,30.1,,,True,True,,,,,,,CLR,,,,,,,,VFR,,,,,,,,,,,,METAR,224.0
419,KTIF 091235Z AUTO 00000KT 10SM CLR 04/02 A3002 RMK AO2 T00360024,KTIF,2024-10-09T12:35:00Z,41.9646,-100.569,3.6,2.4,0,0.0,,10+,30.02,,,True,True,,,,,,,CLR,,,,,,,,VFR,,,,,,,,,,,,METAR,888.0
420,KTHA 091235Z AUTO 05003KT 10SM CLR 11/08 A3005 RMK A01,KTHA,2024-10-09T12:35:00Z,35.3804,-86.2419,11.0,8.0,50,3.0,,10+,30.05,,,True,True,,,,,,,CLR,,,,,,,,VFR,,,,,,,,,,,,METAR,333.0
421,KTGI 091235Z AUTO 25010KT 10SM CLR 19/12 A3002 RMK AO1 T01870116,KTGI,2024-10-09T12:35:00Z,37.8279,-75.9964,18.7,11.6,250,10.0,,10+,30.02,,,True,True,,,,,,,CLR,,,,,,,,VFR,,,,,,,,,,,,METAR,1.0
422,KTFP 091235Z AUTO 04005KT 10SM CLR 19/17 A2998 RMK AO1 T01920167,KTFP,2024-10-09T12:35:00Z,27.9132,-97.2132,19.2,16.7,40,5.0,,10+,29.98,,,True,True,,,,,,,CLR,,,,,,,,VFR,,,,,,,,,,,,METAR,5.0
423,KTEX 091235Z AUTO 15006KT 10SM CLR 07/M06 A3047 RMK AO2,KTEX,2024-10-09T12:35:00Z,37.954,-107.909,7.0,-6.0,150,6.0,,10+,30.47,,,True,True,,,,,,,CLR,,,,,,,,VFR,,,,,,,,,,,,METAR,2760.0
424,KTEW 091235Z AUTO 00000KT 10SM CLR 03/01 A3009 RMK AO2 T00290007,KTEW,2024-10-09T12:35:00Z,42.5636,-84.4222,2.9,0.7,0,0.0,,10+,30.09,,,True,True,,,,,,,CLR,,,,,,,,VFR,,,,,,,,,,,,METAR,281.0
425,KTCY 091235Z AUTO 00000KT 9SM CLR 16/07 A2988 RMK A01,KTCY,2024-10-09T12:35:00Z,37.6919,-121.444,16.0,7.0,0,0.0,,9,29.88,,,True,True,,,,,,,CLR,,,,,,,,VFR,,,,,,,,,,,,METAR,51.0
426,KTBR 091235Z AUTO 04004KT CLR 17/14 A2999 RMK AO2 T01660135 PWINO,KTBR,2024-10-09T12:35:00Z,32.48,-81.738,16.6,13.5,40,4.0,,,29.99,,,True,True,,,,,True,,CLR,,,,,,,,,,,,,,,,,,,,METAR,54.0
427,KTAZ 091235Z AUTO 00000KT 10SM CLR 06/05 A3011 RMK AO2 T00630051,KTAZ,2024-10-09T12:35:00Z,39.535,-89.3294,6.3,5.1,0,0.0,,10+,30.11,,,True,True,,,,,,,CLR,,,,,,,,VFR,,,,,,,,,,,,METAR,188.0
428,KT89 091235Z AUTO 07007KT 10SM CLR 19/06 A3009 RMK A01,KT89,2024-10-09T12:35:00Z,29.2774,-103.691,19.0,6.0,70,7.0,,10+,30.09,,,True,True,,,,,,,CLR,,,,,,,,VFR,,,,,,,,,,,,METAR,801.0
429,KT82 091235Z AUTO 00000KT 10SM CLR 13/10 A3008 RMK AO2 T01300102,KT82,2024-10-09T12:35:00Z,30.239,-98.904,13.0,10.2,0,0.0,,10+,30.08,,,True,True,,,,,,,CLR,,,,,,,,VFR,,,,,,,,,,,,METAR,509.0
430,KT78 091235Z AUTO 35003KT 10SM CLR 11/10 A2999 RMK AO2,KT78,2024-10-09T12:35:00Z,30.0754,-94.6996,11.0,10.0,350,3.0,,10+,29.99,,,True,True,,,,,,,CLR,,,,,,,,VFR,,,,,,,,,,,,METAR,21.0
431,KT74 091235Z AUTO 10SM CLR 11/10 A3005 RMK AO2 T01110095,KT74,2024-10-09T12:35:00Z,30.5704,-97.4447,11.1,9.5,,,,10+,30.05,,,True,True,,,,,,,CLR,,,,,,,,VFR,,,,,,,,,,,,METAR,169.0
432,KT69 091235Z AUTO 9SM CLR 17/17 A3000 RMK A01,KT69,2024-10-09T12:35:00Z,28.0418,-97.541,17.0,17.0,,,,9,30.0,,,True,True,,,,,,,CLR,,,,,,,,VFR,,,,,,,,,,,,METAR,15.0
433,KT41 091235Z AUTO 01007KT 10SM CLR 17/10 A3001 RMK AO2 T01670101,KT41,2024-10-09T12:35:00Z,29.6709,-95.0644,16.7,10.1,10,7.0,,10+,30.01,,,True,True,,,,,,,CLR,,,,,,,,VFR,,,,,,,,,,,,METAR,8.0
434,KT35 091235Z AUTO 00000KT 10SM CLR 14/10 A3005 RMK AO2 T01420096,KT35,2024-10-09T12:35:00Z,30.8789,-96.9704,14.2,9.6,0,0.0,,10+,30.05,,,True,True,,,,,,,CLR,,,,,,,,VFR,,,,,,,,,,,,METAR,122.0
435,KT20 091235Z AUTO 00000KT 10SM CLR 14/10 A3003 RMK AO2 T01400095,KT20,2024-10-09T12:35:00Z,29.5301,-97.463,14.0,9.5,0,0.0,,10+,30.03,,,True,True,,,,,,,CLR,,,,,,,,VFR,,,,,,,,,,,,METAR,107.0
436,KSZY 091235Z AUTO 04004KT 10SM CLR 10/08 A3006 RMK A01,KSZY,2024-10-09T12:35:00Z,35.2064,-88.5012,10.0,8.0,40,4.0,,10+,30.06,,,True,True,,,,,,,CLR,,,,,,,,VFR,,,,,,,,,,,,METAR,184.0
437,KSZT 091235Z AUTO 00000KT 10SM BKN065 04/04 A2996 RMK AO2,KSZT,2024-10-09T12:35:00Z,48.2945,-116.567,4.0,4.0,0,0.0,,10+,29.96,,,True,True,,,,,,,BKN,6500.0,,,,,,,VFR,,,,,,,,,,,,METAR,649.0
438,KSYN 091235Z AUTO 00000KT 10SM CLR 05/04 A3004 RMK AO2 T00530039,KSYN,2024-10-09T12:35:00Z,44.474,-93.014,5.3,3.9,0,0.0,,10+,30.04,,,True,True,,,,,,,CLR,,,,,,,,VFR,,,,,,,,,,,,METAR,280.0
439,KSYI 091235Z AUTO 00000KT 10SM CLR 08/08 A3007 RMK A01,KSYI,2024-10-09T12:35:00Z,35.5594,-86.4406,8.0,8.0,0,0.0,,10+,30.07,,,True,True,,,,,,,CLR,,,,,,,,VFR,,,,,,,,,,,,METAR,244.0
440,KSYF 091235Z AUTO 22006KT 10SM CLR 08/01 A3007 RMK AO2,KSYF,2024-10-09T12:35:00Z,39.7583,-101.793,8.0,1.0,220,6.0,,10+,30.07,,,True,True,,,,,,,CLR,,,,,,,,VFR,,,,,,,,,,,,METAR,1041.0
441,KSXK 091235Z AUTO 20005KT 10SM CLR 09/03 A2999 RMK AO2,KSXK,2024-10-09T12:35:00Z,42.9895,-96.1645,9.0,3.0,200,5.0,,10+,29.99,,,True,True,,,,,,,CLR,,,,,,,,VFR,,,,,,,,,,,,METAR,430.0
442,KSWW 091235Z AUTO 20008KT 10SM 18/12 A3009 RMK AO2 T01770118,KSWW,2024-10-09T12:35:00Z,32.4688,-100.467,17.7,11.8,200,8.0,,10+,30.09,,,True,True,,,,,,,,,,,,,,,VFR,,,,,,,,,,,,METAR,718.0
443,KSVC 091235Z AUTO 35004KT 10SM CLR 12/M01 A3023 RMK AO2 T01231007,KSVC,2024-10-09T12:35:00Z,32.631,-108.147,12.3,-0.7,350,4.0,,10+,30.23,,,True,True,,,,,,,CLR,,,,,,,,VFR,,,,,,,,,,,,METAR,1638.0
444,KSUZ 091235Z AUTO 00000KT 9SM CLR 11/09 A3007 RMK A01,KSUZ,2024-10-09T12:35:00Z,34.5862,-92.4802,11.0,9.0,0,0.0,,9,30.07,,,True,True,,,,,,,CLR,,,,,,,,VFR,,,,,,,,,,,,METAR,114.0
445,KSUW 091235Z AUTO 00000KT 10SM CLR M01/M02 A3013 RMK AO2 T10141021,KSUW,2024-10-09T12:35:00Z,46.6833,-92.0926,-1.4,-2.1,0,0.0,,10+,30.13,,,True,True,,,,,,,CLR,,,,,,,,VFR,,,,,,,,,,,,METAR,205.0
446,KSUO 091235Z AUTO 18007KT 9SM CLR 11/05 A2996 RMK AO2,KSUO,2024-10-09T12:35:00Z,43.259,-100.862,11.0,5.0,180,7.0,,9,29.96,,,True,True,,,,,,,CLR,,,,,,,,VFR,,,,,,,,,,,,METAR,830.0
447,KSUN 091235Z AUTO 32010KT 10SM CLR 07/M01 A3019 RMK AO2,KSUN,2024-10-09T12:35:00Z,43.4969,-114.292,7.0,-1.0,320,10.0,,10+,30.19,,,True,True,,,,,,,CLR,,,,,,,,VFR,,,,,,,,,,,,METAR,1619.0
448,KSTK 091235Z AUTO 17006KT 10SM CLR 02/M01 A3010 RMK AO2,KSTK,2024-10-09T12:35:00Z,40.6133,-103.261,2.0,-1.0,170,6.0,,10+,30.1,,,True,True,,,,,,,CLR,,,,,,,,VFR,,,,,,,,,,,,METAR,1228.0
449,KSTF 091235Z AUTO 00000KT 8SM CLR 12/10 A2998 RMK AO2,KSTF,2024-10-09T12:35:00Z,33.4326,-88.8506,12.0,10.0,0,0.0,,8,29.98,,,True,True,,,,,,,CLR,,,,,,,,VFR,,,,,,,,,,,,METAR,99.0
450,KSTE 091235Z AUTO 00000KT 10SM CLR 01/00 A3013 RMK AO2 T00070001,KSTE,2024-10-09T12:35:00Z,44.5437,-89.5347,0.7,0.1,0,0.0,,10+,30.13,,,True,True,,,,,,,CLR,,,,,,,,VFR,,,,,,,,,,,,METAR,335.0
451,KSSI 091235Z AUTO 04012G18KT 10SM SCT026 25/21 A2989 RMK AO2,KSSI,2024-10-09T12:35:00Z,31.1527,-81.3905,25.0,21.0,40,12.0,18.0,10+,29.89,,,True,True,,,,,,,SCT,2600.0,,,,,,,VFR,,,,,,,,,,,,METAR,6.0
452,KSRR 091235Z AUTO 26006KT 10SM CLR 13/00 A3034 RMK AO2,KSRR,2024-10-09T12:35:00Z,33.4667,-105.528,13.0,0.0,260,6.0,,10+,30.34,,,True,True,,,,,,,CLR,,,,,,,,VFR,,,,,,,,,,,,METAR,2063.0
453,KSRE 091235Z AUTO 00000KT 10SM CLR 14/08 A3006 RMK AO2,KSRE,2024-10-09T12:35:00Z,35.271,-96.675,14.0,8.0,0,0.0,,10+,30.06,,,True,True,,,,,,,CLR,,,,,,,,VFR,,,,,,,,,,,,METAR,306.0
454,KSRB 091235Z AUTO 00000KT 10SM CLR 08/08 A3008 RMK A01,KSRB,2024-10-09T12:35:00Z,36.0529,-85.536,8.0,8.0,0,0.0,,10+,30.08,,,True,True,,,,,,,CLR,,,,,,,,VFR,,,,,,,,,,,,METAR,303.0
455,KSQL 091235Z AUTO 00000KT 10SM CLR 14/14 A2996 RMK AO2,KSQL,2024-10-09T12:35:00Z,37.5119,-122.248,14.0,14.0,0,0.0,,10+,29.96,,,True,True,,,,,,,CLR,,,,,,,,VFR,,,,,,,,,,,,METAR,1.0
456,KSPF 091235Z AUTO 00000KT 8SM CLR 11/M03 A3007 RMK AO2,KSPF,2024-10-09T12:35:00Z,44.4811,-103.788,11.0,-3.0,0,0.0,,8,30.07,,,True,True,,,,,,,CLR,,,,,,,,VFR,,,,,,,,,,,,METAR,1191.0
457,KSOW 091235Z AUTO 16004KT 10SM BKN120 14/M03 A3029 RMK AO2,KSOW,2024-10-09T12:35:00Z,34.2686,-110.002,14.0,-3.0,160,4.0,,10+,30.29,,,True,True,,,,,,,BKN,12000.0,,,,,,,VFR,,,,,,,,,,,,METAR,1954.0
458,KSOA 091235Z AUTO 00000KT 10SM CLR 12/09 A3013 RMK AO2,KSOA,2024-10-09T12:35:00Z,30.5853,-100.651,12.0,9.0,0,0.0,,10+,30.13,,,True,True,,,,,,,CLR,,,,,,,,VFR,,,,,,,,,,,,METAR,654.0
459,KSNL 091235Z AUTO 17004KT 10SM CLR 15/07 A3006 RMK AO2 T01480072,KSNL,2024-10-09T12:35:00Z,35.3611,-96.9445,14.8,7.2,170,4.0,,10+,30.06,,,True,True,,,,,,,CLR,,,,,,,,VFR,,,,,,,,,,,,METAR,327.0
460,KSNK 091235Z AUTO 23005KT 10SM CLR 15/11 A3009 RMK AO2 T01490109,KSNK,2024-10-09T12:35:00Z,32.6917,-100.951,14.9,10.9,230,5.0,,10+,30.09,,,True,True,,,,,,,CLR,,,,,,,,VFR,,,,,,,,,,,,METAR,738.0
461,KSNC 091235Z AUTO 00000KT 10SM CLR 13/07 A2992 RMK AO2,KSNC,2024-10-09T12:35:00Z,41.383,-72.506,13.0,7.0,0,0.0,,10+,29.92,,,True,True,,,,,,,CLR,,,,,,,,VFR,,,,,,,,,,,,METAR,114.0
462,KSMS 091235Z AUTO 00000KT 9SM CLR 14/13 A3004 RMK AO2,KSMS,2024-10-09T12:35:00Z,34.0003,-80.3582,14.0,13.0,0,0.0,,9,30.04,,,True,True,,,,,,,CLR,,,,,,,,VFR,,,,,,,,,,,,METAR,53.0
463,KSME 091235Z AUTO 00000KT 10SM CLR 08/08 A3009 RMK AO2,KSME,2024-10-09T12:35:00Z,37.0529,-84.6141,8.0,8.0,0,0.0,,10+,30.09,,,True,True,,,,,,,CLR,,,,,,,,VFR,,,,,,,,,,,,METAR,279.0
464,KSLR 091235Z AUTO 03003KT 10SM CLR 14/10 A3009 RMK AO2 T01350098,KSLR,2024-10-09T12:35:00Z,33.1615,-95.6189,13.5,9.8,30,3.0,,10+,30.09,,,True,True,,,,,,,CLR,,,,,,,,VFR,,,,,,,,,,,,METAR,144.0
465,KSLO 091235Z AUTO 00000KT 10SM CLR 08/07 A3012 RMK AO2 T00760071,KSLO,2024-10-09T12:35:00Z,38.6446,-88.9612,7.6,7.1,0,0.0,,10+,30.12,,,True,True,,,,,,,CLR,,,,,,,,VFR,,,,,,,,,,,,METAR,173.0
466,KSLB 091235Z AUTO 24008KT CLR 10/03 A3003 RMK AO2,KSLB,2024-10-09T12:35:00Z,42.5972,-95.2399,10.0,3.0,240,8.0,,,30.03,,,True,True,,,,,,,CLR,,,,,,,,,,,,,,,,,,,,METAR,450.0
467,KSJX 091235Z AUTO 33007KT 10SM CLR 10/05 A3007 RMK AO2 T00970046,KSJX,2024-10-09T12:35:00Z,45.6928,-85.5662,9.7,4.6,330,7.0,,10+,30.07,,,True,True,,,,,,,CLR,,,,,,,,VFR,,,,,,,,,,,,METAR,202.0
468,KSJS 091235Z AUTO 00000KT 10SM CLR 09/08 A3010 RMK AO2 T00900082,KSJS,2024-10-09T12:35:00Z,37.7489,-82.6413,9.0,8.2,0,0.0,,10+,30.1,,,True,True,,,,,,,CLR,,,,,,,,VFR,,,,,,,,,,,,METAR,359.0
469,KSIK 091235Z AUTO 00000KT 1SM BR CLR 08/07 A3010 RMK AO2 T00800068 $,KSIK,2024-10-09T12:35:00Z,36.9027,-89.5577,8.0,6.8,0,0.0,,1,30.1,,,True,True,True,,,,,BR,CLR,,,,,,,,IFR,,,,,,,,,,,,METAR,95.0
470,KSHL 091235Z AUTO 11003KT 10SM CLR 04/03 A3000 RMK AO2,KSHL,2024-10-09T12:35:00Z,43.2082,-95.8354,4.0,3.0,110,3.0,,10+,30.0,,,True,True,,,,,,,CLR,,,,,,,,VFR,,,,,,,,,,,,METAR,430.0
471,KSHD 091235Z AUTO 00000KT 10SM CLR 07/06 A3007 RMK AO2 T00700063,KSHD,2024-10-09T12:35:00Z,38.2601,-78.9013,7.0,6.3,0,0.0,,10+,30.07,,,True,True,,,,,,,CLR,,,,,,,,VFR,,,,,,,,,,,,METAR,360.0
472,KSGS 091235Z AUTO 00000KT 7SM CLR 08/03 A3005 RMK AO2 T00750030,KSGS,2024-10-09T12:35:00Z,44.8601,-93.0321,7.5,3.0,0,0.0,,7,30.05,,,True,True,,,,,,,CLR,,,,,,,,VFR,,,,,,,,,,,,METAR,250.0
473,KSFQ 091235Z AUTO 00000KT 10SM CLR A3004 RMK AO2,KSFQ,2024-10-09T12:35:00Z,36.6825,-76.6013,,,0,0.0,,10+,30.04,,,True,True,,,,,,,CLR,,,,,,,,VFR,,,,,,,,,,,,METAR,19.0
474,KSEZ 091235Z AUTO 03010KT 10SM CLR 20/M04 A3015 RMK AO2,KSEZ,2024-10-09T12:35:00Z,34.8467,-111.788,20.0,-4.0,30,10.0,,10+,30.15,,,True,True,,,,,,,CLR,,,,,,,,VFR,,,,,,,,,,,,METAR,1455.0
475,KSEP 091235Z AUTO 00000KT 10SM CLR 16/10 A3009 RMK AO2 T01570103,KSEP,2024-10-09T12:35:00Z,32.215,-98.1793,15.7,10.3,0,0.0,,10+,30.09,,,True,True,,,,,,,CLR,,,,,,,,VFR,,,,,,,,,,,,METAR,399.0
476,KSEF 091235Z AUTO 07009KT 10SM SCT040 SCT090 SCT120 25/25 A2975 RMK AO2 LTG DSNT NE T02490247,KSEF,2024-10-09T12:35:00Z,27.4553,-81.3415,24.9,24.7,70,9.0,,10+,29.75,,,True,True,,,,,,,SCT,4000.0,SCT,9000.0,SCT,12000.0,,,VFR,,,,,,,,,,,,METAR,17.0
477,KSEE 091235Z AUTO 00000KT 1 1/2SM BR OVC003 15/15 A2991 RMK AO2,KSEE,2024-10-09T12:35:00Z,32.8273,-116.974,15.0,15.0,0,0.0,,1.5,29.91,,,True,True,,,,,,BR,OVC,300.0,,,,,,,LIFR,,,,,,,,,,,,METAR,113.0
478,KSDC 091235Z AUTO 24007KT 10SM BKN070 08/05 A2993 RMK AO2,KSDC,2024-10-09T12:35:00Z,43.2355,-77.1201,8.0,5.0,240,7.0,,10+,29.93,,,True,True,,,,,,,BKN,7000.0,,,,,,,VFR,,,,,,,,,,,,METAR,127.0
479,KSDA 091235Z AUTO 00000KT 9SM CLR 06/05 A3006 RMK AO2,KSDA,2024-10-09T12:35:00Z,40.7533,-95.4112,6.0,5.0,0,0.0,,9,30.06,,,True,True,,,,,,,CLR,,,,,,,,VFR,,,,,,,,,,,,METAR,293.0
480,KSCX 091235Z AUTO 00000KT 10SM CLR 07/07 A3010 RMK A01,KSCX,2024-10-09T12:35:00Z,36.4553,-84.584,7.0,7.0,0,0.0,,10+,30.1,,,True,True,,,,,,,CLR,,,,,,,,VFR,,,,,,,,,,,,METAR,462.0
481,KSCD 091235Z AUTO 12003KT 10SM OVC095 15/13 A3000 RMK AO2 T01490134,KSCD,2024-10-09T12:35:00Z,33.1732,-86.2933,14.9,13.4,120,3.0,,10+,30.0,,,True,True,,,,,,,OVC,9500.0,,,,,,,VFR,,,,,,,,,,,,METAR,164.0
482,KSBX 091235Z AUTO 15005KT 10SM OVC100 12/02 A2997 RMK AO2,KSBX,2024-10-09T12:35:00Z,48.541,-111.871,12.0,2.0,150,5.0,,10+,29.97,,,True,True,,,,,,,OVC,10000.0,,,,,,,VFR,,,,,,,,,,,,METAR,1049.0
483,KSBS 091235Z AUTO 00000KT 10SM CLR 02/M05 A3033 RMK AO1 T00181048,KSBS,2024-10-09T12:35:00Z,40.5153,-106.868,1.8,-4.8,0,0.0,,10+,30.33,,,True,True,,,,,,,CLR,,,,,,,,VFR,,,,,,,,,,,,METAR,2097.0
484,KSBO 091235Z AUTO 07004KT 5SM BR CLR 16/13 A3000 RMK AO2,KSBO,2024-10-09T12:35:00Z,32.6111,-82.3702,16.0,13.0,70,4.0,,5,30.0,,,True,True,,,,,,BR,CLR,,,,,,,,MVFR,,,,,,,,,,,,METAR,98.0
485,KSAZ 091235Z AUTO 00000KT 10SM CLR 04/02 A3005 RMK AO2,KSAZ,2024-10-09T12:35:00Z,46.3785,-94.8017,4.0,2.0,0,0.0,,10+,30.05,,,True,True,,,,,,,CLR,,,,,,,,VFR,,,,,,,,,,,,METAR,391.0
486,KSAR 091235Z AUTO 00000KT 10SM CLR 10/09 A3012 RMK AO2 T01010085,KSAR,2024-10-09T12:35:00Z,38.1463,-89.7025,10.1,8.5,0,0.0,,10+,30.12,,,True,True,,,,,,,CLR,,,,,,,,VFR,,,,,,,,,,,,METAR,162.0
487,KSAN 091235Z 19003KT 5SM BR OVC005 17/16 A2993 RMK AO2 T01720156,KSAN,2024-10-09T12:35:00Z,32.7365,-117.197,17.2,15.6,190,3.0,,5,29.93,,,,True,,,,,,BR,OVC,500.0,,,,,,,IFR,,,,,,,,,,,,SPECI,3.0
488,KSAA 091235Z AUTO 16010KT 10SM CLR 05/M08 A3031 RMK AO2,KSAA,2024-10-09T12:35:00Z,41.447,-106.815,5.0,-8.0,160,10.0,,10+,30.31,,,True,True,,,,,,,CLR,,,,,,,,VFR,,,,,,,,,,,,METAR,2093.0
489,KS52 091235Z AUTO 00000KT 10SM CLR 09/06 A2990 RMK AO2 T00920063,KS52,2024-10-09T12:35:00Z,48.4282,-120.15,9.2,6.3,0,0.0,,10+,29.9,,,True,True,,,,,,,CLR,,,,,,,,VFR,,,,,,,,,,,,METAR,517.0
490,KS39 091235Z AUTO 00000KT 10SM BKN022 OVC027 03/01 A3005 RMK AO2,KS39,2024-10-09T12:35:00Z,44.2858,-120.901,3.0,1.0,0,0.0,,10+,30.05,,,True,True,,,,,,,BKN,2200.0,OVC,2700.0,,,,,MVFR,,,,,,,,,,,,METAR,987.0
491,KS34 091235Z AUTO 00000KT 10SM CLR 04/04 A2999 RMK AO2,KS34,2024-10-09T12:35:00Z,47.4718,-114.901,4.0,4.0,0,0.0,,10+,29.99,,,True,True,,,,,,,CLR,,,,,,,,VFR,,,,,,,,,,,,METAR,750.0
492,KS33 091235Z AUTO 16004KT 10SM CLR 06/04 A3005 RMK AO2,KS33,2024-10-09T12:35:00Z,44.6653,-121.157,6.0,4.0,160,4.0,,10+,30.05,,,True,True,,,,,,,CLR,,,,,,,,VFR,,,,,,,,,,,,METAR,739.0
493,KS32 091235Z AUTO 16008KT 10SM CLR 09/05 A2992 RMK AO2 TSNO,KS32,2024-10-09T12:35:00Z,47.424,-98.11,9.0,5.0,160,8.0,,10+,29.92,,,True,True,,,True,,,,CLR,,,,,,,,VFR,,,,,,,,,,,,METAR,435.0
494,KS25 091235Z AUTO 00000KT 10SM 07/M00 A2993 RMK AO2,KS25,2024-10-09T12:35:00Z,47.7954,-103.257,7.0,0.0,0,0.0,,10+,29.93,,,True,True,,,,,,,,,,,,,,,VFR,,,,,,,,,,,,METAR,632.0
495,KS24 091235Z AUTO 22004KT 10SM CLR 06/05 A3009 RMK AO2,KS24,2024-10-09T12:35:00Z,41.296,-83.037,6.0,5.0,220,4.0,,10+,30.09,,,True,True,,,,,,,CLR,,,,,,,,VFR,,,,,,,,,,,,METAR,203.0
496,KS21 091235Z AUTO 20003KT 10SM BKN020 01/00 A3013 RMK AO2,KS21,2024-10-09T12:35:00Z,43.8801,-121.454,1.0,0.0,200,3.0,,10+,30.13,,,True,True,,,,,,,BKN,2000.0,,,,,,,MVFR,,,,,,,,,,,,METAR,1269.0
497,KRZT 091235Z AUTO 00000KT 10SM CLR 06/06 A3011 RMK AO2 PWINO,KRZT,2024-10-09T12:35:00Z,39.4402,-83.0209,6.0,6.0,0,0.0,,10+,30.11,,,True,True,,,,,True,,CLR,,,,,,,,VFR,,,,,,,,,,,,METAR,217.0
498,KRZR 091235Z AUTO 00000KT 09/09 A3004 RMK A01,KRZR,2024-10-09T12:35:00Z,35.207,-84.8005,9.0,9.0,0,0.0,,,30.04,,,True,True,,,,,,,,,,,,,,,,,,,,,,,,,,,METAR,259.0
499,KRZN 091235Z AUTO 00000KT 10SM CLR 00/M02 A3010 RMK AO2 T10051016,KRZN,2024-10-09T12:35:00Z,45.8229,-92.3706,-0.5,-1.6,0,0.0,,10+,30.1,,,True,True,,,,,,,CLR,,,,,,,,VFR,,,,,,,,,,,,METAR,301.0
500,KRZL 091235Z AUTO 00000KT 10SM CLR 06/05 A3010 RMK AO2,KRZL,2024-10-09T12:35:00Z,40.9488,-87.1851,6.0,5.0,0,0.0,,10+,30.1,,,True,True,,,,,,,CLR,,,,,,,,VFR,,,,,,,,,,,,METAR,210.0
501,KRYW 091235Z AUTO 09003KT 10SM CLR 17/07 A3009 RMK AO2 T01670073,KRYW,2024-10-09T12:35:00Z,30.498,-97.969,16.7,7.3,90,3.0,,10+,30.09,,,True,True,,,,,,,CLR,,,,,,,,VFR,,,,,,,,,,,,METAR,370.0
502,KRYV 091235Z AUTO 00000KT 10SM CLR 04/04 A3010 RMK AO2 T00420039,KRYV,2024-10-09T12:35:00Z,43.1702,-88.7251,4.2,3.9,0,0.0,,10+,30.1,,,True,True,,,,,,,CLR,,,,,,,,VFR,,,,,,,,,,,,METAR,249.0
503,KRWV 091235Z AUTO 35003KT 10SM CLR 14/09 A3005 RMK AO2 T01410086,KRWV,2024-10-09T12:35:00Z,30.5161,-96.7051,14.1,8.6,350,3.0,,10+,30.05,,,True,True,,,,,,,CLR,,,,,,,,VFR,,,,,,,,,,,,METAR,116.0
504,KRVL 091235Z AUTO 00000KT 9SM CLR 08/07 A2997 RMK AO2,KRVL,2024-10-09T12:35:00Z,40.6768,-77.6251,8.0,7.0,0,0.0,,9,29.97,,,True,True,,,,,,,CLR,,,,,,,,VFR,,,,,,,,,,,,METAR,250.0
505,KRVJ 091235Z AUTO 05006KT 10SM CLR 18/15 A2997 RMK AO2 T01800150,KRVJ,2024-10-09T12:35:00Z,32.059,-82.153,18.0,15.0,50,6.0,,10+,29.97,,,True,True,,,,,,,CLR,,,,,,,,VFR,,,,,,,,,,,,METAR,60.0
506,KRVF 091235Z AUTO 19005KT 8SM BKN030 BKN038 03/M01 A3013 RMK AO2,KRVF,2024-10-09T12:35:00Z,45.534,-112.303,3.0,-1.0,190,5.0,,8,30.13,,,True,True,,,,,,,BKN,3000.0,BKN,3800.0,,,,,MVFR,,,,,,,,,,,,METAR,1445.0
507,KRTS 091235Z AUTO 32004KT 10SM CLR 07/M04 A3015 RMK AO2,KRTS,2024-10-09T12:35:00Z,39.6658,-119.873,7.0,-4.0,320,4.0,,10+,30.15,,,True,True,,,,,,,CLR,,,,,,,,VFR,,,,,,,,,,,,METAR,1537.0
508,KRSN 091235Z AUTO 00000KT 10SM CLR 10/09 A3000 RMK AO2 T01010093 $,KRSN,2024-10-09T12:35:00Z,32.5159,-92.5899,10.1,9.3,0,0.0,,10+,30.0,,,True,True,True,,,,,,CLR,,,,,,,,VFR,,,,,,,,,,,,METAR,86.0
509,KRRT 091235Z AUTO 13007KT 10SM CLR 06/01 A3003 RMK AO2,KRRT,2024-10-09T12:35:00Z,48.9318,-95.3405,6.0,1.0,130,7.0,,10+,30.03,,,True,True,,,,,,,CLR,,,,,,,,VFR,,,,,,,,,,,,METAR,327.0
510,KRRL 091235Z AUTO 00000KT 10SM CLR M02/M02 A3013 RMK AO2 T10161016 TSNO,KRRL,2024-10-09T12:35:00Z,45.1985,-89.71,-1.6,-1.6,0,0.0,,10+,30.13,,,True,True,,,True,,,,CLR,,,,,,,,VFR,,,,,,,,,,,,METAR,397.0
511,KRQB 091235Z AUTO 00000KT 10SM CLR 01/01 A3009 RMK AO2 T00050005,KRQB,2024-10-09T12:35:00Z,43.722,-85.498,0.5,0.5,0,0.0,,10+,30.09,,,True,True,,,,,,,CLR,,,,,,,,VFR,,,,,,,,,,,,METAR,282.0
512,KRPJ 091235Z AUTO 00000KT 10SM CLR 05/03 A3008 RMK AO2 T00450030,KRPJ,2024-10-09T12:35:00Z,41.8906,-89.0817,4.5,3.0,0,0.0,,10+,30.08,,,True,True,,,,,,,CLR,,,,,,,,VFR,,,,,,,,,,,,METAR,234.0
513,KRPH 091235Z AUTO 00000KT 9SM CLR 16/11 A3004 RMK AO2 T01620110 $,KRPH,2024-10-09T12:35:00Z,33.1096,-98.5537,16.2,11.0,0,0.0,,9,30.04,,,True,True,True,,,,,,CLR,,,,,,,,VFR,,,,,,,,,,,,METAR,341.0
514,KRPD 091235Z AUTO 00000KT 10SM CLR 01/00 A3011 RMK AO2 T00080000,KRPD,2024-10-09T12:35:00Z,45.4186,-91.7764,0.8,0.0,0,0.0,,10+,30.11,,,True,True,,,,,,,CLR,,,,,,,,VFR,,,,,,,,,,,,METAR,334.0
515,KROX 091235Z AUTO 13004KT 10SM CLR 06/01 A3001 RMK AO2,KROX,2024-10-09T12:35:00Z,48.856,-95.6949,6.0,1.0,130,4.0,,10+,30.01,,,True,True,,,,,,,CLR,,,,,,,,VFR,,,,,,,,,,,,METAR,320.0
516,KROS 091235Z AUTO 00000KT 10SM CLR 03/02 A3008 RMK AO2,KROS,2024-10-09T12:35:00Z,45.6962,-92.9543,3.0,2.0,0,0.0,,10+,30.08,,,True,True,,,,,,,CLR,,,,,,,,VFR,,,,,,,,,,,,METAR,282.0
517,KRNV 091235Z AUTO 36005KT 9SM CLR 11/09 A3002 RMK AO2 T01110093 $,KRNV,2024-10-09T12:35:00Z,33.762,-90.759,11.1,9.3,360,5.0,,9,30.02,,,True,True,True,,,,,,CLR,,,,,,,,VFR,,,,,,,,,,,,METAR,42.0
518,KRNP 091235Z AUTO 00000KT 10SM BKN043 05/03 A3009 RMK AO2 T00480031,KRNP,2024-10-09T12:35:00Z,42.9937,-84.1347,4.8,3.1,0,0.0,,10+,30.09,,,True,True,,,,,,,BKN,4300.0,,,,,,,VFR,,,,,,,,,,,,METAR,224.0
519,KRNH 091235Z AUTO 00000KT 10SM CLR 05/02 A3008 RMK AO2 T00480020,KRNH,2024-10-09T12:35:00Z,45.1476,-92.5335,4.8,2.0,0,0.0,,10+,30.08,,,True,True,,,,,,,CLR,,,,,,,,VFR,,,,,,,,,,,,METAR,302.0
520,KRNC 091235Z AUTO 00000KT 10SM 09/09 A3008 RMK A01,KRNC,2024-10-09T12:35:00Z,35.6991,-85.8402,9.0,9.0,0,0.0,,10+,30.08,,,True,True,,,,,,,,,,,,,,,VFR,,,,,,,,,,,,METAR,310.0
521,KRMY 091235Z AUTO 00000KT 10SM CLR 02/02 A3010 RMK AO2 T00210015,KRMY,2024-10-09T12:35:00Z,42.2524,-84.9526,2.1,1.5,0,0.0,,10+,30.1,,,True,True,,,,,,,CLR,,,,,,,,VFR,,,,,,,,,,,,METAR,285.0
522,KRMN 091235Z AUTO 00000KT 10SM CLR 10/08 A3002 RMK AO2 T00970080,KRMN,2024-10-09T12:35:00Z,38.3941,-77.4523,9.7,8.0,0,0.0,,10+,30.02,,,True,True,,,,,,,CLR,,,,,,,,VFR,,,,,,,,,,,,METAR,50.0
523,KRLD 091235Z AUTO 00000KT 10SM CLR 16/13 A2994 RMK AO2 T01600125,KRLD,2024-10-09T12:35:00Z,46.3086,-119.306,16.0,12.5,0,0.0,,10+,29.94,,,True,True,,,,,,,CLR,,,,,,,,VFR,,,,,,,,,,,,METAR,118.0
524,KRKW 091235Z AUTO 00000KT 10SM CLR 10/07 A3008 RMK A01,KRKW,2024-10-09T12:35:00Z,35.922,-84.689,10.0,7.0,0,0.0,,10+,30.08,,,True,True,,,,,,,CLR,,,,,,,,VFR,,,,,,,,,,,,METAR,505.0
525,KRKR 091235Z AUTO 00000KT 10SM CLR 09/08 A3009 RMK AO2,KRKR,2024-10-09T12:35:00Z,35.0187,-94.6202,9.0,8.0,0,0.0,,10+,30.09,,,True,True,,,,,,,CLR,,,,,,,,VFR,,,,,,,,,,,,METAR,136.0
526,KRID 091235Z AUTO 00000KT 10SM CLR 04/03 A3009 RMK AO2,KRID,2024-10-09T12:35:00Z,39.7579,-84.8359,4.0,3.0,0,0.0,,10+,30.09,,,True,True,,,,,,,CLR,,,,,,,,VFR,,,,,,,,,,,,METAR,346.0
527,KRGK 091235Z AUTO 08004KT 10SM CLR 09/03 A3005 RMK AO2,KRGK,2024-10-09T12:35:00Z,44.5927,-92.4844,9.0,3.0,80,4.0,,10+,30.05,,,True,True,,,,,,,CLR,,,,,,,,VFR,,,,,,,,,,,,METAR,238.0
528,KRGA 091235Z AUTO 00000KT 10SM CLR 06/06 A3012 RMK AO2,KRGA,2024-10-09T12:35:00Z,37.6305,-84.329,6.0,6.0,0,0.0,,10+,30.12,,,True,True,,,,,,,CLR,,,,,,,,VFR,,,,,,,,,,,,METAR,301.0
529,KRFI 091235Z AUTO 00000KT 10SM CLR 11/08 A3006 RMK AO2 T01130075 PWINO,KRFI,2024-10-09T12:35:00Z,32.1441,-94.8539,11.3,7.5,0,0.0,,10+,30.06,,,True,True,,,,,True,,CLR,,,,,,,,VFR,,,,,,,,,,,,METAR,133.0
530,KREG 091235Z AUTO 32004KT 10SM CLR 16/12 A2993 RMK AO2 T01570119,KREG,2024-10-09T12:35:00Z,30.1756,-90.9397,15.7,11.9,320,4.0,,10+,29.93,,,True,True,,,,,,,CLR,,,,,,,,VFR,,,,,,,,,,,,METAR,3.0
531,KRDK 091235Z AUTO 00000KT 10SM CLR 05/05 A3007 RMK AO2,KRDK,2024-10-09T12:35:00Z,41.0107,-95.2622,5.0,5.0,0,0.0,,10+,30.07,,,True,True,,,,,,,CLR,,,,,,,,VFR,,,,,,,,,,,,METAR,317.0
532,KRCX 091235Z AUTO 00000KT 10SM CLR 01/00 A3013 RMK AO2 T00080001,KRCX,2024-10-09T12:35:00Z,45.4935,-90.9985,0.8,0.1,0,0.0,,10+,30.13,,,True,True,,,,,,,CLR,,,,,,,,VFR,,,,,,,,,,,,METAR,373.0
533,KRCV 091235Z AUTO 27015KT 10SM CLR 07/M04 A3040 RMK AO2 T00661037,KRCV,2024-10-09T12:35:00Z,37.7092,-106.355,6.6,-3.7,270,15.0,,10+,30.4,,,True,True,,,,,,,CLR,,,,,,,,VFR,,,,,,,,,,,,METAR,2418.0
534,KRCR 091235Z AUTO 00000KT 10SM CLR 05/05 A3010 RMK AO2,KRCR,2024-10-09T12:35:00Z,41.0651,-86.1864,5.0,5.0,0,0.0,,10+,30.1,,,True,True,,,,,,,CLR,,,,,,,,VFR,,,,,,,,,,,,METAR,240.0
535,KRCM 091235Z AUTO 00000KT 10SM CLR 05/04 A3010 RMK AO2,KRCM,2024-10-09T12:35:00Z,38.7855,-93.8058,5.0,4.0,0,0.0,,10+,30.1,,,True,True,,,,,,,CLR,,,,,,,,VFR,,,,,,,,,,,,METAR,242.0
536,KRCE 091235Z AUTO 16015KT 10SM CLR 18/09 A3000 RMK AO2,KRCE,2024-10-09T12:35:00Z,35.4971,-97.8255,18.0,9.0,160,15.0,,10+,30.0,,,True,True,,,,,,,CLR,,,,,,,,VFR,,,,,,,,,,,,METAR,412.0
537,KRBW 091235Z AUTO 05005KT 10SM CLR 15/13 A3001 RMK AO2,KRBW,2024-10-09T12:35:00Z,32.921,-80.64,15.0,13.0,50,5.0,,10+,30.01,,,True,True,,,,,,,CLR,,,,,,,,VFR,,,,,,,,,,,,METAR,30.0
538,KRBO 091235Z AUTO 02003KT 10SM CLR 19/19 A2999 RMK AO2 T01900185,KRBO,2024-10-09T12:35:00Z,27.7781,-97.6878,19.0,18.5,20,3.0,,10+,29.99,,,True,True,,,,,,,CLR,,,,,,,,VFR,,,,,,,,,,,,METAR,24.0
539,KRAW 091235Z AUTO 00000KT 10SM CLR 07/06 A3012 RMK AO2,KRAW,2024-10-09T12:35:00Z,38.3484,-93.3436,7.0,6.0,0,0.0,,10+,30.12,,,True,True,,,,,,,CLR,,,,,,,,VFR,,,,,,,,,,,,METAR,285.0
540,KRAS 091235Z AUTO 02009KT 10SM CLR 23/16 A3000 RMK AO2 T02340157,KRAS,2024-10-09T12:35:00Z,27.8083,-97.0853,23.4,15.7,20,9.0,,10+,30.0,,,True,True,,,,,,,CLR,,,,,,,,VFR,,,,,,,,,,,,METAR,3.0
541,KPZZ 091235Z AUTO 02019KT 10SM CLR 28/21 A2987 RMK A01,KPZZ,2024-10-09T12:35:00Z,28.4344,-91.0344,28.0,21.0,20,19.0,,10+,29.87,,,True,True,,,,,,,CLR,,,,,,,,VFR,,,,,,,,,,,,METAR,25.0
542,KPZQ 091235Z AUTO 28007KT 10SM BKN027 BKN036 OVC046 07/04 A3002 RMK AO2 T00710035,KPZQ,2024-10-09T12:35:00Z,45.4085,-83.812,7.1,3.5,280,7.0,,10+,30.02,,,True,True,,,,,,,BKN,2700.0,BKN,3600.0,OVC,4600.0,,,MVFR,,,,,,,,,,,,METAR,199.0
543,KPYX 091235Z AUTO 31006KT 10SM A3002 RMK AO2,KPYX,2024-10-09T12:35:00Z,36.4103,-100.751,,,310,6.0,,10+,30.02,,,True,True,,,,,,,,,,,,,,,VFR,,,,,,,,,,,,METAR,890.0
544,KPXE 091235Z AUTO 04005KT 10SM CLR 17/16 A2999 RMK AO2 T01700156,KPXE,2024-10-09T12:35:00Z,32.5072,-83.7656,17.0,15.6,40,5.0,,10+,29.99,,,True,True,,,,,,,CLR,,,,,,,,VFR,,,,,,,,,,,,METAR,126.0
545,KPWD 091235Z AUTO 00000KT 10SM FEW038 FEW060 07/M00 A2990 RMK AO2,KPWD,2024-10-09T12:35:00Z,48.7912,-104.525,7.0,0.0,0,0.0,,10+,29.9,,,True,True,,,,,,,FEW,3800.0,FEW,6000.0,,,,,VFR,,,,,,,,,,,,METAR,690.0
546,KPVW 091235Z AUTO 27005KT 10SM CLR 10/05 A3010 RMK AO2 T01020052,KPVW,2024-10-09T12:35:00Z,34.169,-101.723,10.2,5.2,270,5.0,,10+,30.1,,,True,True,,,,,,,CLR,,,,,,,,VFR,,,,,,,,,,,,METAR,1029.0
547,KPVJ 091235Z AUTO 00000KT 10SM CLR 15/10 A3007 RMK AO2 LTG DSNT W T01530100,KPVJ,2024-10-09T12:35:00Z,34.7041,-97.2211,15.3,10.0,0,0.0,,10+,30.07,,,True,True,,,,,,,CLR,,,,,,,,VFR,,,,,,,,,,,,METAR,287.0
548,KPVF 091235Z AUTO 10006KT 10SM CLR 22/00 A3001 RMK AO1,KPVF,2024-10-09T12:35:00Z,38.7222,-120.757,22.0,0.0,100,6.0,,10+,30.01,,,True,True,,,,,,,CLR,,,,,,,,VFR,,,,,,,,,,,,METAR,788.0
549,KPVE 091235Z AUTO 00000KT 10SM CLR 08/07 A3007 RMK A01,KPVE,2024-10-09T12:35:00Z,35.6592,-88.1929,8.0,7.0,0,0.0,,10+,30.07,,,True,True,,,,,,,CLR,,,,,,,,VFR,,,,,,,,,,,,METAR,146.0
550,KPVB 091235Z AUTO 09003KT 10SM CLR 08/04 A3006 RMK AO1 T00810043,KPVB,2024-10-09T12:35:00Z,42.6909,-90.4413,8.1,4.3,90,3.0,,10+,30.06,,,True,True,,,,,,,CLR,,,,,,,,VFR,,,,,,,,,,,,METAR,311.0
551,KPUJ 091235Z AUTO 03005KT 5SM CLR 15/15 A3003 RMK AO2,KPUJ,2024-10-09T12:35:00Z,33.9085,-84.9369,15.0,15.0,30,5.0,,5,30.03,,,True,True,,,,,,,CLR,,,,,,,,MVFR,,,,,,,,,,,,METAR,385.0
552,KPTT 091235Z AUTO 13005KT 10SM CLR 13/05 A3004 RMK AO2 T01260049,KPTT,2024-10-09T12:35:00Z,37.7069,-98.7453,12.6,4.9,130,5.0,,10+,30.04,,,True,True,,,,,,,CLR,,,,,,,,VFR,,,,,,,,,,,,METAR,594.0
553,KPTS 091235Z AUTO 00000KT 10SM CLR 08/03 A3008 RMK AO2 T00750034 PWINO,KPTS,2024-10-09T12:35:00Z,37.4512,-94.7322,7.5,3.4,0,0.0,,10+,30.08,,,True,True,,,,,True,,CLR,,,,,,,,VFR,,,,,,,,,,,,METAR,286.0
554,KPTD 091235Z AUTO 21006KT 10SM FEW065 OVC075 06/05 A2988 RMK AO2,KPTD,2024-10-09T12:35:00Z,44.6757,-74.9469,6.0,5.0,210,6.0,,10+,29.88,,,True,True,,,,,,,FEW,6500.0,OVC,7500.0,,,,,VFR,,,,,,,,,,,,METAR,144.0
555,KPTB 091235Z AUTO 00000KT 10SM CLR 10/09 A3005 RMK AO2 T00970091,KPTB,2024-10-09T12:35:00Z,37.1803,-77.5081,9.7,9.1,0,0.0,,10+,30.05,,,True,True,,,,,,,CLR,,,,,,,,VFR,,,,,,,,,,,,METAR,56.0
556,KPSO 091235Z AUTO 04003KT 10SM CLR 05/M03 A3038 RMK AO2 T00511030,KPSO,2024-10-09T12:35:00Z,37.291,-107.056,5.1,-3.0,40,3.0,,10+,30.38,,,True,True,,,,,,,CLR,,,,,,,,VFR,,,,,,,,,,,,METAR,2332.0
557,KPSN 091235Z AUTO 00000KT 10SM CLR 12/09 A3002 RMK AO2,KPSN,2024-10-09T12:35:00Z,31.7784,-95.7048,12.0,9.0,0,0.0,,10+,30.02,,,True,True,,,,,,,CLR,,,,,,,,VFR,,,,,,,,,,,,METAR,124.0
558,KPRS 091235Z AUTO 36009KT 10SM CLR 20/07 A3013 RMK AO2 T02010071,KPRS,2024-10-09T12:35:00Z,29.6346,-104.358,20.1,7.1,360,9.0,,10+,30.13,,,True,True,,,,,,,CLR,,,,,,,,VFR,,,,,,,,,,,,METAR,890.0
559,KPRG 091235Z 00000KT 10SM CLR 06/04 RMK AO2 T00630036,KPRG,2024-10-09T12:35:00Z,39.6982,-87.6669,6.3,3.6,0,0.0,,10+,0.0,,,,True,,,,,,,CLR,,,,,,,,VFR,,,,,,,,,,,,METAR,197.0
560,KPPQ 091235Z AUTO 00000KT 10SM CLR 07/06 A3011 RMK AO2 T00700061,KPPQ,2024-10-09T12:35:00Z,39.6391,-90.7818,7.0,6.1,0,0.0,,10+,30.11,,,True,True,,,,,,,CLR,,,,,,,,VFR,,,,,,,,,,,,METAR,215.0
561,KPPO 091235Z AUTO 04001KT 10SM CLR 06/06 A3010 RMK AO2,KPPO,2024-10-09T12:35:00Z,41.5705,-86.7333,6.0,6.0,40,1.0,,10+,30.1,,,True,True,,,,,,,CLR,,,,,,,,VFR,,,,,,,,,,,,METAR,242.0
562,KPPA 091235Z AUTO 25007KT 10SM CLR 15/06 A3007 RMK AO2 T01500056,KPPA,2024-10-09T12:35:00Z,35.6139,-100.997,15.0,5.6,250,7.0,,10+,30.07,,,True,True,,,,,,,CLR,,,,,,,,VFR,,,,,,,,,,,,METAR,989.0
563,KPOY 091235Z AUTO 12008KT 10SM CLR 11/M08 A3010 RMK AO2,KPOY,2024-10-09T12:35:00Z,44.8641,-108.79,11.0,-8.0,120,8.0,,10+,30.1,,,True,True,,,,,,,CLR,,,,,,,,VFR,,,,,,,,,,,,METAR,1547.0
564,KPOV 091235Z AUTO 00000KT 5SM SCT026 SCT036 07/05 A3005 RMK AO2 T00700052 PWINO,KPOV,2024-10-09T12:35:00Z,41.209,-81.2479,7.0,5.2,0,0.0,,5,30.05,,,True,True,,,,,True,,SCT,2600.0,SCT,3600.0,,,,,MVFR,,,,,,,,,,,,METAR,363.0
565,KPO1 091235Z AUTO 36005KT 10SM CLR 02/M00 A2992 RMK AO2,KPO1,2024-10-09T12:35:00Z,48.134,-105.162,2.0,0.0,360,5.0,,10+,29.92,,,True,True,,,,,,,CLR,,,,,,,,VFR,,,,,,,,,,,,METAR,621.0
566,KPNT 091235Z AUTO 00000KT 10SM CLR 05/04 A3010 RMK AO2 T00510043,KPNT,2024-10-09T12:35:00Z,40.9233,-88.6213,5.1,4.3,0,0.0,,10+,30.1,,,True,True,,,,,,,CLR,,,,,,,,VFR,,,,,,,,,,,,METAR,199.0
567,KPNM 091235Z AUTO 00000KT 10SM CLR 03/03 A3008 RMK AO2,KPNM,2024-10-09T12:35:00Z,45.556,-93.608,3.0,3.0,0,0.0,,10+,30.08,,,True,True,,,,,,,CLR,,,,,,,,VFR,,,,,,,,,,,,METAR,298.0
568,KPNA 091235Z AUTO 29004KT 10SM CLR 00/M05 A3031 RMK AO2,KPNA,2024-10-09T12:35:00Z,42.7929,-109.805,0.0,-5.0,290,4.0,,10+,30.31,,,True,True,,,,,,,CLR,,,,,,,,VFR,,,,,,,,,,,,METAR,2158.0
569,KPMV 091235Z AUTO 15003KT 10SM CLR 09/03 A3006 RMK AO2 T00930032,KPMV,2024-10-09T12:35:00Z,40.9446,-95.9124,9.3,3.2,150,3.0,,10+,30.06,,,True,True,,,,,,,CLR,,,,,,,,VFR,,,,,,,,,,,,METAR,365.0
570,KPMU 091235Z AUTO 00000KT 10SM CLR 09/08 A3004 RMK AO2,KPMU,2024-10-09T12:35:00Z,34.3656,-89.8904,9.0,8.0,0,0.0,,10+,30.04,,,True,True,,,,,,,CLR,,,,,,,,VFR,,,,,,,,,,,,METAR,67.0
571,KPLU 091235Z AUTO 00000KT 10SM FEW010 OVC026 13/13 A3003 RMK AO2,KPLU,2024-10-09T12:35:00Z,47.1005,-122.285,13.0,13.0,0,0.0,,10+,30.03,,,True,True,,,,,,,FEW,1000.0,OVC,2600.0,,,,,MVFR,,,,,,,,,,,,METAR,164.0
572,KPLR 091235Z AUTO 36004KT 10SM CLR 14/14 A3002 RMK A01,KPLR,2024-10-09T12:35:00Z,33.5608,-86.2463,14.0,14.0,360,4.0,,10+,30.02,,,True,True,,,,,,,CLR,,,,,,,,VFR,,,,,,,,,,,,METAR,145.0
573,KPLD 091235Z AUTO 00000KT 10SM CLR 06/06 A3010 RMK AO2,KPLD,2024-10-09T12:35:00Z,40.4532,-84.9848,6.0,6.0,0,0.0,,10+,30.1,,,True,True,,,,,,,CLR,,,,,,,,VFR,,,,,,,,,,,,METAR,282.0
574,KPKV 091235Z AUTO 36006KT 10SM CLR 15/12 A3000 RMK AO2 T01470122,KPKV,2024-10-09T12:35:00Z,28.6499,-96.6799,14.7,12.2,360,6.0,,10+,30.0,,,True,True,,,,,,,CLR,,,,,,,,VFR,,,,,,,,,,,,METAR,8.0
575,KPJC 091235Z AUTO 00000KT 10SM CLR 03/03 A3003 RMK AO2,KPJC,2024-10-09T12:35:00Z,40.8009,-80.1624,3.0,3.0,0,0.0,,10+,30.03,,,True,True,,,,,,,CLR,,,,,,,,VFR,,,,,,,,,,,,METAR,273.0
576,KPIM 091235Z AUTO 04005KT 10SM CLR 17/17 A3000 RMK AO2,KPIM,2024-10-09T12:35:00Z,32.8421,-84.8766,17.0,17.0,40,5.0,,10+,30.0,,,True,True,,,,,,,CLR,,,,,,,,VFR,,,,,,,,,,,,METAR,274.0
577,KPHT 091235Z AUTO 00000KT 10SM CLR 09/08 A3008 RMK A01,KPHT,2024-10-09T12:35:00Z,36.3322,-88.3871,9.0,8.0,0,0.0,,10+,30.08,,,True,True,,,,,,,CLR,,,,,,,,VFR,,,,,,,,,,,,METAR,172.0
578,KPHN 091235Z AUTO 00000KT 10SM CLR 04/03 A3006 RMK AO2,KPHN,2024-10-09T12:35:00Z,42.9103,-82.5332,4.0,3.0,0,0.0,,10+,30.06,,,True,True,,,,,,,CLR,,,,,,,,VFR,,,,,,,,,,,,METAR,195.0
579,KPEZ 091235Z AUTO 29005KT 10SM CLR 16/09 A3005 RMK AO2 T01600090,KPEZ,2024-10-09T12:35:00Z,28.9561,-98.5184,16.0,9.0,290,5.0,,10+,30.05,,,True,True,,,,,,,CLR,,,,,,,,VFR,,,,,,,,,,,,METAR,126.0
580,KPEX 091235Z AUTO 00000KT 10SM CLR 04/03 A3005 RMK AO2,KPEX,2024-10-09T12:35:00Z,45.3725,-94.7388,4.0,3.0,0,0.0,,10+,30.05,,,True,True,,,,,,,CLR,,,,,,,,VFR,,,,,,,,,,,,METAR,359.0
581,KPEQ 091235Z AUTO 00000KT 10SM CLR 13/03 A3010 RMK AO2 T01310027,KPEQ,2024-10-09T12:35:00Z,31.382,-103.512,13.1,2.7,0,0.0,,10+,30.1,,,True,True,,,,,,,CLR,,,,,,,,VFR,,,,,,,,,,,,METAR,794.0
582,KPEA 091235Z AUTO 19004KT 10SM CLR 10/04 A3007 RMK AO2 T01010040,KPEA,2024-10-09T12:35:00Z,41.3989,-92.9431,10.1,4.0,190,4.0,,10+,30.07,,,True,True,,,,,,,CLR,,,,,,,,VFR,,,,,,,,,,,,METAR,264.0
583,KPDC 091235Z AUTO 00000KT 10SM CLR 06/06 A3005 RMK AO2 T00620055,KPDC,2024-10-09T12:35:00Z,43.0194,-91.1212,6.2,5.5,0,0.0,,10+,30.05,,,True,True,,,,,,,CLR,,,,,,,,VFR,,,,,,,,,,,,METAR,201.0
584,KPCZ 091235Z AUTO 00000KT 10SM CLR 03/02 A3013 RMK AO2 T00250017,KPCZ,2024-10-09T12:35:00Z,44.3342,-89.0203,2.5,1.7,0,0.0,,10+,30.13,,,True,True,,,,,,,CLR,,,,,,,,VFR,,,,,,,,,,,,METAR,248.0
585,KPCW 091235Z AUTO 36006KT 10SM CLR 13/02 A3007 RMK AO2,KPCW,2024-10-09T12:35:00Z,41.5188,-82.8692,13.0,2.0,360,6.0,,10+,30.07,,,True,True,,,,,,,CLR,,,,,,,,VFR,,,,,,,,,,,,METAR,179.0
586,KPCD 091235Z AUTO 24003KT 10SM CLR 06/05 A3012 RMK AO2 T00550051 TSNO,KPCD,2024-10-09T12:35:00Z,37.8749,-89.8582,5.5,5.1,240,3.0,,10+,30.12,,,True,True,,,True,,,,CLR,,,,,,,,VFR,,,,,,,,,,,,METAR,112.0
587,KPBX 091235Z AUTO 00000KT 10SM CLR 08/08 A3010 RMK AO2 T00800080,KPBX,2024-10-09T12:35:00Z,37.5587,-82.5674,8.0,8.0,0,0.0,,10+,30.1,,,True,True,,,,,,,CLR,,,,,,,,VFR,,,,,,,,,,,,METAR,447.0
588,KPBH 091235Z AUTO 00000KT 10SM CLR M01/M01 A3012 RMK AO2 T10141015,KPBH,2024-10-09T12:35:00Z,45.7064,-90.4052,-1.4,-1.5,0,0.0,,10+,30.12,,,True,True,,,,,,,CLR,,,,,,,,VFR,,,,,,,,,,,,METAR,445.0
589,KPAN 091235Z AUTO 00000KT 10SM CLR 18/M04 A3019 RMK AO2 PWINO TSNO,KPAN,2024-10-09T12:35:00Z,34.2551,-111.338,18.0,-4.0,0,0.0,,10+,30.19,,,True,True,,,True,,True,,CLR,,,,,,,,VFR,,,,,,,,,,,,METAR,1575.0
590,KP52 091235Z AUTO 00000KT 10SM CLR 15/M03 A3008 RMK AO2,KP52,2024-10-09T12:35:00Z,34.7263,-112.034,15.0,-3.0,0,0.0,,10+,30.08,,,True,True,,,,,,,CLR,,,,,,,,VFR,,,,,,,,,,,,METAR,1085.0
591,KP08 091235Z AUTO 12005KT 10SM CLR 23/M01 A2990 RMK AO2,KP08,2024-10-09T12:35:00Z,32.9359,-111.427,23.0,-1.0,120,5.0,,10+,29.9,,,True,True,,,,,,,CLR,,,,,,,,VFR,,,,,,,,,,,,METAR,477.0
592,KOZW 091235Z AUTO 24003KT 10SM OVC042 04/03 A3009 RMK AO2 T00390027,KOZW,2024-10-09T12:35:00Z,42.6327,-83.9854,3.9,2.7,240,3.0,,10+,30.09,,,True,True,,,,,,,OVC,4200.0,,,,,,,VFR,,,,,,,,,,,,METAR,288.0
593,KOZS 091235Z AUTO 16003KT 10SM CLR 07/03 A3012 RMK AO2,KOZS,2024-10-09T12:35:00Z,37.9745,-92.6897,7.0,3.0,160,3.0,,10+,30.12,,,True,True,,,,,,,CLR,,,,,,,,VFR,,,,,,,,,,,,METAR,321.0
594,KOZA 091235Z AUTO 00000KT 10SM CLR 13/06 A3013 RMK AO2,KOZA,2024-10-09T12:35:00Z,30.7312,-101.203,13.0,6.0,0,0.0,,10+,30.13,,,True,True,,,,,,,CLR,,,,,,,,VFR,,,,,,,,,,,,METAR,721.0
595,KOYM 091235Z AUTO 00000KT 10SM SCT065 04/03 A3002 RMK AO2 PWINO,KOYM,2024-10-09T12:35:00Z,41.4118,-78.5131,4.0,3.0,0,0.0,,10+,30.02,,,True,True,,,,,True,,SCT,6500.0,,,,,,,VFR,,,,,,,,,,,,METAR,582.0
596,KOXV 091235Z AUTO 22007KT CLR 11/03 A3005 RMK AO2,KOXV,2024-10-09T12:35:00Z,41.2984,-93.1114,11.0,3.0,220,7.0,,,30.05,,,True,True,,,,,,,CLR,,,,,,,,,,,,,,,,,,,,METAR,280.0
597,KOXI 091235Z AUTO 00000KT 10SM CLR 04/02 A3010 RMK AO1,KOXI,2024-10-09T12:35:00Z,41.3275,-86.665,4.0,2.0,0,0.0,,10+,30.1,,,True,True,,,,,,,CLR,,,,,,,,VFR,,,,,,,,,,,,METAR,208.0
598,KOWX 091235Z AUTO 32002KT 10SM CLR 06/05 A3011 RMK AO2,KOWX,2024-10-09T12:35:00Z,41.0341,-83.9862,6.0,5.0,320,2.0,,10+,30.11,,,True,True,,,,,,,CLR,,,,,,,,VFR,,,,,,,,,,,,METAR,232.0
599,KOWP 091235Z AUTO 13004KT 10SM CLR 16/07 A3009 RMK AO2 T01610065,KOWP,2024-10-09T12:35:00Z,36.1721,-96.1536,16.1,6.5,130,4.0,,10+,30.09,,,True,True,,,,,,,CLR,,,,,,,,VFR,,,,,,,,,,,,METAR,267.0
600,KOVL 091235Z AUTO 09003KT 10SM CLR 09/03 A3002 RMK AO2,KOVL,2024-10-09T12:35:00Z,44.7792,-95.0304,9.0,3.0,90,3.0,,10+,30.02,,,True,True,,,,,,,CLR,,,,,,,,VFR,,,,,,,,,,,,METAR,329.0
601,KOSC 091235Z AUTO 27008KT 10SM CLR 05/02 A3003 RMK AO2,KOSC,2024-10-09T12:35:00Z,44.453,-83.396,5.0,2.0,270,8.0,,10+,30.03,,,True,True,,,,,,,CLR,,,,,,,,VFR,,,,,,,,,,,,METAR,191.0
602,KOSA 091235Z AUTO 34003KT 10SM CLR 12/10 A3007 RMK AO2 T01180096,KOSA,2024-10-09T12:35:00Z,33.0936,-94.9601,11.8,9.6,340,3.0,,10+,30.07,,,True,True,,,,,,,CLR,,,,,,,,VFR,,,,,,,,,,,,METAR,108.0
603,KORS 091235Z AUTO 18007KT 10SM CLR 11/11 A3000 RMK AO2,KORS,2024-10-09T12:35:00Z,48.7081,-122.909,11.0,11.0,180,7.0,,10+,30.0,,,True,True,,,,,,,CLR,,,,,,,,VFR,,,,,,,,,,,,METAR,7.0
604,KORL 091235Z AUTO 04006KT 5SM BR FEW006 BKN042 OVC100 24/23 A2981 RMK AO2 P0002 T02390233,KORL,2024-10-09T12:35:00Z,28.5465,-81.3354,23.9,23.3,40,6.0,,5,29.81,,,True,True,,,,,,BR,FEW,600.0,BKN,4200.0,OVC,10000.0,,,MVFR,,,,,,0.02,,,,,,SPECI,32.0
605,KORK 091235Z AUTO 35005KT 10SM CLR 12/07 A3007 RMK AO2,KORK,2024-10-09T12:35:00Z,34.833,-92.2557,12.0,7.0,350,5.0,,10+,30.07,,,True,True,,,,,,,CLR,,,,,,,,VFR,,,,,,,,,,,,METAR,166.0
606,KORG 091235Z AUTO 00000KT 10SM CLR 11/09 A3000 RMK AO2 T01140085 PWINO,KORG,2024-10-09T12:35:00Z,30.068,-93.8043,11.4,8.5,0,0.0,,10+,30.0,,,True,True,,,,,True,,CLR,,,,,,,,VFR,,,,,,,,,,,,METAR,2.0
607,KOQN 091235Z AUTO 00000KT 10SM CLR 11/06 A2995 RMK AO2,KOQN,2024-10-09T12:35:00Z,39.9889,-75.5803,11.0,6.0,0,0.0,,10+,29.95,,,True,True,,,,,,,CLR,,,,,,,,VFR,,,,,,,,,,,,METAR,141.0
608,KOPL 091235Z AUTO 35003KT 10SM CLR 11/09 A2996 RMK AO2 T01120090,KOPL,2024-10-09T12:35:00Z,30.5643,-92.1021,11.2,9.0,350,3.0,,10+,29.96,,,True,True,,,,,,,CLR,,,,,,,,VFR,,,,,,,,,,,,METAR,22.0
609,KOOA 091235Z AUTO 20004KT 10SM CLR 09/05 A3007 RMK AO2 T00930050,KOOA,2024-10-09T12:35:00Z,41.2273,-92.4919,9.3,5.0,200,4.0,,10+,30.07,,,True,True,,,,,,,CLR,,,,,,,,VFR,,,,,,,,,,,,METAR,256.0
610,KONZ 091235Z AUTO 28004KT 10SM CLR 07/04 A3008 RMK AO2,KONZ,2024-10-09T12:35:00Z,42.0991,-83.161,7.0,4.0,280,4.0,,10+,30.08,,,True,True,,,,,,,CLR,,,,,,,,VFR,,,,,,,,,,,,METAR,179.0
611,KONX 091235Z AUTO 00000KT 10SM CLR 14/11 A3001 RMK AO2 T01440110,KONX,2024-10-09T12:35:00Z,36.399,-76.014,14.4,11.0,0,0.0,,10+,30.01,,,True,True,,,,,,,CLR,,,,,,,,VFR,,,,,,,,,,,,METAR,4.0
612,KONP 091235Z AUTO 36003KT 1SM BR OVC003 12/12 A3007 RMK AO2,KONP,2024-10-09T12:35:00Z,44.5825,-124.057,12.0,12.0,360,3.0,,1,30.07,,,True,True,,,,,,BR,OVC,300.0,,,,,,,LIFR,,,,,,,,,,,,METAR,43.0
613,KONM 091235Z AUTO 20004KT 10SM CLR 13/M02 A3021 RMK AO2 T01301016,KONM,2024-10-09T12:35:00Z,34.0263,-106.904,13.0,-1.6,200,4.0,,10+,30.21,,,True,True,,,,,,,CLR,,,,,,,,VFR,,,,,,,,,,,,METAR,1467.0
614,KONL 091235Z AUTO 18005KT 10SM CLR 11/05 A3001 RMK AO2 T01120047,KONL,2024-10-09T12:35:00Z,42.4691,-98.6903,11.2,4.7,180,5.0,,10+,30.01,,,True,True,,,,,,,CLR,,,,,,,,VFR,,,,,,,,,,,,METAR,619.0
615,KONA 091235Z AUTO 00000KT 10SM CLR 06/05 A3007 RMK AO2,KONA,2024-10-09T12:35:00Z,44.076,-91.707,6.0,5.0,0,0.0,,10+,30.07,,,True,True,,,,,,,CLR,,,,,,,,VFR,,,,,,,,,,,,METAR,200.0
616,KOMH 091235Z AUTO 00000KT 10SM CLR 10/10 A3003 RMK AO2,KOMH,2024-10-09T12:35:00Z,38.2487,-78.0454,10.0,10.0,0,0.0,,10+,30.03,,,True,True,,,,,,,CLR,,,,,,,,VFR,,,,,,,,,,,,METAR,136.0
617,KOLZ 091235Z AUTO 15005KT 10SM CLR 07/05 A3004 RMK A01,KOLZ,2024-10-09T12:35:00Z,42.6831,-91.976,7.0,5.0,150,5.0,,10+,30.04,,,True,True,,,,,,,CLR,,,,,,,,VFR,,,,,,,,,,,,METAR,328.0
618,KOLY 091235Z AUTO 00000KT 10SM CLR 07/07 A3012 RMK AO2 T00740069,KOLY,2024-10-09T12:35:00Z,38.7213,-88.1799,7.4,6.9,0,0.0,,10+,30.12,,,True,True,,,,,,,CLR,,,,,,,,VFR,,,,,,,,,,,,METAR,144.0
619,KOLG 091235Z AUTO 00000KT 1 1/2SM VV007 00/00 A3011 RMK AO1,KOLG,2024-10-09T12:35:00Z,46.3153,-91.8183,0.0,0.0,0,0.0,,1.5,30.11,,,True,True,,,,,,,OVX,0.0,,,,,,,IFR,,,,,,,,,,,700.0,METAR,334.0
620,KOLE 091235Z AUTO 21005KT M1/4SM FG OVC001 A2995 RMK AO2,KOLE,2024-10-09T12:35:00Z,42.2429,-78.3721,,,210,5.0,,0.25,29.95,,,True,True,,,,,,FG,OVC,100.0,,,,,,,LIFR,,,,,,,,,,,,METAR,651.0
621,KOKZ 091235Z AUTO 06007KT 030V100 10SM CLR 17/13 A3000 RMK AO2 T01720132,KOKZ,2024-10-09T12:35:00Z,32.9651,-82.8387,17.2,13.2,60,7.0,,10+,30.0,,,True,True,,,,,,,CLR,,,,,,,,VFR,,,,,,,,,,,,METAR,128.0
622,KOKV 091235Z AUTO 23004KT 10SM CLR 11/06 A2999 RMK AO2,KOKV,2024-10-09T12:35:00Z,39.1406,-78.1391,11.0,6.0,230,4.0,,10+,29.99,,,True,True,,,,,,,CLR,,,,,,,,VFR,,,,,,,,,,,,METAR,213.0
623,KOKM 091235Z AUTO 00000KT 10SM CLR 12/09 A3008 RMK AO2 T01210090,KOKM,2024-10-09T12:35:00Z,35.6713,-95.9514,12.1,9.0,0,0.0,,10+,30.08,,,True,True,,,,,,,CLR,,,,,,,,VFR,,,,,,,,,,,,METAR,215.0
624,KOJA 091235Z AUTO 20007KT 10SM CLR 19/15 A3002 RMK AO2 T01890149,KOJA,2024-10-09T12:35:00Z,35.5484,-98.6702,18.9,14.9,200,7.0,,10+,30.02,,,True,True,,,,,,,CLR,,,,,,,,VFR,,,,,,,,,,,,METAR,490.0
625,KOIN 091235Z AUTO 21003KT 10SM CLR 06/06 A3009 RMK AO1 T00580055,KOIN,2024-10-09T12:35:00Z,39.8298,-100.538,5.8,5.5,210,3.0,,10+,30.09,,,True,True,,,,,,,CLR,,,,,,,,VFR,,,,,,,,,,,,METAR,810.0
626,KOIC 091235Z AUTO 15003KT M1/4SM FG VV000 03/03 A2993 RMK AO2,KOIC,2024-10-09T12:35:00Z,42.5642,-75.5269,3.0,3.0,150,3.0,,0.25,29.93,,,True,True,,,,,,FG,OVX,0.0,,,,,,,LIFR,,,,,,,,,,,0.0,METAR,311.0
627,KOGS 091235Z AUTO 00000KT 10SM FEW060 06/06 A2986 RMK AO2,KOGS,2024-10-09T12:35:00Z,44.68,-75.4641,6.0,6.0,0,0.0,,10+,29.86,,,True,True,,,,,,,FEW,6000.0,,,,,,,VFR,,,,,,,,,,,,METAR,88.0
628,KOGA 091235Z AUTO 26005KT 10SM CLR 04/01 A3005 RMK AO2 T00410006,KOGA,2024-10-09T12:35:00Z,41.1164,-101.768,4.1,0.6,260,5.0,,10+,30.05,,,True,True,,,,,,,CLR,,,,,,,,VFR,,,,,,,,,,,,METAR,991.0
629,KOEO 091235Z AUTO 00000KT 10SM CLR 03/02 A3011 RMK AO2 T00340021 PWINO,KOEO,2024-10-09T12:35:00Z,45.3108,-92.6948,3.4,2.1,0,0.0,,10+,30.11,,,True,True,,,,,True,,CLR,,,,,,,,VFR,,,,,,,,,,,,METAR,269.0
630,KOEL 091235Z AUTO 27004KT 10SM CLR 09/05 A3005 RMK AO1 T00900053,KOEL,2024-10-09T12:35:00Z,39.1139,-100.819,9.0,5.3,270,4.0,,10+,30.05,,,True,True,,,,,,,CLR,,,,,,,,VFR,,,,,,,,,,,,METAR,924.0
631,KOEB 091235Z AUTO 00000KT 9SM CLR 03/03 A3010 RMK AO2,KOEB,2024-10-09T12:35:00Z,41.9308,-85.0544,3.0,3.0,0,0.0,,9,30.1,,,True,True,,,,,,,CLR,,,,,,,,VFR,,,,,,,,,,,,METAR,291.0
632,KOCQ 091235Z M02/M02 A3013 RMK AO1 T10231025,KOCQ,2024-10-09T12:35:00Z,44.8749,-87.9084,-2.3,-2.5,,,,,30.13,,,,True,,,,,,,,,,,,,,,,,,,,,,,,,,,METAR,181.0
633,KOBE 091235Z AUTO 11007G13KT 3SM FEW034 SCT100 A2974 RMK AO2 LTG DSNT N,KOBE,2024-10-09T12:35:00Z,27.2663,-80.8487,,,110,7.0,13.0,3,29.74,,,True,True,,,,,,,FEW,3400.0,SCT,10000.0,,,,,MVFR,,,,,,,,,,,,METAR,11.0
634,KOAR 091235Z AUTO 28005KT 1 1/4SM BR OVC002 12/12 A2995 RMK AO2,KOAR,2024-10-09T12:35:00Z,36.6815,-121.757,12.0,12.0,280,5.0,,1.25,29.95,,,True,True,,,,,,BR,OVC,200.0,,,,,,,LIFR,,,,,,,,,,,,METAR,41.0
635,KO86 091235Z AUTO 00000KT 10SM CLR 08/01 A3003 RMK A01,KO86,2024-10-09T12:35:00Z,40.9845,-122.693,8.0,1.0,0,0.0,,10+,30.03,,,True,True,,,,,,,CLR,,,,,,,,VFR,,,,,,,,,,,,METAR,729.0
636,KO54 091235Z AUTO 00000KT 10SM CLR 08/04 A3003 RMK A01,KO54,2024-10-09T12:35:00Z,40.746,-122.922,8.0,4.0,0,0.0,,10+,30.03,,,True,True,,,,,,,CLR,,,,,,,,VFR,,,,,,,,,,,,METAR,693.0
637,KO32 091235Z AUTO 13005KT 10SM CLR 19/11 A2985 RMK AO2 T01940114 $,KO32,2024-10-09T12:35:00Z,36.6691,-119.453,19.4,11.4,130,5.0,,10+,29.85,,,True,True,True,,,,,,CLR,,,,,,,,VFR,,,,,,,,,,,,METAR,117.0
638,KO22 091235Z AUTO 00000KT 10SM CLR 15/01 A2995 RMK A01,KO22,2024-10-09T12:35:00Z,38.03,-120.415,15.0,1.0,0,0.0,,10+,29.95,,,True,True,,,,,,,CLR,,,,,,,,VFR,,,,,,,,,,,,METAR,637.0
639,KO05 091235Z AUTO 00000KT 10SM FEW032 SCT040 BKN047 05/M03 A3012 RMK A01,KO05,2024-10-09T12:35:00Z,40.2865,-121.243,5.0,-3.0,0,0.0,,10+,30.12,,,True,True,,,,,,,FEW,3200.0,SCT,4000.0,BKN,4700.0,,,VFR,,,,,,,,,,,,METAR,1380.0
640,KNY0 091235Z AUTO 27003KT 10SM CLR 07/06 A2991 RMK AO2 T00650062,KNY0,2024-10-09T12:35:00Z,42.999,-74.3292,6.5,6.2,270,3.0,,10+,29.91,,,True,True,,,,,,,CLR,,,,,,,,VFR,,,,,,,,,,,,METAR,266.0
641,KNUQ 091235Z AUTO 00000KT 10SM OVC010 16/14 A2995 RMK AO2,KNUQ,2024-10-09T12:35:00Z,37.4059,-122.049,16.0,14.0,0,0.0,,10+,29.95,,,True,True,,,,,,,OVC,1000.0,,,,,,,MVFR,,,,,,,,,,,,METAR,9.0
642,KNRN 091235Z AUTO 29003KT 10SM CLR 07/05 A3008 RMK AO2,KNRN,2024-10-09T12:35:00Z,39.8497,-99.8915,7.0,5.0,290,3.0,,10+,30.08,,,True,True,,,,,,,CLR,,,,,,,,VFR,,,,,,,,,,,,METAR,726.0
643,KNOW 091235Z AUTO 26011KT 10SM CLR 11/07 A3002 RMK AO2 T01080070,KNOW,2024-10-09T12:35:00Z,48.1394,-123.403,10.8,7.0,260,11.0,,10+,30.02,,,True,True,,,,,,,CLR,,,,,,,,VFR,,,,,,,,,,,,METAR,3.0
644,KN79 091235Z AUTO 00000KT 10SM CLR 08/07 A2995 RMK AO2 T00760071 $,KN79,2024-10-09T12:35:00Z,40.8371,-76.546,7.6,7.1,0,0.0,,10+,29.95,,,True,True,True,,,,,,CLR,,,,,,,,VFR,,,,,,,,,,,,METAR,269.0
645,KN38 091235Z AUTO VRB03KT 10SM FEW060 06/06 A2995 RMK AO2,KN38,2024-10-09T12:35:00Z,41.7287,-77.3958,6.0,6.0,VRB,3.0,,10+,29.95,,,True,True,,,,,,,FEW,6000.0,,,,,,,VFR,,,,,,,,,,,,METAR,576.0
646,KN03 091235Z AUTO 00000KT 10SM CLR 03/03 A2994 RMK AO2,KN03,2024-10-09T12:35:00Z,42.5929,-76.2174,3.0,3.0,0,0.0,,10+,29.94,,,True,True,,,,,,,CLR,,,,,,,,VFR,,,,,,,,,,,,METAR,361.0
647,KMZZ 091235Z AUTO 00000KT 7SM CLR 05/05 A3011 RMK AO2 T00520052,KMZZ,2024-10-09T12:35:00Z,40.4863,-85.6859,5.2,5.2,0,0.0,,7,30.11,,,True,True,,,,,,,CLR,,,,,,,,VFR,,,,,,,,,,,,METAR,260.0
648,KMZJ 091235Z AUTO 14004KT 10SM FEW040 SCT046 BKN050 22/02 A2995 RMK AO2,KMZJ,2024-10-09T12:35:00Z,32.5147,-111.335,22.0,2.0,140,4.0,,10+,29.95,,,True,True,,,,,,,FEW,4000.0,SCT,4600.0,BKN,5000.0,,,VFR,,,,,,,,,,,,METAR,574.0
649,KMZH 091235Z AUTO 05003KT 10SM CLR 05/03 A3010 RMK AO2,KMZH,2024-10-09T12:35:00Z,46.4163,-92.8049,5.0,3.0,50,3.0,,10+,30.1,,,True,True,,,,,,,CLR,,,,,,,,VFR,,,,,,,,,,,,METAR,331.0
650,KMYZ 091235Z AUTO 00000KT 10SM CLR 06/03 A3007 RMK AO2,KMYZ,2024-10-09T12:35:00Z,39.8544,-96.6279,6.0,3.0,0,0.0,,10+,30.07,,,True,True,,,,,,,CLR,,,,,,,,VFR,,,,,,,,,,,,METAR,388.0
651,KMYP 091235Z AUTO 32013KT 10SM CLR 03/M05 A3069 RMK AO2,KMYP,2024-10-09T12:35:00Z,38.4972,-106.32,3.0,-5.0,320,13.0,,10+,30.69,,,True,True,,,,,,,CLR,,,,,,,,VFR,,,,,,,,,,,,METAR,3629.0
652,KMYJ 091235Z AUTO 00000KT 10SM CLR 05/04 A3011 RMK AO2,KMYJ,2024-10-09T12:35:00Z,39.1561,-91.8129,5.0,4.0,0,0.0,,10+,30.11,,,True,True,,,,,,,CLR,,,,,,,,VFR,,,,,,,,,,,,METAR,249.0
653,KMXO 091235Z AUTO 00000KT 10SM CLR 04/04 A3004 RMK AO2,KMXO,2024-10-09T12:35:00Z,42.2203,-91.1604,4.0,4.0,0,0.0,,10+,30.04,,,True,True,,,,,,,CLR,,,,,,,,VFR,,,,,,,,,,,,METAR,251.0
654,KMWO 091235Z AUTO 00000KT 10SM CLR 07/ A3011 RMK AO2 T0071////,KMWO,2024-10-09T12:35:00Z,39.5324,-84.3973,7.1,,0,0.0,,10+,30.11,,,True,True,,,,,,,CLR,,,,,,,,VFR,,,,,,,,,,,,METAR,197.0
655,KMWM 091235Z AUTO 00000KT 10SM CLR 03/02 A3002 RMK AO2,KMWM,2024-10-09T12:35:00Z,43.91,-95.1073,3.0,2.0,0,0.0,,10+,30.02,,,True,True,,,,,,,CLR,,,,,,,,VFR,,,,,,,,,,,,METAR,427.0
656,KMVH 091235Z AUTO 28005KT 10SM FEW075 09/M02 A3005 RMK AO2,KMVH,2024-10-09T12:35:00Z,46.838,-108.936,9.0,-2.0,280,5.0,,10+,30.05,,,True,True,,,,,,,FEW,7500.0,,,,,,,VFR,,,,,,,,,,,,METAR,1352.0
657,KMVE 091235Z AUTO 18003KT 10SM CLR 06/03 A3003 RMK AO2,KMVE,2024-10-09T12:35:00Z,44.9675,-95.7116,6.0,3.0,180,3.0,,10+,30.03,,,True,True,,,,,,,CLR,,,,,,,,VFR,,,,,,,,,,,,METAR,319.0
658,KMUT 091235Z AUTO 00000KT 10SM CLR 07/07 A3008 RMK AO2,KMUT,2024-10-09T12:35:00Z,41.367,-91.1406,7.0,7.0,0,0.0,,10+,30.08,,,True,True,,,,,,,CLR,,,,,,,,VFR,,,,,,,,,,,,METAR,166.0
659,KMTV 091235Z AUTO 00000KT 10SM CLR 07/05 A3010 RMK AO2 T00650052,KMTV,2024-10-09T12:35:00Z,36.6272,-80.0134,6.5,5.2,0,0.0,,10+,30.1,,,True,True,,,,,,,CLR,,,,,,,,VFR,,,,,,,,,,,,METAR,276.0
660,KMTK 091235Z AUTO 04011G20KT CLR 27/20 A2983 RMK A01,KMTK,2024-10-09T12:35:00Z,28.6967,-89.3958,27.0,20.0,40,11.0,20.0,,29.83,,,True,True,,,,,,,CLR,,,,,,,,,,,,,,,,,,,,METAR,50.0
661,KMRT 091235Z AUTO 00000KT 10SM CLR 08/05 A3009 RMK AO2 T00770045,KMRT,2024-10-09T12:35:00Z,40.2237,-83.3475,7.7,4.5,0,0.0,,10+,30.09,,,True,True,,,,,,,CLR,,,,,,,,VFR,,,,,,,,,,,,METAR,302.0
662,KMRJ 091235Z AUTO 11004KT 10SM CLR 10/02 A3009 RMK AO2 PWINO,KMRJ,2024-10-09T12:35:00Z,42.8875,-90.2315,10.0,2.0,110,4.0,,10+,30.09,,,True,True,,,,,True,,CLR,,,,,,,,VFR,,,,,,,,,,,,METAR,350.0
663,KMQS 091235Z AUTO 00000KT 10SM CLR 13/08 A2995 RMK AO2,KMQS,2024-10-09T12:35:00Z,39.9773,-75.8605,13.0,8.0,0,0.0,,10+,29.95,,,True,True,,,,,,,CLR,,,,,,,,VFR,,,,,,,,,,,,METAR,200.0
664,KMQJ 091235Z AUTO 00000KT 9SM CLR 07/06 A3010 RMK AO2 T00680064 $,KMQJ,2024-10-09T12:35:00Z,39.8402,-85.894,6.8,6.4,0,0.0,,9,30.1,,,True,True,True,,,,,,CLR,,,,,,,,VFR,,,,,,,,,,,,METAR,262.0
665,KMQB 091235Z AUTO 00000KT 10SM CLR 06/04 A3011 RMK AO2 T00590040,KMQB,2024-10-09T12:35:00Z,40.5176,-90.6481,5.9,4.0,0,0.0,,10+,30.11,,,True,True,,,,,,,CLR,,,,,,,,VFR,,,,,,,,,,,,METAR,205.0
666,KMPZ 091235Z AUTO 21004KT 10SM CLR 06/05 A3009 RMK AO2,KMPZ,2024-10-09T12:35:00Z,40.9453,-91.5122,6.0,5.0,210,4.0,,10+,30.09,,,True,True,,,,,,,CLR,,,,,,,,VFR,,,,,,,,,,,,METAR,222.0
667,KMPR 091235Z AUTO 00000KT 10SM CLR 10/04 A3005 RMK AO2 T01000044,KMPR,2024-10-09T12:35:00Z,38.3491,-97.6883,10.0,4.4,0,0.0,,10+,30.05,,,True,True,,,,,,,CLR,,,,,,,,VFR,,,,,,,,,,,,METAR,455.0
668,KMPE 091235Z AUTO 00000KT 10SM CLR A2996 RMK AO2,KMPE,2024-10-09T12:35:00Z,32.7975,-89.125,,,0,0.0,,10+,29.96,,,True,True,,,,,,,CLR,,,,,,,,VFR,,,,,,,,,,,,METAR,134.0
669,KMOX 091235Z AUTO 13007KT 10SM CLR 06/04 A3000 RMK AO2 TSNO,KMOX,2024-10-09T12:35:00Z,45.5677,-95.9659,6.0,4.0,130,7.0,,10+,30.0,,,True,True,,,True,,,,CLR,,,,,,,,VFR,,,,,,,,,,,,METAR,346.0
670,KMOP 091235Z AUTO 25004KT 10SM CLR 03/03 A3008 RMK AO2 T00310027,KMOP,2024-10-09T12:35:00Z,43.6229,-84.743,3.1,2.7,250,4.0,,10+,30.08,,,True,True,,,,,,,CLR,,,,,,,,VFR,,,,,,,,,,,,METAR,229.0
671,KMNI 091235Z AUTO 00000KT 10SM CLR 13/11 A3002 RMK AO2,KMNI,2024-10-09T12:35:00Z,33.5882,-80.2059,13.0,11.0,0,0.0,,10+,30.02,,,True,True,,,,,,,CLR,,,,,,,,VFR,,,,,,,,,,,,METAR,29.0
672,KMNH 091235Z AUTO 24006KT 10SM CLR 07/M03 A3031 RMK AO2,KMNH,2024-10-09T12:35:00Z,39.2232,-104.642,7.0,-3.0,240,6.0,,10+,30.31,,,True,True,,,,,,,CLR,,,,,,,,VFR,,,,,,,,,,,,METAR,2152.0
673,KMNE 091235Z AUTO 00000KT 10SM CLR 11/07 A3004 RMK AO2,KMNE,2024-10-09T12:35:00Z,32.6433,-93.2972,11.0,7.0,0,0.0,,10+,30.04,,,True,True,,,,,,,CLR,,,,,,,,VFR,,,,,,,,,,,,METAR,84.0
674,KMMI 091235Z AUTO 05003KT 10SM CLR 11/10 A3008 RMK A01,KMMI,2024-10-09T12:35:00Z,35.3952,-84.5612,11.0,10.0,50,3.0,,10+,30.08,,,True,True,,,,,,,CLR,,,,,,,,VFR,,,,,,,,,,,,METAR,252.0
675,KMMH 091235Z AUTO 00000KT 10SM CLR 01/M04 A3030 RMK AO2 T00051043,KMMH,2024-10-09T12:35:00Z,37.6253,-118.838,0.5,-4.3,0,0.0,,10+,30.3,,,True,True,,,,,,,CLR,,,,,,,,VFR,,,,,,,,,,,,METAR,2167.0
676,KMLT 091235Z AUTO 00000KT 6SM -RA BR FEW002 SCT048 OVC060 04/04 A2987 RMK AO2 RAB20 P0000 T00440039,KMLT,2024-10-09T12:35:00Z,45.6478,-68.6925,4.4,3.9,0,0.0,,6,29.87,,,True,True,,,,,,-RA BR,FEW,200.0,SCT,4800.0,OVC,6000.0,,,VFR,,,,,,0.005,,,,,,SPECI,121.0
677,KMLJ 091235Z AUTO 08004KT 10SM FEW046 18/15 A3001 RMK AO2,KMLJ,2024-10-09T12:35:00Z,33.153,-83.242,18.0,15.0,80,4.0,,10+,30.01,,,True,True,,,,,,,FEW,4600.0,,,,,,,VFR,,,,,,,,,,,,METAR,115.0
678,KMLE 091235Z AUTO 00000KT 10SM CLR 08/05 A3005 RMK AO2 T00790054,KMLE,2024-10-09T12:35:00Z,41.1981,-96.1131,7.9,5.4,0,0.0,,10+,30.05,,,True,True,,,,,,,CLR,,,,,,,,VFR,,,,,,,,,,,,METAR,318.0
679,KMKS 091235Z AUTO 04005KT 10SM CLR 16/12 A3000 RMK AO2,KMKS,2024-10-09T12:35:00Z,33.1874,-80.0363,16.0,12.0,40,5.0,,10+,30.0,,,True,True,,,,,,,CLR,,,,,,,,VFR,,,,,,,,,,,,METAR,22.0
680,KMKQ 091235Z AUTO 00000KT 10SM CLR 27/21 A2981 RMK A01,KMKQ,2024-10-09T12:35:00Z,27.5197,-90.0981,27.0,21.0,0,0.0,,10+,29.81,,,True,True,,,,,,,CLR,,,,,,,,VFR,,,,,,,,,,,,METAR,40.0
681,KMKN 091235Z AUTO 20003KT CLR 15/12 A3007 RMK AO2 T01520115 PWINO,KMKN,2024-10-09T12:35:00Z,31.924,-98.5978,15.2,11.5,200,3.0,,,30.07,,,True,True,,,,,True,,CLR,,,,,,,,,,,,,,,,,,,,METAR,428.0
682,KMKJ 091235Z AUTO 00000KT 10SM CLR 06/05 A3013 RMK AO2 T00590053,KMKJ,2024-10-09T12:35:00Z,36.8944,-81.3449,5.9,5.3,0,0.0,,10+,30.13,,,True,True,,,,,,,CLR,,,,,,,,VFR,,,,,,,,,,,,METAR,777.0
683,KMJQ 091235Z AUTO 33005KT 10SM CLR 06/04 A3002 RMK AO2,KMJQ,2024-10-09T12:35:00Z,43.6496,-94.9885,6.0,4.0,330,5.0,,10+,30.02,,,True,True,,,,,,,CLR,,,,,,,,VFR,,,,,,,,,,,,METAR,439.0
684,KMJD 091235Z AUTO 35004KT 10SM CLR 16/14 A2990 RMK AO2,KMJD,2024-10-09T12:35:00Z,30.494,-89.6535,16.0,14.0,350,4.0,,10+,29.9,,,True,True,,,,,,,CLR,,,,,,,,VFR,,,,,,,,,,,,METAR,17.0
685,KMHR 091235Z AUTO 14008KT 10SM CLR 13/09 A2986 RMK A01,KMHR,2024-10-09T12:35:00Z,38.56,-121.284,13.0,9.0,140,8.0,,10+,29.86,,,True,True,,,,,,,CLR,,,,,,,,VFR,,,,,,,,,,,,METAR,30.0
686,KMHP 091235Z AUTO 06008KT 10SM CLR 18/14 A2998 RMK AO2 T01790142,KMHP,2024-10-09T12:35:00Z,32.374,-82.079,17.9,14.2,60,8.0,,10+,29.98,,,True,True,,,,,,,CLR,,,,,,,,VFR,,,,,,,,,,,,METAR,60.0
687,KMHL 091235Z AUTO 00000KT 10SM CLR 07/06 A3012 RMK AO2,KMHL,2024-10-09T12:35:00Z,39.093,-93.2024,7.0,6.0,0,0.0,,10+,30.12,,,True,True,,,,,,,CLR,,,,,,,,VFR,,,,,,,,,,,,METAR,236.0
688,KMGR 091235Z AUTO 06007KT 7SM OVC007 21/21 A2992 RMK AO2 T02060206 $,KMGR,2024-10-09T12:35:00Z,31.0835,-83.8035,20.6,20.6,60,7.0,,7,29.92,,,True,True,True,,,,,,OVC,700.0,,,,,,,IFR,,,,,,,,,,,,METAR,86.0
689,KMGN 091235Z AUTO 00000KT 10SM BKN041 08/03 A3004 RMK AO2 T00820032,KMGN,2024-10-09T12:35:00Z,45.4241,-84.913,8.2,3.2,0,0.0,,10+,30.04,,,True,True,,,,,,,BKN,4100.0,,,,,,,VFR,,,,,,,,,,,,METAR,205.0
690,KMGG 091235Z AUTO 00000KT 10SM CLR 05/03 A3006 RMK AO2 T00530025,KMGG,2024-10-09T12:35:00Z,45.2354,-93.9896,5.3,2.5,0,0.0,,10+,30.06,,,True,True,,,,,,,CLR,,,,,,,,VFR,,,,,,,,,,,,METAR,310.0
691,KMGC 091235Z AUTO 00000KT 10SM CLR 05/05 A3010 RMK AO2,KMGC,2024-10-09T12:35:00Z,41.7048,-86.8183,5.0,5.0,0,0.0,,10+,30.1,,,True,True,,,,,,,CLR,,,,,,,,VFR,,,,,,,,,,,,METAR,199.0
692,KMFV 091235Z AUTO 24003KT 10SM CLR 11/09 A3002 RMK AO2 T01060091,KMFV,2024-10-09T12:35:00Z,37.646,-75.763,10.6,9.1,240,3.0,,10+,30.02,,,True,True,,,,,,,CLR,,,,,,,,VFR,,,,,,,,,,,,METAR,13.0
693,KMEZ 091235Z AUTO 00000KT 1/2SM FG CLR 07/07 A3009 RMK AO2 T00740074,KMEZ,2024-10-09T12:35:00Z,34.5414,-94.1918,7.4,7.4,0,0.0,,0.5,30.09,,,True,True,,,,,,FG,CLR,,,,,,,,LIFR,,,,,,,,,,,,METAR,320.0
694,KMEV 091235Z AUTO 00000KT 10SM CLR 02/M04 A3014 RMK AO2,KMEV,2024-10-09T12:35:00Z,38.9963,-119.75,2.0,-4.0,0,0.0,,10+,30.14,,,True,True,,,,,,,CLR,,,,,,,,VFR,,,,,,,,,,,,METAR,1437.0
695,KMDZ 091235Z AUTO 07005KT 10SM CLR 00/M01 A3011 RMK AO2 T10051010 PWINO,KMDZ,2024-10-09T12:35:00Z,45.1013,-90.3064,-0.5,-1.0,70,5.0,,10+,30.11,,,True,True,,,,,True,,CLR,,,,,,,,VFR,,,,,,,,,,,,METAR,446.0
696,KMDS 091235Z AUTO 06004KT 10SM CLR 04/04 A3001 RMK AO2 TSNO,KMDS,2024-10-09T12:35:00Z,44.0141,-97.0817,4.0,4.0,60,4.0,,10+,30.01,,,True,True,,,True,,,,CLR,,,,,,,,VFR,,,,,,,,,,,,METAR,524.0
697,KMDQ 091235Z AUTO 00000KT 10SM CLR 11/08 A3005 RMK A02 T01060085,KMDQ,2024-10-09T12:35:00Z,34.866,-86.559,10.6,8.5,0,0.0,,10+,30.05,,,True,True,,,,,,,CLR,,,,,,,,VFR,,,,,,,,,,,,METAR,221.0
698,KMDD 091235Z AUTO 27003KT 10SM CLR 15/07 A3011 RMK AO2 T01520069,KMDD,2024-10-09T12:35:00Z,32.0359,-102.1,15.2,6.9,270,3.0,,10+,30.11,,,True,True,,,,,,,CLR,,,,,,,,VFR,,,,,,,,,,,,METAR,853.0
